{
"type": "FeatureCollection",
"name": "Area floriano -CFB",
"crs": { "type": "name", "properties": { "name": "urn:ogc:def:crs:EPSG::32723" } },
"features": [
{"type":"Feature","properties":{"fid":1,"id":null,"Name":"Malhada Grande (FRRC-Papagaio)","description":null,"timestamp":null,"begin":null,"end":null,"altitudeMode":null,"tessellate":-1,"extrude":0,"visibility":-1,"drawOrder":null,"icon":null,"COD":"A549","FAZENDA":"Malhada Grande (FRRC-Papagaio)","Municipio":"Nazaré do Piauí","Legenda":"Propriedades com Intenção de Compra","UF":"PI","FOCO":"Sim","FONTE":"Sem Previsão","EIA_RIMA":"Sim","ID2":2,"AREA_ha":531.414,"RECEBIDO":"","CAR":"-","RL_AVERBAD":"-","BLOCO":"Aguard Lim","AREA_RL":159.424},"geometry":{"type":"Polygon","coordinates":[[[728963.559862093068659,9207982.377108581364155,0.0],[730191.728579992079176,9210844.02583815716207,0.0],[730405.910339659545571,9210876.038499429821968,0.0],[730527.765121591277421,9210915.848533244803548,0.0],[730526.039127390016802,9210949.912312150001526,0.0],[730524.139446090557612,9211191.298584777861834,0.0],[730574.574168291175738,9211502.025365084409714,0.0],[730592.011391005944461,9211724.900732478126884,0.0],[730493.782311920775101,9211757.184530466794968,0.0],[730201.327373725478537,9211850.093185240402818,0.0],[730247.338430153671652,9211977.3937679938972,0.0],[730224.686238868394867,9212125.513614961877465,0.0],[730214.66309174709022,9212155.822514759376645,0.0],[730090.605185903026722,9212309.879000782966614,0.0],[729625.918734530336224,9212540.55163206346333,0.0],[729321.304112848825753,9212416.127907482907176,0.0],[728006.703673592419364,9207710.325215321034193,0.0],[728335.429615212487988,9207807.750795086845756,0.0],[728963.559862093068659,9207982.377108581364155,0.0]]]}},
{"type":"Feature","properties":{"fid":2,"id":null,"Name":"São Francisco (FFC)","description":null,"timestamp":null,"begin":null,"end":null,"altitudeMode":null,"tessellate":-1,"extrude":0,"visibility":-1,"drawOrder":null,"icon":null,"COD":"A001","FAZENDA":"São Francisco (FFC)","Municipio":"Itaueira","Legenda":"Propriedades Compradas","UF":"PI","FOCO":"Sim","FONTE":"DWG/SHP-Cliente","EIA_RIMA":"Sim","ID2":9,"AREA_ha":2534.5,"RECEBIDO":"05/04/2017","CAR":"OK -","RL_AVERBAD":"-","BLOCO":"Bloco 02","AREA_RL":760.351},"geometry":{"type":"Polygon","coordinates":[[[685790.321344198193401,9177436.118973450735211,0.0],[684035.457730239722878,9173973.591781068593264,0.0],[688267.629525859374553,9171905.70852929726243,0.0],[693309.162441284628585,9173732.475777635350823,0.0],[685790.321344198193401,9177436.118973450735211,0.0]]]}},
{"type":"Feature","properties":{"fid":3,"id":null,"Name":"São Francisco (MACF)","description":null,"timestamp":null,"begin":null,"end":null,"altitudeMode":null,"tessellate":-1,"extrude":0,"visibility":-1,"drawOrder":null,"icon":null,"COD":"A212","FAZENDA":"São Francisco (MACF)","Municipio":"Itaueira","Legenda":"Propriedades Compradas","UF":"PI","FOCO":"Sim","FONTE":"DWG/SHP-Cliente","EIA_RIMA":"Sim","ID2":17,"AREA_ha":6041.7,"RECEBIDO":"05/04/2017","CAR":"OK -","RL_AVERBAD":"-","BLOCO":"Bloco 02","AREA_RL":1812.51},"geometry":{"type":"MultiPolygon","coordinates":[[[[690359.163551889010705,9159387.013990607112646,0.0],[690356.662506615743041,9159381.804111961275339,0.0],[689604.746706494363025,9157815.502973705530167,0.0],[694534.323674401384778,9155350.795434607192874,0.0],[695655.530970811843872,9156690.284268107265234,0.0],[690359.163551889010705,9159387.013990607112646,0.0]]],[[[696527.385465314029716,9159471.329591458663344,0.0],[696472.624223882216029,9159477.739665498957038,0.0],[697932.356281945947558,9162166.184122679755092,0.0],[698223.221168923424557,9162792.28813992254436,0.0],[698621.05958613823168,9163470.113248193636537,0.0],[698823.914819737197831,9163816.893328055739403,0.0],[699054.441225003451109,9164214.926569880917668,0.0],[700030.231285790796392,9166024.38828625716269,0.0],[694790.397035656380467,9168686.784820320084691,0.0],[693159.963215251569636,9165980.500433132052422,0.0],[691121.969456218183041,9160983.687096785753965,0.0],[696814.74355418770574,9158155.620530238375068,0.0],[697672.432337630074471,9159144.994341982528567,0.0],[696527.385465314029716,9159471.329591458663344,0.0]]]]}},
{"type":"Feature","properties":{"fid":4,"id":null,"Name":"Roçado","description":null,"timestamp":null,"begin":null,"end":null,"altitudeMode":null,"tessellate":-1,"extrude":0,"visibility":-1,"drawOrder":null,"icon":null,"COD":"A315","FAZENDA":"Roçado","Municipio":"Itaueira","Legenda":"Propriedades com Intenção de Compra","UF":"PI","FOCO":"Sim","FONTE":"GEO 15 dias 02/05 Aprox","EIA_RIMA":"Sim","ID2":23,"AREA_ha":528.057,"RECEBIDO":"","CAR":"-","RL_AVERBAD":"-","BLOCO":"Aguard Lim","AREA_RL":158.417},"geometry":{"type":"Polygon","coordinates":[[[693640.038700871635228,9175673.852348122745752,0.0],[694934.226604373310693,9174970.675121059641242,0.0],[694628.43463032739237,9174331.977794982492924,0.0],[694642.505713432794437,9174325.930528813973069,0.0],[695027.318946103914641,9174503.898985020816326,0.0],[695927.697526099393144,9173935.049338141456246,0.0],[695983.335193259641528,9174021.045448120683432,0.0],[695897.550726629211567,9174060.724132569506764,0.0],[695806.004097890108824,9174063.363147236406803,0.0],[695143.56293719925452,9174558.657842773944139,0.0],[695594.920887363958173,9174787.208614829927683,0.0],[696247.850161525886506,9175530.62746711820364,0.0],[696842.84888744330965,9176409.600686866790056,0.0],[694637.981386122759432,9177546.34369545429945,0.0],[693640.038700871635228,9175673.852348122745752,0.0]]]}},
{"type":"Feature","properties":{"fid":5,"id":null,"Name":"Santo Amaro","description":null,"timestamp":null,"begin":null,"end":null,"altitudeMode":null,"tessellate":-1,"extrude":0,"visibility":-1,"drawOrder":null,"icon":null,"COD":"A524","FAZENDA":"Santo Amaro","Municipio":"Floriano","Legenda":"Propriedades Compradas","UF":"PI","FOCO":"Sim","FONTE":"DWG/SHP-Cliente","EIA_RIMA":"Sim","ID2":26,"AREA_ha":726.851,"RECEBIDO":"05/04/2017","CAR":"OK -","RL_AVERBAD":"-","BLOCO":"Bloco 02","AREA_RL":218.055},"geometry":{"type":"Polygon","coordinates":[[[718098.620000319671817,9198662.779973797500134,0.0],[717864.840000314172357,9199005.81997380964458,0.0],[718136.700000318465754,9199491.609973823651671,0.0],[718195.210000319522806,9200094.779973842203617,0.0],[718237.690000318223611,9200257.149973848834634,0.0],[717137.310000310419127,9200577.639973858371377,0.0],[716977.080000307993032,9201528.089973885565996,0.0],[715467.410000297357328,9201379.499973883852363,0.0],[715640.630000296398066,9198715.579973798245192,0.0],[717137.710000308696181,9197829.65997377038002,0.0],[717363.860000308719464,9198025.389973774552345,0.0],[717661.010000310954638,9198017.809973774477839,0.0],[718252.630000319099054,9198209.929973782971501,0.0],[718098.620000319671817,9198662.779973797500134,0.0]]]}},
{"type":"Feature","properties":{"fid":6,"id":null,"Name":"Volta Data Jacaré","description":null,"timestamp":null,"begin":null,"end":null,"altitudeMode":null,"tessellate":-1,"extrude":0,"visibility":-1,"drawOrder":null,"icon":null,"COD":"A050","FAZENDA":"Volta Data Jacaré","Municipio":"Floriano","Legenda":"Propriedades Compradas","UF":"PI","FOCO":"Sim","FONTE":"DWG-Cliente","EIA_RIMA":"Sim","ID2":33,"AREA_ha":1855.26,"RECEBIDO":"15/09/2016","CAR":"OK -","RL_AVERBAD":"-","BLOCO":"Bloco 01","AREA_RL":556.578},"geometry":{"type":"Polygon","coordinates":[[[712478.860000274376944,9208686.259974116459489,0.0],[712135.64000026951544,9208766.81997412070632,0.0],[712019.640000269864686,9208306.139974107965827,0.0],[711545.120000264840201,9208415.369974108412862,0.0],[711377.350000267149881,9207925.679974094033241,0.0],[710704.440000258036889,9205982.799974033609033,0.0],[710353.440000254660845,9204970.179973995313048,0.0],[710167.690000255126506,9204435.389973981305957,0.0],[710694.230000258656219,9203821.32997396029532,0.0],[711436.360000264481641,9203466.919973948970437,0.0],[713041.780000277212821,9202253.799973912537098,0.0],[713608.420000281534158,9202046.149973906576633,0.0],[714846.830000289832242,9201179.119973879307508,0.0],[714965.360000291489996,9201337.329973883926868,0.0],[713109.95000027876813,9208531.629974115639925,0.0],[712478.860000274376944,9208686.259974116459489,0.0]]]}},
{"type":"Feature","properties":{"fid":7,"id":null,"Name":"Volta Data Capuame","description":null,"timestamp":null,"begin":null,"end":null,"altitudeMode":null,"tessellate":-1,"extrude":0,"visibility":-1,"drawOrder":null,"icon":null,"COD":"A546","FAZENDA":"Volta Data Capuame","Municipio":"Floriano","Legenda":"Propriedades Compradas","UF":"PI","FOCO":"Sim","FONTE":"DWG-Cliente","EIA_RIMA":"Sim","ID2":34,"AREA_ha":11.2469,"RECEBIDO":"15/09/2016","CAR":"OK -","RL_AVERBAD":"-","BLOCO":"Bloco 01","AREA_RL":3.3741},"geometry":{"type":"Polygon","coordinates":[[[712419.610000273445621,9209030.199974130839109,0.0],[712280.470000273780897,9209196.539974134415388,0.0],[712135.64000026951544,9208766.81997412070632,0.0],[712478.860000274376944,9208686.259974116459489,0.0],[712511.500000272295438,9208965.679974127560854,0.0],[712419.610000273445621,9209030.199974130839109,0.0]]]}},
{"type":"Feature","properties":{"fid":8,"id":null,"Name":"Uiquinha","description":null,"timestamp":null,"begin":null,"end":null,"altitudeMode":null,"tessellate":-1,"extrude":0,"visibility":-1,"drawOrder":null,"icon":null,"COD":"A062","FAZENDA":"Uiquinha","Municipio":"Floriano","Legenda":"Propriedades Compradas","UF":"PI","FOCO":"Sim","FONTE":"DWG-Cliente","EIA_RIMA":"Sim","ID2":35,"AREA_ha":71.9648,"RECEBIDO":"15/09/2016","CAR":"OK -","RL_AVERBAD":"-","BLOCO":"Bloco 01","AREA_RL":21.5894},"geometry":{"type":"Polygon","coordinates":[[[710704.440000258036889,9205982.799974033609033,0.0],[710260.730000256793573,9205843.099974028766155,0.0],[709973.340000253170729,9205597.689974017441273,0.0],[709834.060000254539773,9205015.849974000826478,0.0],[709724.710000253864564,9204981.349973998963833,0.0],[709241.010000248323195,9204828.769973993301392,0.0],[709295.310000250930898,9204706.959973990917206,0.0],[709533.660000253003091,9204762.959973990917206,0.0],[709737.570000252802856,9204613.209973989054561,0.0],[709951.100000250386074,9204703.019973987713456,0.0],[710353.440000254660845,9204970.179973995313048,0.0],[710704.440000258036889,9205982.799974033609033,0.0]]]}},
{"type":"Feature","properties":{"fid":9,"id":null,"Name":"Torta","description":null,"timestamp":null,"begin":null,"end":null,"altitudeMode":null,"tessellate":-1,"extrude":0,"visibility":-1,"drawOrder":null,"icon":null,"COD":"A010","FAZENDA":"Torta","Municipio":"Floriano","Legenda":"Propriedades Compradas","UF":"PI","FOCO":"Sim","FONTE":"DWG-Cliente","EIA_RIMA":"Sim","ID2":37,"AREA_ha":718.339,"RECEBIDO":"15/09/2016","CAR":"OK -","RL_AVERBAD":"-","BLOCO":"Bloco 01","AREA_RL":215.502},"geometry":{"type":"Polygon","coordinates":[[[709943.863000256242231,9212926.513974253088236,0.0],[708401.461000243900344,9213143.253974264487624,0.0],[707430.44000023487024,9212862.797974253073335,0.0],[706736.712000230327249,9211970.002974223345518,0.0],[707064.825000233366154,9211369.092974204570055,0.0],[707510.201000233879313,9211299.685974204912782,0.0],[708842.369000246399082,9211084.67097419500351,0.0],[709352.239000251167454,9211002.964974194765091,0.0],[710804.826000261353329,9211298.404974205419421,0.0],[710841.510000262176618,9211939.610974222421646,0.0],[711290.683000265154988,9211907.425974223762751,0.0],[711178.586000265320763,9212752.824974248185754,0.0],[709943.863000256242231,9212926.513974253088236,0.0]]]}},
{"type":"Feature","properties":{"fid":10,"id":null,"Name":"Ihéu - Menor/Maior","description":null,"timestamp":null,"begin":null,"end":null,"altitudeMode":null,"tessellate":-1,"extrude":0,"visibility":-1,"drawOrder":null,"icon":null,"COD":"A219","FAZENDA":"Ihéu - Menor/Maior","Municipio":"Floriano","Legenda":"Propriedades Compradas","UF":"PI","FOCO":"Sim","FONTE":"DWG-Cliente","EIA_RIMA":"Sim","ID2":39,"AREA_ha":752.392,"RECEBIDO":"15/09/2016","CAR":"OK -","RL_AVERBAD":"-","BLOCO":"Bloco 02","AREA_RL":225.718},"geometry":{"type":"Polygon","coordinates":[[[698797.240000180434436,9202669.699973922222853,0.0],[698849.650000179419294,9201781.959973897784948,0.0],[696175.190000162343495,9200965.289973868057132,0.0],[697201.770000172196887,9199473.529973819851875,0.0],[699213.590000179596245,9200355.559973852708936,0.0],[700744.160000189673156,9200966.079973870888352,0.0],[700201.680000186664984,9202216.409973906353116,0.0],[700201.641332171857357,9202216.397548653185368,0.0],[700376.36000018985942,9203209.98997394181788,0.0],[698797.240000180434436,9202669.699973922222853,0.0]]]}},
{"type":"Feature","properties":{"fid":11,"id":null,"Name":"Faveira","description":null,"timestamp":null,"begin":null,"end":null,"altitudeMode":null,"tessellate":-1,"extrude":0,"visibility":-1,"drawOrder":null,"icon":null,"COD":"A559","FAZENDA":"Faveira","Municipio":"Floriano","Legenda":"Propriedades Compradas","UF":"PI","FOCO":"Sim","FONTE":"DWG-Cliente","EIA_RIMA":"Sim","ID2":41,"AREA_ha":64.2213,"RECEBIDO":"15/09/2016","CAR":"OK -","RL_AVERBAD":"-","BLOCO":"Bloco 01","AREA_RL":19.2664},"geometry":{"type":"Polygon","coordinates":[[[686926.2300001217518,9210991.339974189177155,0.0],[686784.970000119297765,9210814.509974185377359,0.0],[686661.920000120066106,9210750.919974183663726,0.0],[686534.820000117179006,9210775.229974184185266,0.0],[686422.980000117444433,9210850.329974185675383,0.0],[686123.930000119726174,9210569.409974178299308,0.0],[685812.600000116392039,9210491.639974173158407,0.0],[685904.770000115619041,9209811.80997415445745,0.0],[686611.930000116932206,9210639.14997418038547,0.0],[686691.620000121300109,9210599.729974178597331,0.0],[686727.220000119763426,9210572.349974175915122,0.0],[687100.040000122622587,9210435.719974169507623,0.0],[687129.330000123940408,9210443.349974172189832,0.0],[687168.860000121290796,9210463.999974172562361,0.0],[687485.060000124620274,9210633.37997418269515,0.0],[687179.680000122985803,9210953.959974188357592,0.0],[686926.2300001217518,9210991.339974189177155,0.0]]]}},
{"type":"Feature","properties":{"fid":12,"id":null,"Name":"Areia","description":null,"timestamp":null,"begin":null,"end":null,"altitudeMode":null,"tessellate":-1,"extrude":0,"visibility":-1,"drawOrder":null,"icon":null,"COD":"A569","FAZENDA":"Areia","Municipio":"Jerumenha/Floriano","Legenda":"Propriedades Compradas","UF":"PI","FOCO":"Sim","FONTE":"DWG/SHP-Cliente","EIA_RIMA":"Sim","ID2":43,"AREA_ha":239.093,"RECEBIDO":"15/09/2016 - 05/04/2017","CAR":"OK -","RL_AVERBAD":"-","BLOCO":"Bloco 02","AREA_RL":71.728},"geometry":{"type":"Polygon","coordinates":[[[687456.670000124024227,9222785.249974571168423,0.0],[687096.910000123316422,9222647.489974565804005,0.0],[686756.900000120978802,9222758.169974569231272,0.0],[686425.330000118585303,9222717.569974567741156,0.0],[686307.480000121169724,9222674.159974567592144,0.0],[685691.920000117854215,9222702.409974567592144,0.0],[684122.610000110813417,9222773.969974571838975,0.0],[684277.930000110529363,9222566.449974562972784,0.0],[684765.484269558917731,9221908.72807690128684,0.0],[686530.478416873491369,9222279.818159161135554,0.0],[687042.320623776176944,9222346.120915126055479,0.0],[688089.759031842579134,9221775.699336124584079,0.0],[688497.380000128643587,9222213.85997455008328,0.0],[687701.960000124759972,9222792.299974571913481,0.0],[687456.670000124024227,9222785.249974571168423,0.0]]]}},
{"type":"Feature","properties":{"fid":13,"id":null,"Name":"Umbaúba","description":null,"timestamp":null,"begin":null,"end":null,"altitudeMode":null,"tessellate":-1,"extrude":0,"visibility":-1,"drawOrder":null,"icon":null,"COD":"A003","FAZENDA":"Umbaúba","Municipio":"Jerumenha","Legenda":"Propriedades Compradas","UF":"PI","FOCO":"Sim","FONTE":"SHP-Cliente","EIA_RIMA":"Sim","ID2":52,"AREA_ha":3868.11,"RECEBIDO":"05/04/2017","CAR":"OK -","RL_AVERBAD":"Sim","BLOCO":"Bloco 02","AREA_RL":773.623},"geometry":{"type":"Polygon","coordinates":[[[687617.160000123083591,9199840.229973834007978,0.0],[684873.430000109830871,9200091.61997384019196,0.0],[684680.221600109478459,9200109.848373839631677,0.0],[684281.99000010592863,9200147.419973840937018,0.0],[682816.230000100913458,9200275.729973845183849,0.0],[682540.900000101188198,9199176.189973810687661,0.0],[681749.860000094864517,9196459.619973722845316,0.0],[683511.160000103060156,9195613.389973696321249,0.0],[684773.730000108946115,9194291.379973651841283,0.0],[684855.480000108364038,9193951.799973640590906,0.0],[684898.74000011163298,9193630.71997363306582,0.0],[685028.590000108466484,9193665.569973632693291,0.0],[684990.260000112932175,9193958.859973642975092,0.0],[685266.220000109751709,9193984.839973641559482,0.0],[685728.820000112755224,9194022.549973644316196,0.0],[685793.830000112066045,9194084.239973647519946,0.0],[688618.790000125067309,9191453.559973562136292,0.0],[689674.730000131414272,9190958.209973549470305,0.0],[689143.000000128871761,9192652.9999736007303,0.0],[688523.000000123050995,9193090.999973613768816,0.0],[688323.000000123982318,9194324.9999736584723,0.0],[689092.449200126575306,9194294.132073651999235,0.0],[688162.580000128247775,9199283.119973814114928,0.0],[687872.420000120997429,9199074.069973807781935,0.0],[687608.990000122459605,9199760.189973831176758,0.0],[687617.160000123083591,9199840.229973834007978,0.0]]]}},
{"type":"Feature","properties":{"fid":14,"id":null,"Name":"Morro da Uíca","description":null,"timestamp":null,"begin":null,"end":null,"altitudeMode":null,"tessellate":-1,"extrude":0,"visibility":-1,"drawOrder":null,"icon":null,"COD":"A003","FAZENDA":"Morro da Uíca","Municipio":"Jerumenha/Floriano","Legenda":"Propriedades Compradas","UF":"PI","FOCO":"Sim","FONTE":"SHP-Cliente","EIA_RIMA":"Sim","ID2":53,"AREA_ha":2228.39,"RECEBIDO":"05/04/2017","CAR":"OK -","RL_AVERBAD":"Sim","BLOCO":"Bloco 02","AREA_RL":445.678},"geometry":{"type":"Polygon","coordinates":[[[692364.710000143852085,9195656.629973698407412,0.0],[693621.780000148806721,9196525.079973723739386,0.0],[693302.440000148257241,9199325.379973817616701,0.0],[692663.780000147060491,9199433.549973817542195,0.0],[689372.360000129207037,9199733.319973828271031,0.0],[688288.47000012267381,9199779.949973829090595,0.0],[688508.970000126282685,9199552.229973820969462,0.0],[688443.940000124974176,9199306.949973812326789,0.0],[688216.61000012489967,9199288.699973814189434,0.0],[688162.580000128247775,9199283.119973812252283,0.0],[689092.449200126575306,9194294.132073651999235,0.0],[691460.230000142008066,9194191.199973652139306,0.0],[690692.510000137379393,9195123.679973676800728,0.0],[692364.710000143852085,9195656.629973698407412,0.0]]]}},
{"type":"Feature","properties":{"fid":15,"id":null,"Name":"Barra da Uica","description":null,"timestamp":null,"begin":null,"end":null,"altitudeMode":null,"tessellate":-1,"extrude":0,"visibility":-1,"drawOrder":null,"icon":null,"COD":"A563","FAZENDA":"Barra da Uica","Municipio":"Floriano","Legenda":"Propriedades Compradas","UF":"PI","FOCO":"Sim","FONTE":"DWG/SHP-Cliente","EIA_RIMA":"Sim","ID2":54,"AREA_ha":171.517,"RECEBIDO":"15/09/2016 - 05/04/2017","CAR":"OK -","RL_AVERBAD":"-","BLOCO":"Bloco 02","AREA_RL":51.4552},"geometry":{"type":"Polygon","coordinates":[[[711297.510000267298892,9227804.119974732398987,0.0],[710559.760000259731896,9227813.259974736720324,0.0],[709764.120000252616592,9226683.299974700435996,0.0],[711015.960000263061374,9226105.799974679946899,0.0],[711308.860000266693532,9226804.119974702596664,0.0],[711297.510000267298892,9227804.119974732398987,0.0]]]}},
{"type":"Feature","properties":{"fid":16,"id":null,"Name":"Onça","description":null,"timestamp":null,"begin":null,"end":null,"altitudeMode":null,"tessellate":-1,"extrude":0,"visibility":-1,"drawOrder":null,"icon":null,"COD":"A548","FAZENDA":"Onça","Municipio":"Floriano","Legenda":"Propriedades Compradas","UF":"PI","FOCO":"Sim","FONTE":"DWG/SHP-Cliente","EIA_RIMA":"Sim","ID2":36,"AREA_ha":627.564,"RECEBIDO":"15/09/2016 - 05/04/2017","CAR":"OK -","RL_AVERBAD":"-","BLOCO":"Bloco 01","AREA_RL":188.269},"geometry":{"type":"Polygon","coordinates":[[[709707.670000250218436,9209710.009974151849747,0.0],[708842.380000246455893,9211084.669974194839597,0.0],[707510.210000236751512,9211299.67997420206666,0.0],[707507.590000234777108,9208114.839974099770188,0.0],[708809.660000247415155,9207641.759974082931876,0.0],[709587.360000250744633,9208558.229974113404751,0.0],[709707.670000250218436,9209710.009974151849747,0.0]]]}},
{"type":"Feature","properties":{"fid":17,"id":null,"Name":"Araçás dos Penhas","description":null,"timestamp":null,"begin":null,"end":null,"altitudeMode":null,"tessellate":-1,"extrude":0,"visibility":-1,"drawOrder":null,"icon":null,"COD":"A558","FAZENDA":"Araçás dos Penhas","Municipio":"Floriano","Legenda":"Propriedades Compradas","UF":"PI","FOCO":"Sim","FONTE":"DWG/SHP-Cliente","EIA_RIMA":"Sim","ID2":40,"AREA_ha":334.511,"RECEBIDO":"15/09/2016 - 05/04/2017","CAR":"OK -","RL_AVERBAD":"-","BLOCO":"Bloco 02","AREA_RL":100.353},"geometry":{"type":"Polygon","coordinates":[[[692153.454000146128237,9201556.497973883524537,0.0],[692270.711000145180151,9201620.55497388727963,0.0],[691887.81027078605257,9202183.111378548666835,0.0],[691868.857000143500045,9202475.427973913028836,0.0],[691893.216000141808763,9202849.697973927482963,0.0],[691026.353000139119104,9201687.028973892331123,0.0],[692663.780000147060491,9199433.549973821267486,0.0],[693302.440000148257241,9199325.379973817616701,0.0],[693243.810000150930136,9199429.185973817482591,0.0],[693181.032000149367377,9199715.260973829776049,0.0],[693402.877000147476792,9201143.973973874002695,0.0],[693054.886000143014826,9201239.172973876819015,0.0],[692666.061000148998573,9201180.24197387881577,0.0],[692553.692000148119405,9200918.318973863497376,0.0],[692427.096000144723803,9201315.661973875015974,0.0],[692153.454000146128237,9201556.497973883524537,0.0]]]}},
{"type":"Feature","properties":{"fid":18,"id":null,"Name":"Araçás","description":null,"timestamp":null,"begin":null,"end":null,"altitudeMode":null,"tessellate":-1,"extrude":0,"visibility":-1,"drawOrder":null,"icon":null,"COD":"A009","FAZENDA":"Araçás","Municipio":"Floriano","Legenda":"Propriedades Compradas","UF":"PI","FOCO":"Sim","FONTE":"DWG/SHP-Cliente","EIA_RIMA":"Sim","ID2":32,"AREA_ha":1263.76,"RECEBIDO":"15/09/2016 - 05/04/2017","CAR":"OK -","RL_AVERBAD":"-","BLOCO":"Bloco 01","AREA_RL":379.128},"geometry":{"type":"Polygon","coordinates":[[[715467.410000297357328,9201379.499973883852363,0.0],[716977.080000307993032,9201528.089973885565996,0.0],[718005.330000314046629,9201004.919973872601986,0.0],[717413.650000310386531,9203560.889973951503634,0.0],[717985.500000317231752,9205023.469974001869559,0.0],[718755.270000326214358,9204894.159973997622728,0.0],[718998.710000326507725,9205718.819974023848772,0.0],[718437.020000323653221,9206103.799974035471678,0.0],[718369.680000319611281,9206542.819974049925804,0.0],[718832.60000032139942,9206902.889974063262343,0.0],[719142.46000032115262,9207050.299974063411355,0.0],[718490.311896637547761,9207203.18388875760138,0.0],[718490.311076442943886,9207203.180533336475492,0.0],[716586.31000030587893,9207673.569974089041352,0.0],[715467.410000297357328,9201379.499973883852363,0.0]]]}},
{"type":"Feature","properties":{"fid":19,"id":null,"Name":"Boqueirão","description":null,"timestamp":null,"begin":null,"end":null,"altitudeMode":null,"tessellate":-1,"extrude":0,"visibility":-1,"drawOrder":null,"icon":null,"COD":"A522","FAZENDA":"Boqueirão","Municipio":"Floriano","Legenda":"Propriedades Compradas","UF":"PI","FOCO":"Sim","FONTE":"DWG/SHP-Cliente","EIA_RIMA":"Sim","ID2":30,"AREA_ha":5910.58,"RECEBIDO":"15/09/2016 - 05/04/2017","CAR":"OK -","RL_AVERBAD":"-","BLOCO":"Bloco 01","AREA_RL":1773.17},"geometry":{"type":"Polygon","coordinates":[[[720663.840000340947881,9206947.389974065124989,0.0],[720442.48000032256823,9206954.029974065721035,0.0],[719773.650000337511301,9206940.56997405923903,0.0],[719365.690000331029296,9206135.779974037781358,0.0],[719210.720000329660252,9204846.35997399315238,0.0],[718530.06000032229349,9203505.849973952397704,0.0],[718554.480000324198045,9202810.079973923042417,0.0],[718609.720000321627595,9201929.259973905980587,0.0],[718565.610000320710242,9200436.219973856583238,0.0],[719800.220000329660252,9200827.949973864480853,0.0],[719961.660000334959477,9199825.949973834678531,0.0],[718864.350000324775465,9198051.459973778575659,0.0],[718455.310000321711414,9197759.669973768293858,0.0],[717909.830000314861536,9196695.139973733574152,0.0],[717872.880000315024517,9194814.349973674863577,0.0],[717632.880000313511118,9194470.509973665699363,0.0],[717578.130000313278288,9193676.479973636567593,0.0],[717486.550000310060568,9193525.959973629564047,0.0],[717491.140000312589109,9192826.619973611086607,0.0],[717401.240000310121104,9192580.909973600879312,0.0],[717203.440000310540199,9192347.279973594471812,0.0],[716797.790000305976719,9192029.439973585307598,0.0],[716863.000000307802111,9191311.099973563104868,0.0],[717153.840000309981406,9191347.129973560571671,0.0],[717155.290000309119932,9191113.959973556920886,0.0],[717476.180000309715979,9190743.069973541423678,0.0],[717378.120000311871991,9190204.499973522499204,0.0],[718938.683151776785962,9189767.425162170082331,0.0],[718939.637178012402728,9189767.230113865807652,0.0],[719202.92000032751821,9192340.029973579570651,0.0],[719454.78000033122953,9194826.159973673522472,0.0],[723105.089999701594934,9193715.009973786771297,0.0],[725693.410000387579203,9192932.249973611906171,0.0],[725757.810000391327776,9193531.109973629936576,0.0],[725770.060000390745699,9193824.799973642453551,0.0],[725730.230000389739871,9194406.499973660334945,0.0],[726433.260000394657254,9195788.40997370891273,0.0],[722816.630000360775739,9198005.399973774328828,0.0],[724303.35000037564896,9200679.68997386097908,0.0],[724111.220000375527889,9201706.849973894655704,0.0],[723459.950000369688496,9202708.619973925873637,0.0],[722607.720000359462574,9202995.709973935037851,0.0],[722508.620000359485857,9201183.469973880797625,0.0],[721211.130000345408916,9200102.609973840415478,0.0],[719763.810000335215591,9201075.059973876923323,0.0],[720663.840000340947881,9206947.389974065124989,0.0]]]}},
{"type":"Feature","properties":{"fid":20,"id":null,"Name":"Estreito","description":null,"timestamp":null,"begin":null,"end":null,"altitudeMode":null,"tessellate":-1,"extrude":0,"visibility":-1,"drawOrder":null,"icon":null,"COD":"A523","FAZENDA":"Estreito","Municipio":"Floriano","Legenda":"Propriedades Compradas","UF":"PI","FOCO":"Sim","FONTE":"DWG/SHP-Cliente","EIA_RIMA":"Sim","ID2":31,"AREA_ha":1334.79,"RECEBIDO":"15/09/2016 - 05/04/2017","CAR":"OK -","RL_AVERBAD":"-","BLOCO":"Bloco 01","AREA_RL":400.437},"geometry":{"type":"Polygon","coordinates":[[[716158.550000299583189,9194152.969973651692271,0.0],[716024.250000299653038,9194454.51997365988791,0.0],[715947.490000301040709,9195014.39997367747128,0.0],[716464.170000303187408,9195867.109973706305027,0.0],[714009.350000283564441,9196701.799973731860518,0.0],[713870.400000280234963,9196962.059973742812872,0.0],[713571.496000278508291,9196997.471973743289709,0.0],[712848.124000272131525,9194542.525973664596677,0.0],[712317.820000271894969,9192399.55997359752655,0.0],[712395.440000268863514,9192234.959973590448499,0.0],[712521.930000271531753,9192331.419973593205214,0.0],[712692.660000274539925,9192342.34997359290719,0.0],[712838.500000270316377,9192536.179973598569632,0.0],[713245.420000276528299,9193096.12997361831367,0.0],[716279.330000302288681,9191864.039973575621843,0.0],[716200.370000299997628,9192272.279973590746522,0.0],[716464.370000304654241,9192734.649973606690764,0.0],[716247.110000300570391,9192906.209973612800241,0.0],[716515.210000300081447,9193789.359973639249802,0.0],[716158.550000299583189,9194152.969973651692271,0.0]]]}},
{"type":"Feature","properties":{"fid":21,"id":null,"Name":"Barra da Uica","description":null,"timestamp":null,"begin":null,"end":null,"altitudeMode":null,"tessellate":-1,"extrude":0,"visibility":-1,"drawOrder":null,"icon":null,"COD":"A563","FAZENDA":"Barra da Uica","Municipio":"Floriano","Legenda":"Propriedades Compradas","UF":"PI","FOCO":"Sim","FONTE":"DWG/SHP-Cliente","EIA_RIMA":"Sim","ID2":54,"AREA_ha":42.8125,"RECEBIDO":"15/09/2016 - 11/04/2017","CAR":"OK -","RL_AVERBAD":"-","BLOCO":"Bloco 02","AREA_RL":12.8438},"geometry":{"type":"Polygon","coordinates":[[[709997.166267581051216,9227820.609352085739374,0.0],[709525.542587837669998,9226792.908185925334692,0.0],[709736.076550463098101,9226695.184600863605738,0.0],[710523.322602011961862,9227814.30524386651814,0.0],[709997.166267581051216,9227820.609352085739374,0.0]]]}},
{"type":"Feature","properties":{"fid":22,"id":null,"Name":"Vereda do Estocado","description":null,"timestamp":null,"begin":null,"end":null,"altitudeMode":null,"tessellate":-1,"extrude":0,"visibility":-1,"drawOrder":null,"icon":null,"COD":"A013","FAZENDA":"Vereda do Estocado","Municipio":"Floriano","Legenda":"Propriedades Compradas","UF":"PI","FOCO":"Sim","FONTE":"DWG/SHP-Cliente","EIA_RIMA":"Sim","ID2":44,"AREA_ha":2398.54,"RECEBIDO":"15/09/2016 - 11/04/2017","CAR":"OK -","RL_AVERBAD":"-","BLOCO":"Bloco 02","AREA_RL":719.562},"geometry":{"type":"Polygon","coordinates":[[[697013.151755025726743,9221658.019118355587125,0.0],[697145.360437973984517,9221050.592985825613141,0.0],[697266.141652229125611,9220481.91959161683917,0.0],[697649.993938448140398,9218677.40506524220109,0.0],[697764.746862415689975,9218109.856304585933685,0.0],[698003.752850844524801,9216911.062394103035331,0.0],[700469.588587587466463,9217566.519137810915709,0.0],[701900.898282811976969,9217944.122977890074253,0.0],[704329.298035052721389,9218588.47577990591526,0.0],[701407.254042490618303,9221185.90353580377996,0.0],[701512.413574391510338,9222106.72422163002193,0.0],[701519.295557879144326,9222171.339372051879764,0.0],[700720.990474349819124,9222113.738013230264187,0.0],[700161.821454159449786,9222530.051235813647509,0.0],[697013.151755025726743,9221658.019118355587125,0.0]]]}},
{"type":"Feature","properties":{"fid":23,"id":null,"Name":"Arrojado","description":null,"timestamp":null,"begin":null,"end":null,"altitudeMode":null,"tessellate":-1,"extrude":0,"visibility":-1,"drawOrder":null,"icon":null,"COD":"A013","FAZENDA":"Arrojado","Municipio":"Floriano","Legenda":"Propriedades Compradas","UF":"PI","FOCO":"Sim","FONTE":"DWG/SHP-Cliente","EIA_RIMA":"Sim","ID2":45,"AREA_ha":131.207,"RECEBIDO":"15/09/2016 - 11/04/2017","CAR":"OK -","RL_AVERBAD":"-","BLOCO":"Bloco 02","AREA_RL":39.3622},"geometry":{"type":"Polygon","coordinates":[[[701900.898282811976969,9217944.122977890074253,0.0],[700469.588587587466463,9217566.519137810915709,0.0],[700934.953349623596296,9216623.130550961941481,0.0],[702161.562631587847136,9217163.741469353437424,0.0],[701900.898282811976969,9217944.122977890074253,0.0]]]}},
{"type":"Feature","properties":{"fid":24,"id":null,"Name":"Vereda da Serra","description":null,"timestamp":null,"begin":null,"end":null,"altitudeMode":null,"tessellate":-1,"extrude":0,"visibility":-1,"drawOrder":null,"icon":null,"COD":"A013","FAZENDA":"Vereda da Serra","Municipio":"Floriano","Legenda":"Propriedades Compradas","UF":"PI","FOCO":"Sim","FONTE":"DWG/SHP-Cliente","EIA_RIMA":"Sim","ID2":46,"AREA_ha":173.161,"RECEBIDO":"15/09/2016 - 11/04/2017","CAR":"OK -","RL_AVERBAD":"-","BLOCO":"Bloco 02","AREA_RL":51.9483},"geometry":{"type":"Polygon","coordinates":[[[696423.7254528432386,9218969.910397423431277,0.0],[696239.83912998076994,9217905.007357431575656,0.0],[698003.752850844524801,9216911.062394103035331,0.0],[697764.746862415689975,9218109.856304585933685,0.0],[696423.7254528432386,9218969.910397423431277,0.0]]]}},
{"type":"Feature","properties":{"fid":25,"id":null,"Name":"Francisca","description":null,"timestamp":null,"begin":null,"end":null,"altitudeMode":null,"tessellate":-1,"extrude":0,"visibility":-1,"drawOrder":null,"icon":null,"COD":"A560","FAZENDA":"Francisca","Municipio":"Jerumenha","Legenda":"Propriedades Compradas","UF":"PI","FOCO":"Sim","FONTE":"DWG/SHP-Cliente","EIA_RIMA":"Sim","ID2":42,"AREA_ha":226.469,"RECEBIDO":"15/09/2016 - 11/04/2017","CAR":"OK -","RL_AVERBAD":"-","BLOCO":"Bloco 02","AREA_RL":67.9406},"geometry":{"type":"Polygon","coordinates":[[[680544.335496854968369,9209709.966628935188055,0.0],[680558.280485399649478,9209653.45297615416348,0.0],[680558.29248683899641,9209579.079441614449024,0.0],[680496.13186277623754,9209390.340690419077873,0.0],[680397.886234046774916,9209365.222276935353875,0.0],[680304.934710965491831,9209310.102196749299765,0.0],[679111.760455837938935,9209365.133103407919407,0.0],[679126.360250278608873,9209250.526183046400547,0.0],[679840.002189091290347,9207573.025036009028554,0.0],[681173.407577423495241,9208744.003752067685127,0.0],[680686.061009381664917,9209786.785095695406199,0.0],[680544.335496854968369,9209709.966628935188055,0.0]]]}},
{"type":"Feature","properties":{"fid":26,"id":null,"Name":"Malhada Grande (Pico)","description":null,"timestamp":null,"begin":null,"end":null,"altitudeMode":null,"tessellate":-1,"extrude":0,"visibility":-1,"drawOrder":null,"icon":null,"COD":"A564","FAZENDA":"Malhada Grande (Pico)","Municipio":"Floriano","Legenda":"Propriedades Compradas","UF":"PI","FOCO":"Sim","FONTE":"DWG/SHP-Cliente","EIA_RIMA":"Sim","ID2":47,"AREA_ha":240.163,"RECEBIDO":"15/09/2016 - 11/04/2017","CAR":"OK -","RL_AVERBAD":"-","BLOCO":"Bloco 02","AREA_RL":72.049},"geometry":{"type":"Polygon","coordinates":[[[715401.793977974215522,9220647.673036271706223,0.0],[715349.198433025856502,9220644.266859795898199,0.0],[713291.873826066032052,9219764.034704089164734,0.0],[713161.581228051683865,9220077.44638954102993,0.0],[713066.231831847806461,9220089.577529223635793,0.0],[712983.848285123473033,9220127.003345441073179,0.0],[712572.294557474204339,9220157.830500913783908,0.0],[713072.785233805188909,9218217.263152565807104,0.0],[715494.99396016204264,9220612.624727070331573,0.0],[715401.793977974215522,9220647.673036271706223,0.0]]]}},
{"type":"Feature","properties":{"fid":27,"id":null,"Name":"Vereda do Buriti","description":null,"timestamp":null,"begin":null,"end":null,"altitudeMode":null,"tessellate":-1,"extrude":0,"visibility":-1,"drawOrder":null,"icon":null,"COD":"A584","FAZENDA":"Vereda do Buriti","Municipio":"Floriano","Legenda":"Propriedades Compradas","UF":"PI","FOCO":"Sim","FONTE":"DWG/SHP-Cliente","EIA_RIMA":"Sim","ID2":48,"AREA_ha":282.079,"RECEBIDO":"15/09/2016 - 11/05/2017","CAR":"OK -","RL_AVERBAD":"-","BLOCO":"Bloco 02","AREA_RL":84.6237},"geometry":{"type":"Polygon","coordinates":[[[711181.246492995414883,9216349.295508269220591,0.0],[711594.362939020153135,9216065.846778109669685,0.0],[711691.162625020719133,9216094.63581907749176,0.0],[713362.057304412126541,9216536.140596561133862,0.0],[713790.019633167190477,9217157.679531725123525,0.0],[714439.572008478222415,9217610.564143043011427,0.0],[714061.321749104419723,9217563.504116812720895,0.0],[713805.756600784603506,9217531.630978662520647,0.0],[712947.605794882518239,9218089.013136418536305,0.0],[711181.246492995414883,9216349.295508269220591,0.0]]]}},
{"type":"Feature","properties":{"fid":28,"id":null,"Name":"Iéu (GMFC)","description":null,"timestamp":null,"begin":null,"end":null,"altitudeMode":null,"tessellate":-1,"extrude":0,"visibility":-1,"drawOrder":null,"icon":null,"COD":"A218","FAZENDA":"Iéu (GMFC)","Municipio":"Floriano","Legenda":"Propriedades Compradas","UF":"PI","FOCO":"Sim","FONTE":"SHP-Cliente","EIA_RIMA":"Sim","ID2":20,"AREA_ha":501.366,"RECEBIDO":"11/04/2017","CAR":"OK -","RL_AVERBAD":"-","BLOCO":"Bloco 02","AREA_RL":150.41},"geometry":{"type":"Polygon","coordinates":[[[698797.250936578260735,9202669.686155660077929,0.0],[698758.180000338819809,9205546.709974018856883,0.0],[696175.190000311355107,9200965.289973868057132,0.0],[698849.648768778191879,9201781.956009492278099,0.0],[698797.250936578260735,9202669.686155660077929,0.0]]]}},
{"type":"Feature","properties":{"fid":29,"id":null,"Name":"Uica (JGB)","description":null,"timestamp":null,"begin":null,"end":null,"altitudeMode":null,"tessellate":-1,"extrude":0,"visibility":-1,"drawOrder":null,"icon":null,"COD":"A209","FAZENDA":"Uica (JGB)","Municipio":"Itaueira","Legenda":"Propriedades Compradas","UF":"PI","FOCO":"Sim","FONTE":"SHP-Cliente","EIA_RIMA":"Sim","ID2":14,"AREA_ha":412.737,"RECEBIDO":"11/04/2017","CAR":"OK -","RL_AVERBAD":"-","BLOCO":"Bloco 02","AREA_RL":123.821},"geometry":{"type":"Polygon","coordinates":[[[702297.637210900895298,9190251.651427259668708,0.0],[702370.760858269175515,9190581.17081693187356,0.0],[701575.829151919577271,9190797.165763415396214,0.0],[701327.905251869000494,9191529.666314676403999,0.0],[699065.428016066434793,9191744.226697098463774,0.0],[699551.061415278818458,9190280.747791785746813,0.0],[700399.353183078113943,9190139.165486512705684,0.0],[701949.549047772656195,9189433.702300759032369,0.0],[702052.398113490315154,9190238.702419590204954,0.0],[702297.637210900895298,9190251.651427259668708,0.0]]]}},
{"type":"Feature","properties":{"fid":30,"id":null,"Name":"Uica (Iraci)","description":null,"timestamp":null,"begin":null,"end":null,"altitudeMode":null,"tessellate":-1,"extrude":0,"visibility":-1,"drawOrder":null,"icon":null,"COD":"A044","FAZENDA":"Uica (Iraci)","Municipio":"Itaueira","Legenda":"Propriedades Compradas","UF":"PI","FOCO":"Sim","FONTE":"SHP-Cliente","EIA_RIMA":"Sim","ID2":12,"AREA_ha":900.713,"RECEBIDO":"11/04/2017","CAR":"OK -","RL_AVERBAD":"-","BLOCO":"Bloco 02","AREA_RL":270.214},"geometry":{"type":"Polygon","coordinates":[[[697584.786098976968788,9194945.31074626930058,0.0],[696829.932934713666327,9195183.998233154416084,0.0],[696638.5206870038528,9195390.195150127634406,0.0],[695750.914290863554925,9194697.019318958744407,0.0],[695968.912206614390016,9194300.793641660362482,0.0],[697294.469871066161431,9194475.356663275510073,0.0],[697639.821404075715691,9193768.7462885864079,0.0],[698828.104441252653487,9190399.014861419796944,0.0],[699551.061415278818458,9190280.747791785746813,0.0],[699065.428016066434793,9191744.226697098463774,0.0],[701327.905251869000494,9191529.666314676403999,0.0],[701102.962453953921795,9193177.014258528128266,0.0],[700373.388105389429256,9193163.948865016922355,0.0],[700221.008401392959058,9193230.309098236262798,0.0],[699500.93734980514273,9193774.202972792088985,0.0],[698507.236833710107021,9193977.593650003895164,0.0],[698389.280091868597083,9194385.1429822742939,0.0],[697858.074685135157779,9194508.178263360634446,0.0],[697584.786098976968788,9194945.31074626930058,0.0]]]}},
{"type":"Feature","properties":{"fid":31,"id":null,"Name":"São José","description":null,"timestamp":null,"begin":null,"end":null,"altitudeMode":null,"tessellate":-1,"extrude":0,"visibility":-1,"drawOrder":null,"icon":null,"COD":"A585","FAZENDA":"São José","Municipio":"Floriano","Legenda":"Propriedades Compradas","UF":"PI","FOCO":"Sim","FONTE":"DWG/SHP-Cliente","EIA_RIMA":"Sim","ID2":50,"AREA_ha":276.717,"RECEBIDO":"15/09/2016 - 11/04/2017","CAR":"OK -","RL_AVERBAD":"-","BLOCO":"Bloco 02","AREA_RL":83.0152},"geometry":{"type":"Polygon","coordinates":[[[701371.930733988294378,9241378.763694368302822,0.0],[700697.24149098561611,9240682.473518613725901,0.0],[700949.777162126149051,9240492.939187107607722,0.0],[703466.145263065700419,9239811.225107366219163,0.0],[703567.385045548900962,9239788.622976746410131,0.0],[703947.2753799718339,9240698.839892599731684,0.0],[701371.930733988294378,9241378.763694368302822,0.0]]]}},
{"type":"Feature","properties":{"fid":32,"id":null,"Name":"Ponta D'Água","description":null,"timestamp":null,"begin":null,"end":null,"altitudeMode":null,"tessellate":-1,"extrude":0,"visibility":-1,"drawOrder":null,"icon":null,"COD":"A324","FAZENDA":"Ponta D'Água","Municipio":"Nazaré do Piauí","Legenda":"Propriedades Compradas","UF":"PI","FOCO":"Sim","FONTE":"DWG/SHP-Cliente","EIA_RIMA":"Sim","ID2":51,"AREA_ha":489.511,"RECEBIDO":"15/09/2016 - 11/04/2017","CAR":"OK -","RL_AVERBAD":"-","BLOCO":"Bloco 02","AREA_RL":146.853},"geometry":{"type":"Polygon","coordinates":[[[747179.631636561476626,9236433.623260512948036,0.0],[746903.792603094829246,9236565.646492779254913,0.0],[746727.633099165163003,9236479.780853904783726,0.0],[746604.934655855642632,9236117.088067315518856,0.0],[746461.838410809403285,9236139.853473240509629,0.0],[746333.251863640849479,9236028.011848095804453,0.0],[746322.820642490405589,9235944.842301093041897,0.0],[746290.134584379848093,9235903.293194077908993,0.0],[746262.782326908200048,9235879.329253518953919,0.0],[746106.856026936904527,9235778.55560908652842,0.0],[746071.742620053468272,9235664.494176717475057,0.0],[746418.109372388804331,9235720.768880741670728,0.0],[746388.102997920708731,9235582.652380183339119,0.0],[746411.514582532690838,9234713.417598132044077,0.0],[746237.124881005147472,9233942.987755952402949,0.0],[747653.948156455066055,9233381.719086326658726,0.0],[747683.309051211108454,9234026.469673726707697,0.0],[747809.955050585092977,9234247.748818887397647,0.0],[748060.302732024225406,9234814.045951016247272,0.0],[748309.699609530274756,9234996.178101737052202,0.0],[748661.156607479322702,9235297.00305013358593,0.0],[749390.811703200219199,9235732.296611525118351,0.0],[749373.346048927633092,9235831.272673899307847,0.0],[749142.294910027179867,9235886.85373860411346,0.0],[749099.957303911913186,9235863.453012363985181,0.0],[749007.522209769813344,9235968.284230874851346,0.0],[748893.572198887937702,9235816.059154259040952,0.0],[748715.393358180532232,9235784.571800636127591,0.0],[748648.036194998770952,9235925.731337767094374,0.0],[748616.73314582707826,9235923.728567112237215,0.0],[748482.684406981454231,9235755.432456640526652,0.0],[748233.733073769370094,9235811.616066418588161,0.0],[747809.272166502662003,9236030.977930529043078,0.0],[747795.870177352800965,9236067.579262109473348,0.0],[747713.204182322486304,9236108.103256460279226,0.0],[747598.489567851531319,9236105.877272341400385,0.0],[747489.132466096663848,9236152.272582437843084,0.0],[747179.631636561476626,9236433.623260512948036,0.0]]]}},
{"type":"Feature","properties":{"fid":33,"id":null,"Name":"Roncadeira","description":null,"timestamp":null,"begin":null,"end":null,"altitudeMode":null,"tessellate":-1,"extrude":0,"visibility":-1,"drawOrder":null,"icon":null,"COD":"A561","FAZENDA":"Roncadeira","Municipio":"Floriano","Legenda":"Propriedades Compradas","UF":"PI","FOCO":"Sim","FONTE":"DWG/SHP-Cliente","EIA_RIMA":"Sim","ID2":28,"AREA_ha":522.599,"RECEBIDO":"15/09/2016 - 11/04/2017","CAR":"OK -","RL_AVERBAD":"-","BLOCO":"Bloco 02","AREA_RL":156.78},"geometry":{"type":"Polygon","coordinates":[[[736298.936660962412134,9187932.103146266192198,0.0],[733719.510677693178877,9187769.077035596594214,0.0],[733639.245256939670071,9187702.191217571496964,0.0],[734049.887657962972298,9185954.780707670375705,0.0],[734105.754134135553613,9185696.422069918364286,0.0],[736746.191948850871995,9186172.513986861333251,0.0],[736298.936660962412134,9187932.103146266192198,0.0]]]}},
{"type":"Feature","properties":{"fid":34,"id":null,"Name":"Francisca","description":null,"timestamp":null,"begin":null,"end":null,"altitudeMode":null,"tessellate":-1,"extrude":0,"visibility":-1,"drawOrder":null,"icon":null,"COD":"A560","FAZENDA":"Francisca","Municipio":"Jerumenha","Legenda":"Propriedades Compradas","UF":"PI","FOCO":"Sim","FONTE":"DWG/SHP-Cliente","EIA_RIMA":"Sim","ID2":42,"AREA_ha":76.9421,"RECEBIDO":"15/09/2016 - 11/04/2017","CAR":"OK -","RL_AVERBAD":"-","BLOCO":"Bloco 02","AREA_RL":23.0826},"geometry":{"type":"Polygon","coordinates":[[[681946.016358537832275,9209430.452054977416992,0.0],[681003.409708396298811,9210015.474828945472836,0.0],[680686.061009381664917,9209786.785095695406199,0.0],[681173.407577423495241,9208744.003752067685127,0.0],[681645.630950873252004,9209166.902606124058366,0.0],[681946.016358537832275,9209430.452054977416992,0.0]]]}},
{"type":"Feature","properties":{"fid":35,"id":null,"Name":"Rio Bonito","description":null,"timestamp":null,"begin":null,"end":null,"altitudeMode":null,"tessellate":-1,"extrude":0,"visibility":-1,"drawOrder":null,"icon":null,"COD":"A583","FAZENDA":"Rio Bonito","Municipio":"Floriano","Legenda":"Propriedades Compradas","UF":"PI","FOCO":"Não","FONTE":"ImóveisCertificados -Lei 10267","EIA_RIMA":"Não","ID2":27,"AREA_ha":399.136,"RECEBIDO":"","CAR":"OK -","RL_AVERBAD":"-","BLOCO":"Bloco 02","AREA_RL":119.741},"geometry":{"type":"Polygon","coordinates":[[[701111.15299169300124,9251528.725000482052565,0.0],[701072.849939014879055,9251541.40598901361227,0.0],[700401.524953473359346,9249158.796930532902479,0.0],[700398.851689423201606,9249132.743744507431984,0.0],[699890.526946366764605,9249187.399038288742304,0.0],[699704.48398239328526,9247783.615028476342559,0.0],[699698.89446689421311,9247740.053666085004807,0.0],[699185.973020885139704,9243733.303957160562277,0.0],[699151.296691467985511,9243471.66430533118546,0.0],[699939.514001476811245,9243371.099022686481476,0.0],[700438.082945155212656,9249128.742025334388018,0.0],[700441.881992129376158,9249154.655929919332266,0.0],[701111.15299169300124,9251528.725000482052565,0.0]]]}},
{"type":"Feature","properties":{"fid":36,"id":null,"Name":"Cajueiro","description":null,"timestamp":null,"begin":null,"end":null,"altitudeMode":null,"tessellate":-1,"extrude":0,"visibility":-1,"drawOrder":null,"icon":null,"COD":"A304","FAZENDA":"Cajueiro","Municipio":"Floriano","Legenda":"Propriedades Compradas","UF":"PI","FOCO":"Não","FONTE":"ImóveisCertificados -Lei 10267","EIA_RIMA":"Não","ID2":22,"AREA_ha":2247.95,"RECEBIDO":"","CAR":"OK -","RL_AVERBAD":"-","BLOCO":"Bloco 02","AREA_RL":674.385},"geometry":{"type":"Polygon","coordinates":[[[700024.224145237938501,9250208.316247720271349,0.0],[700015.254265078692697,9250808.528412027284503,0.0],[699949.824156452668831,9251121.449591932818294,0.0],[699943.49412694806233,9251631.861349858343601,0.0],[698193.888076838222332,9251809.322332980111241,0.0],[697968.347075918805785,9251211.080287354066968,0.0],[697947.106973020359874,9250945.019356001168489,0.0],[698164.447739252238534,9250726.498546324670315,0.0],[697942.726721965475008,9249825.145372919738293,0.0],[697757.436064237379469,9249710.004990842193365,0.0],[697280.814310056739487,9249264.103531213477254,0.0],[697105.36365991551429,9249205.963291285559535,0.0],[696926.722894920501858,9248522.710958668962121,0.0],[696709.272074282984249,9248339.040405910462141,0.0],[696505.271316984668374,9248368.730482110753655,0.0],[696129.100015229079872,9248181.889957465231419,0.0],[696471.80110010271892,9247925.688937684521079,0.0],[696314.830492939800024,9247384.447011889889836,0.0],[696311.17045863578096,9247374.297063110396266,0.0],[696237.870199463446625,9247138.546208275482059,0.0],[696389.50047268869821,9246381.293409518897533,0.0],[696498.750927256653085,9246206.122869437560439,0.0],[697291.773358451435342,9244935.648096797987819,0.0],[697608.594039338175207,9242686.180131396278739,0.0],[697831.874742093379609,9242314.658676689490676,0.0],[697954.765199945890345,9242282.568579878658056,0.0],[698958.568581538973376,9242017.207364454865456,0.0],[699078.319224225124344,9242921.440577644854784,0.0],[699080.179294646368362,9242935.030702603980899,0.0],[699185.97976893815212,9243733.273472530767322,0.0],[699704.472562865586951,9247783.597719289362431,0.0],[699890.523516255314462,9249187.382697898894548,0.0],[700024.224145237938501,9250208.316247720271349,0.0]]]}},
{"type":"Feature","properties":{"fid":37,"id":null,"Name":"Iéu (FFC)","description":null,"timestamp":null,"begin":null,"end":null,"altitudeMode":null,"tessellate":-1,"extrude":0,"visibility":-1,"drawOrder":null,"icon":null,"COD":"A006","FAZENDA":"Iéu (FFC)","Municipio":"Floriano","Legenda":"Propriedades Compradas","UF":"PI","FOCO":"Sim","FONTE":"ImóveisCertificados -Lei 10267","EIA_RIMA":"Sim","ID2":11,"AREA_ha":996.126,"RECEBIDO":"","CAR":"OK -","RL_AVERBAD":"-","BLOCO":"Bloco 02","AREA_RL":298.838},"geometry":{"type":"Polygon","coordinates":[[[702545.970961506478488,9203946.544946391135454,0.0],[701915.656997315934859,9204774.838916569948196,0.0],[699847.269056043587625,9207487.237992029637098,0.0],[698758.181017346680164,9205546.706037295982242,0.0],[698797.235965246451087,9202669.701036689803004,0.0],[700376.357024470344186,9203209.986015938222408,0.0],[702545.970961506478488,9203946.544946391135454,0.0]]]}},
{"type":"Feature","properties":{"fid":38,"id":null,"Name":"Milagroso","description":null,"timestamp":null,"begin":null,"end":null,"altitudeMode":null,"tessellate":-1,"extrude":0,"visibility":-1,"drawOrder":null,"icon":null,"COD":"A075","FAZENDA":"Milagroso","Municipio":"Floriano","Legenda":"Propriedades Compradas","UF":"PI","FOCO":"Sim","FONTE":"ImóveisCertificados -Sigef","EIA_RIMA":"Sim","ID2":29,"AREA_ha":491.113,"RECEBIDO":"","CAR":"OK -","RL_AVERBAD":"-","BLOCO":"Bloco 02","AREA_RL":147.334},"geometry":{"type":"Polygon","coordinates":[[[727335.441426856326871,9193559.764145720750093,0.0],[727777.258800641167909,9194030.798901829868555,0.0],[728322.737184274243191,9194523.69937951490283,0.0],[728957.147822209633887,9195178.12457419000566,0.0],[729001.711150426766835,9195428.199775125831366,0.0],[728176.509587232372724,9197542.180360425263643,0.0],[727309.811277183122002,9196312.621441062539816,0.0],[726951.117784696747549,9194865.595985390245914,0.0],[726225.976335796294734,9194371.226103154942393,0.0],[726666.569271329557523,9194150.139091320335865,0.0],[727252.930000406806357,9193688.649973638355732,0.0],[727335.441426856326871,9193559.764145720750093,0.0]]]}},
{"type":"Feature","properties":{"fid":39,"id":null,"Name":"Milagroso","description":null,"timestamp":null,"begin":null,"end":null,"altitudeMode":null,"tessellate":-1,"extrude":0,"visibility":-1,"drawOrder":null,"icon":null,"COD":"A075","FAZENDA":"Milagroso","Municipio":"Floriano","Legenda":"Propriedades Compradas","UF":"PI","FOCO":"Sim","FONTE":"ImóveisCertificados -Sigef","EIA_RIMA":"Sim","ID2":29,"AREA_ha":157.618,"RECEBIDO":"","CAR":"OK -","RL_AVERBAD":"-","BLOCO":"Bloco 02","AREA_RL":47.2853},"geometry":{"type":"Polygon","coordinates":[[[728990.387955909129232,9198693.436894662678242,0.0],[728198.105906769633293,9197574.500717768445611,0.0],[729011.604440660797991,9195484.602495025843382,0.0],[729187.763403622549959,9196476.67769093811512,0.0],[728990.387955909129232,9198693.436894662678242,0.0]]]}},
{"type":"Feature","properties":{"fid":40,"id":null,"Name":"Sítio (GMFC)","description":null,"timestamp":null,"begin":null,"end":null,"altitudeMode":null,"tessellate":-1,"extrude":0,"visibility":-1,"drawOrder":null,"icon":null,"COD":"A214","FAZENDA":"Sítio (GMFC)","Municipio":"Canavieira/Jerumenha/Itaueira","Legenda":"Propriedades Compradas","UF":"PI","FOCO":"Sim","FONTE":"ImóveisCertificados -Lei 10267","EIA_RIMA":"Sim","ID2":19,"AREA_ha":5314.59,"RECEBIDO":"","CAR":"OK -","RL_AVERBAD":"Sim","BLOCO":"Bloco 02","AREA_RL":1062.92},"geometry":{"type":"Polygon","coordinates":[[[686175.437708869110793,9178164.642885331064463,0.0],[686811.90668063540943,9179377.137965366244316,0.0],[687731.701683933148161,9181132.93792193569243,0.0],[682411.662727154325694,9187766.090910891070962,0.0],[681429.014727532747202,9171101.111872484907508,0.0],[682583.851683203945868,9171130.644891798496246,0.0],[686175.437708869110793,9178164.642885331064463,0.0]]]}},
{"type":"Feature","properties":{"fid":41,"id":null,"Name":"Sítio (FFC)","description":null,"timestamp":null,"begin":null,"end":null,"altitudeMode":null,"tessellate":-1,"extrude":0,"visibility":-1,"drawOrder":null,"icon":null,"COD":"A002","FAZENDA":"Sítio (FFC)","Municipio":"Canavieira/Jerumenha","Legenda":"Propriedades Compradas","UF":"PI","FOCO":"Sim","FONTE":"ImóveisCertificados -Lei 10267","EIA_RIMA":"Sim","ID2":10,"AREA_ha":15395.8,"RECEBIDO":"","CAR":"OK -","RL_AVERBAD":"Sim","BLOCO":"Bloco 01","AREA_RL":3079.15},"geometry":{"type":"Polygon","coordinates":[[[679748.039702705922537,9191945.632967093959451,0.0],[679012.931632422958501,9192186.872941272333264,0.0],[678751.490723909926601,9191309.984966445714235,0.0],[676531.275732615496963,9191386.234917104244232,0.0],[675680.734632974839769,9192016.112899893894792,0.0],[674089.493732012109831,9190589.51890012063086,0.0],[673569.841733602341264,9189848.922909557819366,0.0],[672451.894731235923246,9188223.376949260011315,0.0],[672625.706750334473327,9188218.471939818933606,0.0],[675039.134642164688557,9188755.644887436181307,0.0],[677756.649632018292323,9189240.614935629069805,0.0],[679548.090676438063383,9188113.18788518384099,0.0],[679349.410634541884065,9186882.946893243119121,0.0],[679300.209660565014929,9186339.524904150515795,0.0],[679250.652654997888021,9185795.281930344179273,0.0],[679224.891711871139705,9185511.654968677088618,0.0],[679338.56172495870851,9183787.184896055608988,0.0],[680072.408730200724676,9182730.143953423947096,0.0],[679481.605649073375389,9182736.748947355896235,0.0],[678103.287623768905178,9183369.408905271440744,0.0],[677260.141633287305012,9183332.398990070447326,0.0],[675517.703696915647015,9183365.990942785516381,0.0],[674970.810627111932263,9183470.662937708199024,0.0],[673278.193743131007068,9184799.602969199419022,0.0],[672326.024746970739216,9185181.098971450701356,0.0],[675399.799668820691295,9179999.232922222465277,0.0],[673690.064722722396255,9179458.617905227467418,0.0],[673985.263662136392668,9177455.546873206272721,0.0],[671172.175631299149245,9175116.997911307960749,0.0],[671821.528713551466353,9173977.628925256431103,0.0],[671588.908660847577266,9172713.433981940150261,0.0],[671724.851653432124294,9172367.830975713208318,0.0],[671441.46171048830729,9172080.382940132170916,0.0],[671374.36267973028589,9171716.04596159607172,0.0],[670918.210654662107117,9170369.330876719206572,0.0],[670224.643685092334636,9169634.019967846572399,0.0],[675617.142717451788485,9170149.377896372228861,0.0],[680923.313655099715106,9170691.088980250060558,0.0],[682469.511677190545015,9170896.365984812378883,0.0],[682583.851683203945868,9171130.644891798496246,0.0],[681429.014727532747202,9171101.111872484907508,0.0],[682411.626646142685786,9187766.140972809866071,0.0],[680376.573721816297621,9190373.039939945563674,0.0],[680480.863681573770009,9190797.932870304211974,0.0],[680737.085677395109087,9191827.337893854826689,0.0],[679748.039702705922537,9191945.632967093959451,0.0]]]}},
{"type":"Feature","properties":{"fid":42,"id":null,"Name":"São Francisco (MFC)","description":null,"timestamp":null,"begin":null,"end":null,"altitudeMode":null,"tessellate":-1,"extrude":0,"visibility":-1,"drawOrder":null,"icon":null,"COD":"A213","FAZENDA":"São Francisco (MFC)","Municipio":"Itaueira","Legenda":"Propriedades Compradas","UF":"PI","FOCO":"Sim","FONTE":"Memorial Opção de Compra","EIA_RIMA":"Sim","ID2":0,"AREA_ha":7159.51,"RECEBIDO":"Opção Cliente (Taina-Email)","CAR":"OK -","RL_AVERBAD":"-","BLOCO":"Bloco 02","AREA_RL":2147.85},"geometry":{"type":"Polygon","coordinates":[[[682583.852000096230768,9171130.644972905516624,0.0],[682469.512000095332041,9170896.365972900763154,0.0],[678835.285000081756152,9163314.676972657442093,0.0],[684194.117000099970028,9160547.195972567424178,0.0],[688334.896000119741075,9169287.352972850203514,0.0],[689513.28900012478698,9171300.496972911059856,0.0],[688267.601000119699165,9171905.670972932130098,0.0],[684083.245000104769133,9173950.187972996383905,0.0],[682583.852000096230768,9171130.644972905516624,0.0]]]}},
{"type":"Feature","properties":{"fid":43,"id":null,"Name":"Riacho da Areia","description":null,"timestamp":null,"begin":null,"end":null,"altitudeMode":null,"tessellate":-1,"extrude":0,"visibility":-1,"drawOrder":null,"icon":null,"COD":"A521","FAZENDA":"Riacho da Areia","Municipio":"Floriano","Legenda":"Propriedades com Intenção de Compra","UF":"PI","FOCO":"Sim","FONTE":"Sobreposição INCRA","EIA_RIMA":"Sim","ID2":25,"AREA_ha":2019.45,"RECEBIDO":"","CAR":"-","RL_AVERBAD":"-","BLOCO":"Aguard Lim","AREA_RL":605.835},"geometry":{"type":"Polygon","coordinates":[[[720979.082263183547184,9212974.874918159097433,0.0],[720575.371336190844886,9213187.081172864884138,0.0],[720522.055513232247904,9212761.910404298454523,0.0],[720506.588846698286943,9212638.570387486368418,0.0],[720372.589387458865531,9212444.451665267348289,0.0],[720575.573288074345328,9211709.247396420687437,0.0],[720138.178568253526464,9210956.310124859213829,0.0],[720650.54499869630672,9210886.029998963698745,0.0],[720111.947073632618412,9210019.269536526873708,0.0],[719948.015317299985327,9209260.831318067386746,0.0],[719657.978946189163253,9208574.858979707583785,0.0],[719862.66810323332902,9208538.57141962647438,0.0],[719907.35934242233634,9208063.030455589294434,0.0],[719994.310663595097139,9207882.871205745264888,0.0],[720447.837882811203599,9206943.183084174990654,0.0],[720660.708331789588556,9206944.156685460358858,0.0],[722788.410602325457148,9206748.122369505465031,0.0],[724277.396451912354678,9209198.642383558675647,0.0],[723440.444125488284044,9211835.133571699261665,0.0],[722957.316535357851535,9212284.508006881922483,0.0],[722865.852146675111726,9212428.638129187747836,0.0],[722159.998425172409043,9212257.003392057493329,0.0],[721267.388109569088556,9213415.487886087968946,0.0],[720979.082263183547184,9212974.874918159097433,0.0]]]}},
{"type":"Feature","properties":{"fid":44,"id":null,"Name":"Rio Branco","description":null,"timestamp":null,"begin":null,"end":null,"altitudeMode":null,"tessellate":-1,"extrude":0,"visibility":-1,"drawOrder":null,"icon":null,"COD":"A278","FAZENDA":"Rio Branco","Municipio":"Floriano","Legenda":"Propriedades Compradas","UF":"PI","FOCO":"Sim","FONTE":"DWG-Cliente","EIA_RIMA":"Sim","ID2":21,"AREA_ha":1080.09,"RECEBIDO":"17/04/2017","CAR":"OK -","RL_AVERBAD":"Sim","BLOCO":"Bloco 02","AREA_RL":216.018},"geometry":{"type":"Polygon","coordinates":[[[732760.969000475481153,9235655.443974988535047,0.0],[731952.622000466333702,9231693.00497486256063,0.0],[736163.459000512491912,9231642.84197486191988,0.0],[736122.710000515216962,9229334.003974786028266,0.0],[737617.216000534594059,9230157.861974814906716,0.0],[736595.969000521232374,9231379.952974855899811,0.0],[736369.217000519391149,9231643.422974864020944,0.0],[735823.508000511443242,9232434.700974885374308,0.0],[735306.905000504455529,9232766.961974900215864,0.0],[734443.601000494440086,9233678.865974927321076,0.0],[734230.592000490985811,9233990.052974937483668,0.0],[733990.919000492664054,9234220.64397494494915,0.0],[733688.079000487574376,9234481.618974952027202,0.0],[733336.42989716026932,9235374.835481580346823,0.0],[732969.969000479904935,9235744.392974991351366,0.0],[732915.520000476390123,9235674.789974991232157,0.0],[732729.153000472811982,9235815.451974993571639,0.0],[732760.969000475481153,9235655.443974988535047,0.0]]]}},
{"type":"Feature","properties":{"fid":45,"id":null,"Name":"Boa Vista","description":null,"timestamp":null,"begin":null,"end":null,"altitudeMode":null,"tessellate":-1,"extrude":0,"visibility":-1,"drawOrder":null,"icon":null,"COD":"A476","FAZENDA":"Boa Vista","Municipio":"Floriano","Legenda":"Propriedades Compradas","UF":"PI","FOCO":"Sim","FONTE":"DWG/SHP-Cliente","EIA_RIMA":"Sim","ID2":24,"AREA_ha":196.006,"RECEBIDO":"05/04/2017","CAR":"OK -","RL_AVERBAD":"-","BLOCO":"Bloco 02","AREA_RL":58.8019},"geometry":{"type":"Polygon","coordinates":[[[706279.13000023085624,9222659.059974567964673,0.0],[705826.910000226809643,9223529.839974597096443,0.0],[705795.0300002299482,9222034.68997454456985,0.0],[705744.310000226134434,9220104.299974486231804,0.0],[705748.610000226181,9219753.139974473044276,0.0],[706982.560000233352184,9222526.189974561333656,0.0],[706279.13000023085624,9222659.059974567964673,0.0]]]}},
{"type":"Feature","properties":{"fid":46,"id":null,"Name":"Milagroso","description":null,"timestamp":null,"begin":null,"end":null,"altitudeMode":null,"tessellate":-1,"extrude":0,"visibility":-1,"drawOrder":null,"icon":null,"COD":"A075","FAZENDA":"Milagroso","Municipio":"Floriano","Legenda":"Propriedades Compradas","UF":"PI","FOCO":"Sim","FONTE":"ImóveisCertificados -Sigef","EIA_RIMA":"Sim","ID2":29,"AREA_ha":6.9442,"RECEBIDO":"","CAR":"OK -","RL_AVERBAD":"-","BLOCO":"Bloco 02","AREA_RL":2.0833},"geometry":{"type":"Polygon","coordinates":[[[728198.105906771030277,9197574.500717768445611,0.0],[728176.509587235166691,9197542.180360427126288,0.0],[729001.711150426766835,9195428.199775125831366,0.0],[729011.604440660797991,9195484.602495025843382,0.0],[728198.105906771030277,9197574.500717768445611,0.0]]]}},
{"type":"Feature","properties":{"fid":47,"id":null,"Name":"Malhada Vermelha","description":null,"timestamp":null,"begin":null,"end":null,"altitudeMode":null,"tessellate":-1,"extrude":0,"visibility":-1,"drawOrder":null,"icon":null,"COD":"A575","FAZENDA":"Malhada Vermelha","Municipio":"Floriano","Legenda":"Propriedades Compradas","UF":"PI","FOCO":"Sim","FONTE":"DWG-Cliente","EIA_RIMA":"Sim","ID2":49,"AREA_ha":174.853,"RECEBIDO":"15/09/2016","CAR":"OK -","RL_AVERBAD":"-","BLOCO":"Bloco 01","AREA_RL":52.4559},"geometry":{"type":"Polygon","coordinates":[[[712564.750000277534127,9235947.959974996745586,0.0],[712547.030000280356035,9235958.229974998161197,0.0],[711236.660000266856514,9235544.819974986836314,0.0],[710285.94000026024878,9235267.439974974840879,0.0],[710087.350000258651562,9235327.37997498549521,0.0],[709979.210000259103253,9235380.249974977225065,0.0],[709913.040000257198699,9235435.149974985048175,0.0],[709302.370000255992636,9235255.009974975138903,0.0],[709377.840000253519975,9234969.909974964335561,0.0],[710191.93000025965739,9234366.889974949881434,0.0],[710304.830000262358226,9234616.959974961355329,0.0],[710566.750000262632966,9235085.05997497215867,0.0],[711372.040000266861171,9235337.809974975883961,0.0],[712856.860000280896202,9235242.299974974244833,0.0],[712904.430000282125548,9235777.609974989667535,0.0],[712564.750000277534127,9235947.959974996745586,0.0]]]}},
{"type":"Feature","properties":{"fid":48,"id":null,"Name":"Porteiras","description":null,"timestamp":null,"begin":null,"end":null,"altitudeMode":null,"tessellate":-1,"extrude":0,"visibility":-1,"drawOrder":null,"icon":null,"COD":"A123","FAZENDA":"Porteiras","Municipio":"Pavussu","Legenda":"Propriedades Compradas","UF":"PI","FOCO":"Sim","FONTE":"DWG-Cliente","EIA_RIMA":"Sim","ID2":1,"AREA_ha":292.748,"RECEBIDO":"","CAR":"-","RL_AVERBAD":"-","BLOCO":"Bloco 04","AREA_RL":87.8245},"geometry":{"type":"Polygon","coordinates":[[[674386.11000006319955,9131132.949971621856093,0.0],[674438.990000065648928,9130835.729971613734961,0.0],[678700.860000078217126,9128210.959971530362964,0.0],[679486.380000076955184,9127854.369971519336104,0.0],[679577.690000078291632,9127884.629971519112587,0.0],[679509.240000080317259,9127914.36997152119875,0.0],[675499.590000068536028,9131081.87997162155807,0.0],[675181.130000065430067,9131004.919971620664001,0.0],[675000.300000065122731,9131492.379971636459231,0.0],[674386.11000006319955,9131132.949971621856093,0.0]]]}},
{"type":"Feature","properties":{"fid":49,"id":null,"Name":"São Francisco (FRRC)","description":null,"timestamp":null,"begin":null,"end":null,"altitudeMode":null,"tessellate":-1,"extrude":0,"visibility":-1,"drawOrder":null,"icon":null,"COD":"A210","FAZENDA":"São Francisco (FRRC)","Municipio":"Itaueira","Legenda":"Propriedades Compradas","UF":"PI","FOCO":"Sim","FONTE":"DWG-Cliente","EIA_RIMA":"Sim","ID2":15,"AREA_ha":6474.68,"RECEBIDO":"15/09/2016 - 24/04/2017","CAR":"OK -","RL_AVERBAD":"-","BLOCO":"Bloco 02","AREA_RL":1942.4},"geometry":{"type":"Polygon","coordinates":[[[692503.605000136769377,9152911.462972320616245,0.0],[693716.577000143588521,9154423.430972373113036,0.0],[693962.960000141058117,9154705.052972378209233,0.0],[694534.282000151230022,9155350.823972402140498,0.0],[689604.725000124890357,9157815.51797248236835,0.0],[684194.117000106372871,9160547.195972571149468,0.0],[678835.285000078147277,9163314.676972657442093,0.0],[677514.033000078517944,9160621.928972566500306,0.0],[676849.968000079272315,9159679.910972537472844,0.0],[682904.207000099588186,9159341.726972525939345,0.0],[681711.604000091785565,9156992.412972450256348,0.0],[683060.860000102431513,9156337.751972429454327,0.0],[691709.68000014021527,9152122.436972301453352,0.0],[691927.66000013705343,9152361.965972300618887,0.0],[692503.605000136769377,9152911.462972320616245,0.0]]]}},
{"type":"Feature","properties":{"fid":50,"id":null,"Name":"São Francisco (GMFC)","description":null,"timestamp":null,"begin":null,"end":null,"altitudeMode":null,"tessellate":-1,"extrude":0,"visibility":-1,"drawOrder":null,"icon":null,"COD":"A211","FAZENDA":"São Francisco (GMFC)","Municipio":"Itaueira","Legenda":"Propriedades Compradas","UF":"PI","FOCO":"Sim","FONTE":"Problema SHP Cliente","EIA_RIMA":"Sim","ID2":16,"AREA_ha":5339.23,"RECEBIDO":"05/04/2017 - 24 e 27/04/2017","CAR":"OK -","RL_AVERBAD":"-","BLOCO":"Bloco 02","AREA_RL":1601.77},"geometry":{"type":"Polygon","coordinates":[[[688278.182999533601105,9160384.389550663530827,0.0],[691131.937999533256516,9160983.691550681367517,0.0],[693169.917999554309063,9165980.488550851121545,0.0],[688344.896000124630518,9169287.352972852066159,0.0],[684204.116999515099451,9160547.195550668984652,0.0],[689614.725999529357068,9157815.51455058529973,0.0],[690369.136999537004158,9159387.023550638929009,0.0],[688278.182999533601105,9160384.389550663530827,0.0]]]}},
{"type":"Feature","properties":{"fid":51,"id":null,"Name":"Lagoinhas","description":null,"timestamp":null,"begin":null,"end":null,"altitudeMode":null,"tessellate":-1,"extrude":0,"visibility":-1,"drawOrder":null,"icon":null,"COD":"A547","FAZENDA":"Lagoinhas","Municipio":"Floriano","Legenda":"Propriedades Compradas","UF":"PI","FOCO":"Sim","FONTE":"Problema SHP Cliente","EIA_RIMA":"Sim","ID2":38,"AREA_ha":1066.58,"RECEBIDO":"15/09/2016","CAR":"OK -","RL_AVERBAD":"-","BLOCO":"Bloco 01","AREA_RL":319.975},"geometry":{"type":"Polygon","coordinates":[[[698349.230000179028139,9215113.649974323809147,0.0],[698439.400000177440234,9214644.519974309951067,0.0],[698978.880000182194635,9211918.629974225535989,0.0],[700756.34000019938685,9211518.349974205717444,0.0],[702414.870000209077261,9211971.439974218606949,0.0],[702549.4800002083648,9214594.8399743065238,0.0],[701233.260000191978179,9214562.079974303022027,0.0],[701272.070000197621994,9213408.889974266290665,0.0],[700974.070000195410103,9213396.559974273666739,0.0],[700969.110000197659247,9214557.109974311664701,0.0],[699767.760000188602135,9214551.239974306896329,0.0],[699711.670000190497376,9214622.999974306672812,0.0],[698349.230000179028139,9215113.649974323809147,0.0]]]}},
{"type":"Feature","properties":{"fid":52,"id":null,"Name":"Traíra","description":null,"timestamp":null,"begin":null,"end":null,"altitudeMode":null,"tessellate":-1,"extrude":0,"visibility":-1,"drawOrder":null,"icon":null,"COD":"A059","FAZENDA":"Traíra","Municipio":"Canavieira","Legenda":"Propriedades com Intenção de Compra","UF":"PI","FOCO":"Sim","FONTE":"ImóveisCertificados -Lei 10267","EIA_RIMA":"Sim","ID2":13,"AREA_ha":307.29,"RECEBIDO":"","CAR":"OK -","RL_AVERBAD":"Sim","BLOCO":"Bloco 02","AREA_RL":61.4579},"geometry":{"type":"Polygon","coordinates":[[[679349.410634541884065,9186882.946893243119121,0.0],[677826.586980681284331,9187357.747988821938634,0.0],[677432.775029651704244,9186875.815013632178307,0.0],[677379.328964851447381,9186164.974035479128361,0.0],[677254.859003953053616,9186191.486938524991274,0.0],[677289.17298197792843,9185561.297941394150257,0.0],[679224.891711871139705,9185511.654968677088618,0.0],[679250.652654530014843,9185795.281801594421268,0.0],[679300.209660565014929,9186339.524904150515795,0.0],[679349.410634541884065,9186882.946893243119121,0.0]]]}},
{"type":"Feature","properties":{"fid":53,"id":null,"Name":"Traíra","description":null,"timestamp":null,"begin":null,"end":null,"altitudeMode":null,"tessellate":-1,"extrude":0,"visibility":-1,"drawOrder":null,"icon":null,"COD":"A059","FAZENDA":"Traíra","Municipio":"Canavieira","Legenda":"Propriedades com Intenção de Compra","UF":"PI","FOCO":"Sim","FONTE":"ImóveisCertificados -Lei 10267","EIA_RIMA":"Sim","ID2":13,"AREA_ha":453.077,"RECEBIDO":"","CAR":"OK -","RL_AVERBAD":"Sim","BLOCO":"Bloco 02","AREA_RL":90.6154},"geometry":{"type":"Polygon","coordinates":[[[674038.501006641425192,9184827.942986030131578,0.0],[672642.80799918982666,9185626.914006359875202,0.0],[672156.171991192968562,9185793.476970635354519,0.0],[671943.961002838215791,9185940.827919641509652,0.0],[672326.024996791617014,9185181.098970577120781,0.0],[673278.193992949556559,9184799.602968318387866,0.0],[674970.811000629095361,9183470.662936378270388,0.0],[675517.703945926739834,9183365.990941897034645,0.0],[677260.142006807844155,9183332.398988723754883,0.0],[678103.287997755222023,9183369.409032663330436,0.0],[679481.606022591004148,9182736.748945992439985,0.0],[680072.408979212865233,9182730.143952514976263,0.0],[679338.561974422540516,9183787.185017455369234,0.0],[678069.621979741379619,9184221.148922383785248,0.0],[677952.484985275543295,9184102.918981350958347,0.0],[677842.620938513311557,9183942.680994546040893,0.0],[677304.010995161021128,9184070.090956158936024,0.0],[677301.603998662671074,9183684.057997895404696,0.0],[676491.61600227211602,9183635.933948513120413,0.0],[674899.052002229262143,9184022.517925422638655,0.0],[674038.501006641425192,9184827.942986030131578,0.0]]]}},
{"type":"Feature","properties":{"fid":54,"id":null,"Name":"Estocado de Baixo","description":null,"timestamp":null,"begin":null,"end":null,"altitudeMode":null,"tessellate":-1,"extrude":0,"visibility":-1,"drawOrder":null,"icon":null,"COD":"A297","FAZENDA":"Estocado de Baixo","Municipio":"Floriano","Legenda":"Propriedades Compradas","UF":"PI","FOCO":"Sim","FONTE":"ImóveisCertificados -Lei 10267","EIA_RIMA":"Sim","ID2":55,"AREA_ha":108.147,"RECEBIDO":"13/09/2017","CAR":"OK","RL_AVERBAD":"-","BLOCO":"Bloco 02","AREA_RL":32.4442},"geometry":{"type":"Polygon","coordinates":[[[704617.753984940121882,9225300.491927625611424,0.0],[704442.218551009777002,9224822.449466684833169,0.0],[705842.417250329977833,9224221.945017559453845,0.0],[705865.439129456528462,9225335.189307294785976,0.0],[704617.753984940121882,9225300.491927625611424,0.0]]]}}
]
}
