{
"type": "FeatureCollection",
"name": "Area fazenda serra vermelha -FSV",
"crs": { "type": "name", "properties": { "name": "urn:ogc:def:crs:EPSG::32723" } },
"features": [
{"type":"Feature","properties":{"fid":1,"id":null,"Name":"Polígono sem título","description":null,"timestamp":null,"begin":null,"end":null,"altitudeMode":null,"tessellate":1,"extrude":0,"visibility":-1,"drawOrder":null,"icon":null,"AREA_HA":147.93927584131094},"geometry":{"type":"Polygon","coordinates":[[[1375830.224908409174532,9439800.890839256346226,0.0],[1375844.074463553261012,9439638.130105461925268,0.0],[1375850.734241048805416,9439614.840648047626019,0.0],[1375841.643207049462944,9439610.147777888923883,0.0],[1375830.193501519737765,9439607.857731150463223,0.0],[1375821.111867949832231,9439603.168793059885502,0.0],[1375811.907463607145473,9439603.242843870073557,0.0],[1375800.468135230243206,9439600.955158775672317,0.0],[1375788.966300831176341,9439601.047816578298807,0.0],[1375775.116477526724339,9439601.211184784770012,0.0],[1375760.989208883605897,9439601.678819667547941,0.0],[1375751.565952776465565,9439601.990847039967775,0.0],[1375737.423662714194506,9439602.459106491878629,0.0],[1375720.912764384876937,9439603.005640791729093,0.0],[1375704.35300549864769,9439603.589314077049494,0.0],[1375697.293680055066943,9439603.79912380874157,0.0],[1375683.476284511387348,9439599.297037707641721,0.0],[1375676.477958993520588,9439599.441506560891867,0.0],[1375664.812124613439664,9439599.681936722248793,0.0],[1375650.809901875443757,9439599.970819447189569,0.0],[1375639.234111646190286,9439597.815647341310978,0.0],[1375627.879351997282356,9439590.843670275062323,0.0],[1375614.204203400528058,9439583.918888764455914,0.0],[1375571.394706961233169,9439553.605381125584245,0.0],[1375550.407277739839628,9439506.328088719397783,0.0],[1375573.770286200800911,9439458.300552055239677,0.0],[1375542.045367600861937,9439374.880513060837984,0.0],[1375333.417326387716457,9439004.48892786540091,0.0],[1375215.615268333349377,9438757.777527626603842,0.0],[1375354.574232333572581,9438543.445583442226052,0.0],[1377177.257694240193814,9440164.566790640354156,0.0],[1376372.123106304556131,9440822.904022090137005,0.0],[1376356.126478798687458,9440801.410537069663405,0.0],[1376350.805602514417842,9440790.647634789347649,0.0],[1376342.769468439742923,9440779.996015723794699,0.0],[1376340.171962856315076,9440769.138641372323036,0.0],[1376334.859248849097639,9440758.392375007271767,0.0],[1376332.26565682166256,9440747.548432227224112,0.0],[1376329.743245429359376,9440733.91896896250546,0.0],[1376327.230661256238818,9440722.971710858866572,0.0],[1376321.981095141265541,9440712.174014084041119,0.0],[1376319.531781079713255,9440698.479486590251327,0.0],[1376319.705870914738625,9440690.188141724094748,0.0],[1376319.937648354563862,9440679.143602045252919,0.0],[1376320.169292764272541,9440668.111108580604196,0.0],[1376323.239301222376525,9440651.467632299289107,0.0],[1376323.429189314134419,9440643.185595240443945,0.0],[1376326.408782575745136,9440632.031100161373615,0.0],[1376326.651468012714759,9440621.031700139865279,0.0],[1376324.223102160729468,9440607.438516538590193,0.0],[1376321.858735745307058,9440591.121048405766487,0.0],[1376319.49804954836145,9440574.827547891065478,0.0],[1376317.016902148723602,9440564.022710477933288,0.0],[1376314.538159560644999,9440553.227765301242471,0.0],[1376309.336007963865995,9440542.572720559313893,0.0],[1376306.925704697612673,9440529.071371886879206,0.0],[1376299.006071577779949,9440518.561100799590349,0.0],[1376282.976716737961397,9440486.984132714569569,0.0],[1376279.954061783850193,9440480.624080350622535,0.0],[1376270.714957648422569,9440468.124708898365498,0.0],[1376261.389832273125648,9440458.913967790082097,0.0],[1376255.357126512797549,9440446.213471727445722,0.0],[1376246.154802568256855,9440433.689033839851618,0.0],[1376240.091372821014374,9440421.072499616071582,0.0],[1376233.95647956430912,9440411.703349910676479,0.0],[1376224.645688530988991,9440402.510845307260752,0.0],[1376218.668254537973553,9440386.680429434403777,0.0],[1376209.441537463106215,9440374.264212241396308,0.0],[1376196.961308669066057,9440365.251344738528132,0.0],[1376184.400496638379991,9440359.467024389654398,0.0],[1376171.959183973493055,9440350.391980294138193,0.0],[1376153.272617624606937,9440341.48640600964427,0.0],[1376140.838791036047041,9440335.514020143076777,0.0],[1376128.40517955692485,9440329.541588513180614,0.0],[1376115.972035103244707,9440323.569597652181983,0.0],[1376106.789981801062822,9440314.247929001227021,0.0],[1376094.650151900481433,9440298.600155208259821,0.0],[1376085.493069231975824,9440289.269662842154503,0.0],[1376076.538797235116363,9440273.504767479375005,0.0],[1376067.393475815653801,9440264.186733232811093,0.0],[1376051.95608246512711,9440255.093757322058082,0.0],[1376036.522026604507118,9440246.002610832452774,0.0],[1376024.240599146578461,9440236.804248120635748,0.0],[1376009.137704236898571,9440218.092237098142505,0.0],[1375997.108572700992227,9440202.474533749744296,0.0],[1375994.601451778318733,9440186.475798696279526,0.0],[1375974.361809931695461,9440139.204335533082485,0.0],[1375897.832565304357558,9440068.545421889051795,0.0],[1375843.754925665911287,9439988.887655107304454,0.0],[1375827.26686470839195,9439877.708876213058829,0.0],[1375830.224908409174532,9439800.890839256346226,0.0]]]}},
{"type":"Feature","properties":{"fid":2,"id":null,"Name":"Polígono sem título","description":null,"timestamp":null,"begin":null,"end":null,"altitudeMode":null,"tessellate":1,"extrude":0,"visibility":-1,"drawOrder":null,"icon":null,"AREA_HA":1393.141786119061},"geometry":{"type":"Polygon","coordinates":[[[1375367.563791615189984,9438515.667080830782652,0.0],[1376524.418914502020925,9436111.394710749387741,0.0],[1376168.698959617875516,9435732.799538102000952,0.0],[1376503.033709266688675,9434717.252665193751454,0.0],[1380478.521195465233177,9436584.062800690531731,0.0],[1378618.969873918918893,9438503.319619102403522,0.0],[1378653.032853213138878,9438539.198319911956787,0.0],[1378670.360734054818749,9438549.831326935440302,0.0],[1378676.93998876051046,9438564.379678590223193,0.0],[1378679.979368161410093,9438579.024098142981529,0.0],[1378682.896791130071506,9438597.377809016034007,0.0],[1378693.03366009844467,9438611.948570193722844,0.0],[1378699.628851406509057,9438626.612201811745763,0.0],[1378706.119958742754534,9438644.988856203854084,0.0],[1378709.552610842976719,9438648.624385841190815,0.0],[1378719.398067384958267,9438674.351087898015976,0.0],[1378726.164218739140779,9438685.351612728089094,0.0],[1378732.711424998939037,9438703.791640331968665,0.0],[1378735.596626844257116,9438726.046932619065046,0.0],[1378742.164170665666461,9438744.555269792675972,0.0],[1378745.280606196727604,9438759.441951956599951,0.0],[1378744.678730605402961,9438778.213343378156424,0.0],[1378751.354421140160412,9438793.115794943645597,0.0],[1378742.70162985753268,9438838.652744172140956,0.0],[1378719.08238575514406,9438900.003944044932723,0.0],[1378688.698922468814999,9438953.530008692294359,0.0],[1378639.323965198826045,9439005.691715355962515,0.0],[1377200.342170835239813,9440134.034271292388439,0.0],[1376069.729313930496573,9439138.619051344692707,0.0],[1375367.563791615189984,9438515.667080830782652,0.0]]]}}
]
}
