{
"type": "FeatureCollection",
"name": "Area -SBS — fazendas_geral",
"crs": { "type": "name", "properties": { "name": "urn:ogc:def:crs:EPSG::31982" } },
"xy_coordinate_resolution": 1e-15,
"features": [
{"type":"Feature","properties":{"fid":1,"id":null,"Name":"Santa Cruz FFA (B53)","description":null,"timestamp":null,"begin":null,"end":null,"altitudeMode":null,"tessellate":-1,"extrude":0,"visibility":-1,"drawOrder":null,"icon":null,"area_ha":14.168876842149171},"geometry":{"type":"Point","coordinates":[1229674.96961076115258,7714457.113393756560981]}},
{"type":"Feature","properties":{"fid":2,"id":null,"Name":"Buia AM (B53)","description":null,"timestamp":null,"begin":null,"end":null,"altitudeMode":null,"tessellate":-1,"extrude":0,"visibility":-1,"drawOrder":null,"icon":null,"area_ha":10.389144918225972},"geometry":{"type":"Point","coordinates":[1230311.194955534301698,7714034.794377961196005]}},
{"type":"Feature","properties":{"fid":3,"id":null,"Name":"Fazenda Buia e Santa Cruz (B53)","description":null,"timestamp":null,"begin":null,"end":null,"altitudeMode":null,"tessellate":-1,"extrude":0,"visibility":-1,"drawOrder":null,"icon":null,"area_ha":51.712484794502146},"geometry":{"type":"Point","coordinates":[1230690.979363722261041,7713730.963640049099922]}},
{"type":"Feature","properties":{"fid":4,"id":null,"Name":"Morro Grande (RSR - B53)","description":null,"timestamp":null,"begin":null,"end":null,"altitudeMode":null,"tessellate":-1,"extrude":0,"visibility":-1,"drawOrder":null,"icon":null,"area_ha":208.61591350432803},"geometry":{"type":"Point","coordinates":[1228479.580378784099594,7713061.761790536344051]}},
{"type":"Feature","properties":{"fid":5,"id":null,"Name":"Morro Grande e Santa Cruz (B53)","description":null,"timestamp":null,"begin":null,"end":null,"altitudeMode":null,"tessellate":-1,"extrude":0,"visibility":-1,"drawOrder":null,"icon":null,"area_ha":32.162838265486293},"geometry":{"type":"Point","coordinates":[1229040.544836691580713,7714102.173455147072673]}},
{"type":"Feature","properties":{"fid":6,"id":null,"Name":"Sítio Novo (DPSC) P07","description":null,"timestamp":null,"begin":null,"end":null,"altitudeMode":null,"tessellate":-1,"extrude":0,"visibility":-1,"drawOrder":null,"icon":null,"area_ha":41.80394851673109},"geometry":{"type":"Point","coordinates":[1231606.198853826150298,7705690.592720734886825]}},
{"type":"Feature","properties":{"fid":7,"id":null,"Name":"Laranjeiras (DARO - P07)","description":null,"timestamp":null,"begin":null,"end":null,"altitudeMode":null,"tessellate":-1,"extrude":0,"visibility":-1,"drawOrder":null,"icon":null,"area_ha":25.95389698858018},"geometry":{"type":"Point","coordinates":[1229726.365908593637869,7706452.132762308232486]}},
{"type":"Feature","properties":{"fid":8,"id":null,"Name":"João Francisco (P07)","description":null,"timestamp":null,"begin":null,"end":null,"altitudeMode":null,"tessellate":-1,"extrude":0,"visibility":-1,"drawOrder":null,"icon":null,"area_ha":51.236065357089764},"geometry":{"type":"Point","coordinates":[1233714.585720833856612,7706366.704604987986386]}},
{"type":"Feature","properties":{"fid":9,"id":null,"Name":"Sítio Cantagalo (P07)","description":null,"timestamp":null,"begin":null,"end":null,"altitudeMode":null,"tessellate":-1,"extrude":0,"visibility":-1,"drawOrder":null,"icon":null,"area_ha":21.762240800020134},"geometry":{"type":"Point","coordinates":[1231806.97838596929796,7707914.847848019562662]}},
{"type":"Feature","properties":{"fid":10,"id":null,"Name":"Fazenda Canta Galo (LFM - P07)","description":null,"timestamp":null,"begin":null,"end":null,"altitudeMode":null,"tessellate":-1,"extrude":0,"visibility":-1,"drawOrder":null,"icon":null,"area_ha":27.453574732449304},"geometry":{"type":"Point","coordinates":[1232590.103932054713368,7708289.962927306070924]}},
{"type":"Feature","properties":{"fid":11,"id":null,"Name":"Lobo Lobo (P07)","description":null,"timestamp":null,"begin":null,"end":null,"altitudeMode":null,"tessellate":-1,"extrude":0,"visibility":-1,"drawOrder":null,"icon":null,"area_ha":36.014327579814008},"geometry":{"type":"Point","coordinates":[1230984.631914605153725,7705518.714315925724804]}},
{"type":"Feature","properties":{"fid":12,"id":null,"Name":"Lagoa Grande (P07)","description":null,"timestamp":null,"begin":null,"end":null,"altitudeMode":null,"tessellate":-1,"extrude":0,"visibility":-1,"drawOrder":null,"icon":null,"area_ha":16.403957872887322},"geometry":{"type":"Point","coordinates":[1230205.426968778949231,7705060.285825751721859]}},
{"type":"Feature","properties":{"fid":13,"id":null,"Name":"Sítio Novo (WPS - P07)","description":null,"timestamp":null,"begin":null,"end":null,"altitudeMode":null,"tessellate":-1,"extrude":0,"visibility":-1,"drawOrder":null,"icon":null,"area_ha":36.08972812302305},"geometry":{"type":"Point","coordinates":[1231090.312991738319397,7706362.5517294742167]}},
{"type":"Feature","properties":{"fid":14,"id":null,"Name":"Morro Grande RAT (B53)","description":null,"timestamp":null,"begin":null,"end":null,"altitudeMode":null,"tessellate":-1,"extrude":0,"visibility":-1,"drawOrder":null,"icon":null,"area_ha":9.1547996016146236},"geometry":{"type":"Point","coordinates":[1227956.408053740859032,7714601.747289195656776]}},
{"type":"Feature","properties":{"fid":15,"id":null,"Name":"Vargem Bonita I (P07)","description":null,"timestamp":null,"begin":null,"end":null,"altitudeMode":null,"tessellate":-1,"extrude":0,"visibility":-1,"drawOrder":null,"icon":null,"area_ha":101.83394151282292},"geometry":{"type":"Point","coordinates":[1230838.857952392892912,7705131.395867256447673]}},
{"type":"Feature","properties":{"fid":16,"id":null,"Name":"Sítio Novo (MASC - P07)","description":null,"timestamp":null,"begin":null,"end":null,"altitudeMode":null,"tessellate":-1,"extrude":0,"visibility":-1,"drawOrder":null,"icon":null,"area_ha":32.696809380376784},"geometry":{"type":"Point","coordinates":[1230930.396063694031909,7706020.835504153743386]}},
{"type":"Feature","properties":{"fid":17,"id":null,"Name":"Sítio Novo (DPS - P07)","description":null,"timestamp":null,"begin":null,"end":null,"altitudeMode":null,"tessellate":-1,"extrude":0,"visibility":-1,"drawOrder":null,"icon":null,"area_ha":36.746388068403064},"geometry":{"type":"Point","coordinates":[1231680.014331660000607,7706314.612254654057324]}},
{"type":"Feature","properties":{"fid":18,"id":null,"Name":"Morro Grande RAS (B53)","description":null,"timestamp":null,"begin":null,"end":null,"altitudeMode":null,"tessellate":-1,"extrude":0,"visibility":-1,"drawOrder":null,"icon":null,"area_ha":14.376412401885586},"geometry":{"type":"Point","coordinates":[1228193.049274791264907,7714313.86898335069418]}},
{"type":"Feature","properties":{"fid":19,"id":null,"Name":"Buia AAD (B53)","description":null,"timestamp":null,"begin":null,"end":null,"altitudeMode":null,"tessellate":-1,"extrude":0,"visibility":-1,"drawOrder":null,"icon":null,"area_ha":14.628870852049539},"geometry":{"type":"Point","coordinates":[1230128.513691953849047,7713521.944133940152824]}},
{"type":"Feature","properties":{"fid":20,"id":null,"Name":"Vargem Bonita II","description":null,"timestamp":null,"begin":null,"end":null,"altitudeMode":null,"tessellate":-1,"extrude":0,"visibility":-1,"drawOrder":null,"icon":null,"area_ha":52.54104130945214},"geometry":{"type":"Point","coordinates":[1231164.154256906360388,7703388.986307398416102]}},
{"type":"Feature","properties":{"fid":21,"id":null,"Name":"Ponte Pequena (P07)","description":null,"timestamp":null,"begin":null,"end":null,"altitudeMode":null,"tessellate":-1,"extrude":0,"visibility":-1,"drawOrder":null,"icon":null,"area_ha":4.0960339172516109},"geometry":{"type":"Point","coordinates":[1230467.097709761699662,7704907.241696769371629]}},
{"type":"Feature","properties":{"fid":22,"id":null,"Name":"Gurgeiro (B53)","description":null,"timestamp":null,"begin":null,"end":null,"altitudeMode":null,"tessellate":-1,"extrude":0,"visibility":-1,"drawOrder":null,"icon":null,"area_ha":85.741153384153407},"geometry":{"type":"Point","coordinates":[1228301.190343413036317,7718884.064397695474327]}},
{"type":"Feature","properties":{"fid":23,"id":null,"Name":"Tombacará (B53)","description":null,"timestamp":null,"begin":null,"end":null,"altitudeMode":null,"tessellate":-1,"extrude":0,"visibility":-1,"drawOrder":null,"icon":null,"area_ha":22.025643261159424},"geometry":{"type":"Point","coordinates":[1225990.308681028429419,7714927.279019795358181]}},
{"type":"Feature","properties":{"fid":24,"id":null,"Name":"Fazenda da Calçada (B53)","description":null,"timestamp":null,"begin":null,"end":null,"altitudeMode":null,"tessellate":-1,"extrude":0,"visibility":-1,"drawOrder":null,"icon":null,"area_ha":12.121839308560215},"geometry":{"type":"Point","coordinates":[1226067.500861177919433,7715228.554153044708073]}},
{"type":"Feature","properties":{"fid":25,"id":null,"Name":"Laranjeiras (MFFS)","description":null,"timestamp":null,"begin":null,"end":null,"altitudeMode":null,"tessellate":-1,"extrude":0,"visibility":-1,"drawOrder":null,"icon":null,"area_ha":3.2402083185736092},"geometry":{"type":"Point","coordinates":[1229262.621772122103721,7706264.86841980740428]}},
{"type":"Feature","properties":{"fid":26,"id":null,"Name":"Contendas (P07)","description":null,"timestamp":null,"begin":null,"end":null,"altitudeMode":null,"tessellate":-1,"extrude":0,"visibility":-1,"drawOrder":null,"icon":null,"area_ha":10.1463511218695},"geometry":{"type":"Point","coordinates":[1230476.05193014559336,7703750.554120033979416]}},
{"type":"Feature","properties":{"fid":27,"id":null,"Name":"Grota da Calçada (B53)","description":null,"timestamp":null,"begin":null,"end":null,"altitudeMode":null,"tessellate":-1,"extrude":0,"visibility":-1,"drawOrder":null,"icon":null,"area_ha":10.779361345230658},"geometry":{"type":"Point","coordinates":[1226214.993886284297332,7715172.982762357220054]}},
{"type":"Feature","properties":{"fid":28,"id":null,"Name":"Gurgeiro CLLC (B53)","description":null,"timestamp":null,"begin":null,"end":null,"altitudeMode":null,"tessellate":-1,"extrude":0,"visibility":-1,"drawOrder":null,"icon":null,"area_ha":64.684769377451488},"geometry":{"type":"Point","coordinates":[1227466.678415901726112,7718452.076086594723165]}}
]
}
