{
"type": "FeatureCollection",
"name": "Buffer de 5km-FSV",
"crs": { "type": "name", "properties": { "name": "urn:ogc:def:crs:EPSG::32723" } },
"features": [
{"type":"Feature","properties":{"fid":1,"id":null,"Name":"Polígono sem título","description":null,"timestamp":null,"begin":null,"end":null,"altitudeMode":null,"tessellate":1,"extrude":0,"visibility":-1,"drawOrder":null,"icon":null},"geometry":{"type":"MultiPolygon","coordinates":[[[[1370862.000736267538741,9436347.741446891799569],[1370806.326321169966832,9436536.532591992989182],[1370353.01666534692049,9437593.674943557009101],[1370243.283760543912649,9439283.057811517268419],[1370703.590035044355318,9440912.221375621855259],[1370821.392093098722398,9441158.932775860652328],[1370938.09238398168236,9441383.518777279183269],[1370980.463836665498093,9441535.0264264177531],[1371001.451265886891633,9441582.303718823939562],[1371633.184940745122731,9442608.068082081153989],[1371706.958983490476385,9442797.253609323874116],[1371761.036623128922656,9442876.911376105621457],[1371925.306389657780528,9443067.705550022423267],[1372100.369857429992408,9443426.133869370445609],[1372113.726867788936943,9443447.548390716314316],[1372345.092286520171911,9443786.641635054722428],[1372361.088914026040584,9443808.135120075196028],[1373517.215667281299829,9444927.718696909025311],[1374969.121846035355702,9445622.027636218816042],[1376566.384368418715894,9445819.128853105008602],[1378143.520674547646195,9445498.601901041343808],[1379537.133358192862943,9444693.65460892021656],[1380342.267946128500625,9444035.317377470433712],[1380378.289233051473275,9443995.967858046293259],[1381724.565489349188283,9442940.318093763664365],[1382270.525855088373646,9442442.895933156833053],[1382319.9008123583626,9442390.734226493164897],[1383036.995799401775002,9441421.791394781321287],[1383067.379262688104063,9441368.265330133959651],[1383317.645711323013529,9440839.262777300551534],[1384069.468645214801654,9440063.300707638263702],[1384974.86185359978117,9438771.051754938438535],[1385432.483521200483665,9437261.009826090186834],[1385396.761042473604903,9435683.55360734462738],[1384871.251867923419923,9434195.775288842618465],[1383908.289232657058164,9432945.836418088525534],[1382603.770510938484222,9432058.21311835758388],[1378628.283024739939719,9430191.402982860803604],[1377005.496501925168559,9429742.563615415245295],[1375325.732851447537541,9429857.832669949159026],[1373779.470073578180745,9430524.139129603281617],[1372542.047741678310558,9431665.926696935668588],[1371753.784245899645612,9433153.72155430726707],[1371419.449496250832453,9434169.268427215516567],[1371217.589707895182073,9435608.726921496912837],[1370862.000736267538741,9436347.741446891799569]]]]}}
]
}
