{
"type": "FeatureCollection",
"name": "Buffer de 5km -CBF",
"crs": { "type": "name", "properties": { "name": "urn:ogc:def:crs:EPSG::32723" } },
"features": [
{"type":"Feature","properties":{"fid":1,"id":null,"Name":"Malhada Grande (FRRC-Papagaio)","description":null,"timestamp":null,"begin":null,"end":null,"altitudeMode":null,"tessellate":-1,"extrude":0,"visibility":-1,"drawOrder":null,"icon":null,"COD":"A549","FAZENDA":"Malhada Grande (FRRC-Papagaio)","Municipio":"Nazaré do Piauí","Legenda":"Propriedades com Intenção de Compra","UF":"PI","FOCO":"Sim","FONTE":"Sem Previsão","EIA_RIMA":"Sim","ID2":2,"AREA_ha":531.414,"RECEBIDO":"","CAR":"-","RL_AVERBAD":"-","BLOCO":"Aguard Lim","AREA_RL":159.424},"geometry":{"type":"MultiPolygon","coordinates":[[[[677961.710286369663663,9135521.033483192324638],[678326.825690063415095,9135160.338165942579508],[678599.014992257812992,9135005.343329140916467],[682608.664992269594222,9131837.833329040557146],[682598.465399250388145,9131824.921989170834422],[682841.918347310624085,9131672.084696941077709],[683819.276758013293147,9130532.070579901337624],[684414.067516087554395,9129153.271970918402076],[684572.643786726519465,9127660.048874253407121],[684280.702867879532278,9126187.08174973167479],[683564.576214825734496,9124867.224080583080649],[682488.854488626471721,9123819.519724475219846],[681150.561835941742174,9123138.465816335752606],[681059.251835940405726,9123108.205816335976124],[679221.181903572520241,9122861.407927840948105],[677419.596973515697755,9123301.523837383836508],[676634.076973516959697,9123658.113837394863367],[676078.865404312498868,9123953.596428235992789],[671816.995404299930669,9126578.366428319364786],[670739.516550383530557,9127472.116409519687295],[669952.039377205073833,9128629.540018774569035],[669516.294211220578291,9129959.906832797452807],[669463.414211218128912,9130257.12683280557394],[669427.190459262928925,9131772.57250708155334],[669846.768326324177906,9133229.226949756965041],[670683.582098734448664,9134493.201024726033211],[671860.715611764462665,9135448.31591016612947],[672474.905611766385846,9135807.745910180732608],[673818.427219165372662,9136350.690040968358517],[675261.21851181902457,9136485.56748365983367],[676682.094333571381867,9136201.049403630197048],[677961.710286369663663,9135521.033483192324638]]],[[[671850.05034372152295,9159708.606436328962445],[672088.12630366848316,9161204.661331882700324],[672763.312743739690632,9162560.752657849341631],[673199.495336027117446,9163179.505119182169437],[674082.931494408519939,9164979.972364408895373],[670700.323339233058505,9164656.698512822389603],[669194.555626952089369,9164741.278548920527101],[667782.504921823274344,9165270.998278588056564],[666592.639042676542886,9166197.66400877200067],[665733.21152009582147,9167436.968055116012692],[665282.412732703611255,9168876.159021992236376],[665281.256177208735608,9170384.299880212172866],[665729.847076575970277,9171824.180566539987922],[666518.348660161602311,9172964.940988622605801],[666522.584675061749294,9172977.4471375644207],[666524.158077497733757,9172985.990460516884923],[666612.678123801248148,9173243.443640531972051],[666243.572229134268127,9174275.054620955139399],[666252.618458518059924,9176010.282425748184323],[666854.195314244716428,9177637.919564500451088],[667975.846536817844026,9178961.927080977708101],[668770.317962013999932,9179622.379333550110459],[668796.185996588785201,9180483.289078773930669],[668999.556404341012239,9180988.418550400063396],[668025.67376446723938,9182630.220411565154791],[667954.581698280875571,9182808.245345951989293],[667859.07398322748486,9182934.691028457134962],[667477.009989274083637,9183694.419977521523833],[666989.791427161660977,9185265.399303546175361],[667038.684950913186185,9186909.469677161425352],[667470.98532889643684,9188057.307063169777393],[667452.166082120849751,9188171.286305010318756],[667669.361613138113171,9189681.929990563541651],[668332.139679688494653,9191056.68214200809598],[669450.086682054912671,9192682.228102305904031],[669476.890705037629232,9192720.812858315184712],[669996.542703447397798,9193461.408848877996206],[670751.815053302096203,9194312.407702876254916],[672343.055954264826141,9195739.001702649518847],[673785.285906435805373,9196642.912455208599567],[675447.166665279539302,9197010.654520951211452],[676839.012767232139595,9196836.736921770498157],[676949.246310243266635,9197857.514176016673446],[677713.725994371809065,9200482.871396338567138],[677965.979725919547491,9201490.255509929731488],[678541.891141484607942,9202773.143914714455605],[677274.314915069611743,9203281.49281407147646],[676071.405525723821484,9204287.042810119688511],[675239.042919947649352,9205615.686587072908878],[674525.400981134967878,9207293.187734110280871],[674166.443676767288707,9208618.681594710797071],[674151.843882326618768,9208733.288515072315931],[674178.761020667501725,9210180.925094425678253],[674619.335063076578081,9211560.153397271409631],[675436.621652111760341,9212755.318168170750141],[676562.0871816779254,9213666.198807979002595],[677901.355685851187445,9214216.413376985117793],[678469.17399532161653,9214272.932544076815248],[679385.742965708719566,9214746.558669842779636],[680831.007020715507679,9215012.501676309853792],[682291.163315542740747,9214846.798731073737144],[682967.830533281550743,9214554.326901702210307],[683255.04509754513856,9214788.023676816374063],[683747.383391148527153,9214990.900340814143419],[684394.333505859831348,9215420.296429350972176],[685354.067838271846995,9215664.938625976443291],[685926.512092933175154,9215890.377033250406384],[687655.76194371515885,9215937.831977950409055],[687909.211943716392852,9215900.451977949589491],[689479.934831851744093,9215393.422521514818072],[690799.99901896819938,9214402.624962525442243],[691105.379018969833851,9214082.044962519779801],[691977.615994466468692,9212828.132952926680446],[692430.590991702978499,9211369.398459913209081],[692422.030704864300787,9209841.975993562489748],[691952.734011648921296,9208388.410280233249068],[691517.907042364939116,9207778.020841194316745],[692053.636363080237061,9207847.123842027038336],[693620.987473353277892,9207541.69176509603858],[694017.149829854839481,9207318.427899928763509],[694401.034628508146852,9207999.320003377273679],[694971.617749064811505,9209015.982329038903117],[694552.855476536671631,9209592.623328471556306],[694074.014846645761281,9210947.909712962806225],[693534.53484664100688,9213673.799713047221303],[693529.275964451720938,9213700.760495528578758],[693518.031278086360544,9213759.263542160391808],[692583.079145113937557,9214495.006417097523808],[691723.201683712075464,9215760.249520527198911],[691286.122924611554481,9217226.261634305119514],[691299.99497047951445,9218022.895817879587412],[690449.276385338744149,9217367.448225021362305],[688893.291134756058455,9216840.688073767349124],[687250.570496186264791,9216846.626137072220445],[686397.090987444506027,9217142.455788778141141],[685794.242166514275596,9217015.706802733242512],[684376.868812067550607,9216923.853151068091393],[682990.854926827014424,9217234.255839748308063],[681748.04541792452801,9217921.866808103397489],[680748.729261962114833,9218931.199032720178366],[680268.05065476114396,9219579.645504230633378],[680119.649080775678158,9219777.921931186690927],[679376.144597662729211,9221202.007448503747582],[679122.630739000975154,9222788.370963120833039],[679385.278434814885259,9224373.247824244201183],[680136.973844052175991,9225793.026852393522859],[681300.117390662315302,9226901.140369601547718],[682754.634580383310094,9227583.194782273843884],[684350.371619679266587,9227768.779745189473033],[685921.144584847847,9227697.152819775044918],[685944.757649697363377,9227696.069141365587711],[686149.200066971010529,9227721.10265507735312],[686724.034213096136227,9227665.498717369511724],[687313.021871471428312,9227783.186070114374161],[687558.311871472164057,9227790.236070115119219],[689179.617958840215579,9227568.964810736477375],[690642.661299243220128,9226836.094710877165198],[691438.081299247103743,9226257.654710855334997],[692613.385246845544316,9225052.609841832891107],[692907.024253490031697,9224420.099196216091514],[693171.746397223090753,9224858.582330830395222],[694301.677697128499858,9225858.960493018850684],[695678.624414931749925,9226476.632692666724324],[698827.294114065472968,9227348.664810124784708],[700190.739876518840902,9227510.974631279706955],[700636.373619689722545,9228325.158915443345904],[701698.988504973473027,9229360.148079685866833],[703018.495961320819333,9230037.83018596097827],[704478.760703000589274,9230298.559641009196639],[705726.445847516995855,9230333.257020678371191],[705729.038442523335107,9230332.907187731936574],[706232.782297414611094,9231111.416749238967896],[706241.628942066687159,9231118.995425503700972],[705239.949512690654956,9232163.156991010531783],[704544.323729058844037,9233690.409894427284598],[704468.853729061316699,9233975.50989443808794],[704373.858124874881469,9234881.192365681752563],[704211.165654992451891,9234830.241534490138292],[702477.937841678387485,9234908.755684494972229],[702376.698059195186943,9234931.35781511478126],[702158.71460445492994,9234985.188941637054086],[699642.346503515378572,9235666.903021378442645],[697948.43370122811757,9236493.947135386988521],[697695.89803008758463,9236683.481466893106699],[697071.107865253579803,9237344.408704908564687],[696684.18250685732346,9237446.694655787199736],[696568.596276904223487,9237476.877416711300611],[694835.73422235972248,9238311.766973681747913],[693546.283164355205372,9239739.060721103101969],[693323.00246160000097,9240110.582175809890032],[692657.459752872120589,9241988.850024932995439],[692488.57627432141453,9243187.944647867232561],[692256.245418800855987,9243560.154802599921823],[692146.994964232901111,9243735.325342681258917],[691486.820975415175781,9245399.593991665169597],[691335.190702189924195,9246156.846790421754122],[691244.605745591805317,9247397.988097148016095],[691246.870716560282744,9247410.674093348905444],[691149.55328877537977,9248633.680173235014081],[691584.80162244499661,9250267.399995163083076],[692539.641684020869434,9251662.664136942476034],[692930.581509807845578,9251948.232914609834552],[692943.507727138116024,9251977.056071184575558],[693105.105089350952767,9252149.385632544755936],[693289.794370166375302,9252974.923982100561261],[693515.335371085791849,9253573.166027726605535],[694332.46345677273348,9254985.703906964510679],[695560.904557006666437,9256059.89850384183228],[697069.807014214224182,9256681.328261204063892],[698698.444858216680586,9256783.799436593428254],[700448.050908326520585,9256606.338453471660614],[700845.045792986406013,9256506.314970951527357],[701055.542460652068257,9256541.376034043729305],[702644.316251506563276,9256288.03570163063705],[702682.619304184685461,9256275.354713099077344],[704035.07289638905786,9255584.670314576476812],[705117.803572253789753,9254519.837022004649043],[705830.932646650122479,9253179.08254012465477],[706108.676083098514937,9251686.087482884526253],[705925.412875513313338,9250178.576204594224691],[705378.982814945629798,9248230.156646752730012],[705147.192889171536081,9245553.368087941780686],[705223.606446867575869,9245533.193935042247176],[706769.391802954487503,9244826.267529170960188],[707989.031111883581616,9243642.343010239303112],[708741.573229213594459,9242118.244039682671428],[708940.04844849021174,9240430.107523359358311],[708906.103278215043247,9240281.506370436400175],[710103.637104344670661,9240430.296165877953172],[711042.667183973011561,9240726.551746534183621],[712403.795998929766938,9240956.177956005558372],[713775.84153565694578,9240804.880592746660113],[714792.780548856360838,9240390.680354921147227],[714806.184757609269582,9240417.408512415364385],[715145.864757613861002,9240247.058512408286333],[716361.675412830314599,9239389.735963575541973],[717271.423391602584161,9238212.639486137777567],[717794.570615764940158,9236819.974959438666701],[717884.803960127872415,9235335.032049546018243],[717837.233960126643069,9234799.722049530595541],[717466.221056382870302,9233304.829806303605437],[716657.806818887125701,9231993.792120261117816],[715488.705018029897474,9230991.018779551610351],[715213.17865431017708,9230874.630599036812782],[715337.138214235659689,9230750.542193781584501],[716042.488478417973965,9229380.565102824941278],[716297.187975130043924,9227860.866319742053747],[716308.537975129438564,9226860.866319712251425],[716041.578171550761908,9225494.139867752790451],[717161.738689656951465,9225327.693828087300062],[717254.938671844778582,9225292.645518885925412],[718690.672086913720705,9224458.0949597209692],[719773.883207748644054,9223199.342107629403472],[720385.080629298114218,9221655.242762755602598],[720456.841817524516955,9219996.129925480112433],[719981.250637664808892,9218405.023987906053662],[719802.984456868725829,9218157.488702049478889],[721074.738268493092619,9218411.775111490860581],[722644.722245840122923,9218222.040775328874588],[724076.926045901258476,9217551.48795672506094],[724545.866346812923439,9217109.784646928310394],[724736.222825861885212,9217065.632147131487727],[726065.329633990651928,9216270.947826253250241],[726100.436576287262142,9216230.996993230655789],[726133.550448672613129,9216268.169778559356928],[727430.630930251441896,9217044.880970306694508],[727735.245551932952367,9217169.304694887250662],[729102.225017854361795,9217513.050489893183112],[730510.823345808195882,9217461.623042736202478],[731849.096745745046064,9217019.109383221715689],[732313.783197117736563,9216788.436751941218972],[733984.907580408616923,9215445.865107281133533],[734108.965486252680421,9215291.808621257543564],[734250.120356834493577,9215032.603861324489117],[734753.405860266648233,9214496.686451325193048],[735430.635551565908827,9212984.946855779737234],[735576.778501535067335,9211334.904766105115414],[735559.341278820298612,9211112.029398711398244],[735509.98456336162053,9210700.948444789275527],[735459.549841161002405,9210390.221664482727647],[735441.185756540973671,9210393.20237797498703],[735298.670635569491424,9209419.699952157214284],[734594.446465916116722,9208006.879154972732067],[734277.435170951881446,9207686.077930280938745],[733558.268308539991267,9206010.4099962413311],[732776.528021628735587,9204747.987859532237053],[731658.51024834276177,9203770.816540852189064],[730698.346430082689039,9203341.803491102531552],[731681.142416085582227,9202907.679464217275381],[732821.126672734157182,9201906.759300431236625],[733608.467637064051814,9200610.03285064920783],[733970.685682986746542,9199136.87183878198266],[734168.061130700167269,9196920.112635057419538],[734110.755389492725953,9195602.521007580682635],[733935.512698349892162,9194615.605983646586537],[733926.524860403384082,9194564.365345373749733],[733924.456554702948779,9194558.440708052366972],[733924.165355852106586,9194551.019864566624165],[733879.602027634973638,9194300.944663630798459],[733407.92665823106654,9192899.842819703742862],[733288.54853473091498,9192733.150973564013839],[733404.127573548001237,9192759.120472041890025],[735983.553556817234494,9192922.146582711488008],[737695.760999765829183,9192733.028241133317351],[739242.169859356479719,9191974.055439388379455],[740439.226347836665809,9190735.315822601318359],[741144.843687022686936,9189163.843823025003076],[741592.098974911146797,9187404.254663620144129],[741730.458094504661858,9185776.166930243372917],[741336.53488928929437,9184190.406096465885639],[740452.397409674129449,9182816.319552361965179],[739172.464922076324001,9181800.649457922205329],[737633.424637849908322,9181251.861778508871794],[734992.98682313458994,9180775.769861565902829],[733463.261404519318603,9180737.873583476990461],[731993.711751756141894,9181164.394160136580467],[730721.975649269297719,9182015.383742848411202],[729767.16369613900315,9183211.138783987611532],[729218.703426523832604,9184639.66505847685039],[729172.271439378615469,9184854.393206175416708],[728771.841007869341411,9186558.348625196143985],[728644.513399292132817,9187931.655093161389232],[728812.644853633479215,9188833.725564198568463],[728383.346908205654472,9188670.807804929092526],[728237.871121785836294,9188662.129405729472637],[727133.260126922279596,9188144.052858505398035],[725689.487001365283504,9187932.251512603834271],[724246.048011859529652,9188146.318165263161063],[723656.27263242402114,9188324.67809602431953],[723471.718633771524765,9187655.302634436637163],[722528.589035032084212,9186285.93372200243175],[721188.569501906400546,9185301.549493562430143],[719599.848220184096135,9184811.009640581905842],[717938.116453047841787,9184868.561290862038732],[717937.162426812225021,9184868.75633916631341],[717590.198427313473076,9184952.698903296142817],[716029.635275848559104,9185389.77371464855969],[714685.677587869926356,9185991.335621673613787],[713575.219167438335717,9186958.279824590310454],[713314.520616265246645,9187375.203811964020133],[712683.393593339016661,9187243.258587466552854],[711210.224137482233346,9187377.464388558641076],[709840.796125588705763,9187936.84472693130374],[708694.975013242103159,9188872.437277788296342],[707873.054038535337895,9190102.350020242854953],[707795.43403853836935,9190266.950020249933004],[707342.316042544087395,9191905.231776308268309],[707464.223612685222179,9193600.643695244565606],[707994.527612685458735,9195743.609695311635733],[708051.999968934222125,9195955.747214667499065],[708775.37196894059889,9198410.693214746192098],[709064.728486843523569,9198992.058831876143813],[708825.390917063225061,9199172.911937393248081],[708539.534388134256005,9199309.424963979050517],[707509.325757315498777,9200098.717998098582029],[707074.007779599749483,9200227.47156073153019],[706340.090227347565815,9200766.104189584031701],[705626.241527285194024,9200029.947619637474418],[705611.480737408623099,9199821.882070954889059],[705004.146755095222034,9198348.3494972884655],[704013.476492259069346,9197198.264793023467064],[704872.17197344719898,9196462.293485345318913],[705655.455964885652065,9195244.573890781030059],[706031.30248573992867,9193942.474312547594309],[706208.006915460573509,9193786.71955257281661],[706993.075438456377015,9192487.530678497627378],[707352.109975318307988,9191012.63457447476685],[707252.018681636895053,9189497.970899183303118],[707178.895034268614836,9189168.451509511098266],[706585.137541797710583,9187685.451657127588987],[706475.704466906026937,9187309.10419244505465],[705605.702850513276644,9186023.051428753882647],[704383.125961682177149,9185065.899259859696031],[702925.871023262967356,9184529.94910548441112],[701374.466055860277265,9184466.884451027959585],[699878.518285689409822,9184882.78683433867991],[698927.213186677312478,9185315.706790491938591],[698735.890042226645164,9185347.639166675508022],[698020.894129355554469,9185464.603902412578464],[696349.375622280407697,9186056.676385207101703],[694989.634000120218843,9187194.932360522449017],[694112.698866437072866,9188736.200901592150331],[694102.654859733767807,9188764.683682195842266],[693539.036840158398263,9187785.33546513877809],[692300.286738711874932,9186703.042313810437918],[690777.361049671657383,9186081.304728562012315],[690198.940830542240292,9186048.23639590293169],[691632.165607700590044,9184261.257147876545787],[692363.157879058271646,9183016.979724189266562],[692593.317544404650107,9182082.663770705461502],[693906.396515525178984,9182492.532488567754626],[695457.206958206137642,9182478.774076316505671],[696929.201270924764685,9181990.47594365477562],[699134.068772245314904,9180853.732935067266226],[700478.005346456659026,9179842.622317805886269],[701410.658836356364191,9178443.098233118653297],[701826.50844572938513,9176813.503406718373299],[701678.504780173534527,9175138.210861871019006],[700983.393034770619124,9173606.763880338519812],[700885.367026413907297,9173461.953089270740747],[700849.508658213191666,9172871.978083262220025],[700269.30848827410955,9171511.32644953019917],[702295.16271871724166,9170481.97570594213903],[703579.049822214874439,9169546.587456595152617],[704504.745121450745501,9168255.694167235866189],[704978.815698955557309,9166739.589171171188354],[704953.412335683126003,9165151.297025287523866],[704431.09906144591514,9163651.128329740837216],[703455.309000658569857,9161841.666613364592195],[703381.166732529643923,9161709.044213799759746],[703150.640327263390645,9161311.01097197458148],[703139.735665419371799,9161292.276440689340234],[702936.880431820405647,9160945.496360827237368],[702933.181414806516841,9160939.183510977774858],[702656.740993765182793,9160468.192650832235813],[702514.723769240779802,9160162.492104725912213],[702667.349008110235445,9158919.58925118111074],[702316.385260599083267,9157291.96945028565824],[701450.440241909236647,9155869.836899170652032],[700592.751458466867916,9154880.463087426498532],[700086.982922485447489,9154461.444274784997106],[699489.636619391734712,9153480.980001520365477],[698368.429322981275618,9152141.491168020293117],[698318.278346052393317,9152098.673196475952864],[698279.083393355947919,9152037.749490074813366],[697716.951336695696227,9151402.365975404158235],[697549.914153223740868,9151211.43825033865869],[696403.670276653487235,9149782.646768242120743],[695955.100583545281552,9149293.842450801283121],[695506.84130104992073,9148866.16770588234067],[695407.64042523689568,9148757.160060305148363],[694154.805070401751436,9147761.088168229907751],[692651.417197946691886,9147211.924672115594149],[691051.529302357346751,9147165.942479314282537],[689519.082257262198254,9147627.853395495563745],[680874.232865547994152,9151841.233176156878471],[679528.950886375736445,9152493.965975409373641],[678232.728961855638772,9153401.113977888599038],[677300.456209996948019,9154646.952625561505556],[676571.107498285360634,9154687.69334701821208],[675088.840479576145299,9155000.335152387619019],[673768.235134044196457,9155742.535889768972993],[672730.51565884728916,9156846.165675528347492],[672070.938907731557265,9158209.917457418516278],[671850.05034372152295,9159708.606436328962445]],[[687308.176521883695386,9205065.05480445176363],[686942.700927790137939,9204922.969516817480326],[687185.644433381268755,9204900.710195429623127],[687308.176521883695386,9205065.05480445176363]]],[[[732944.763241551234387,9240810.801034262403846],[733458.789079571492039,9240709.817123223096132],[733523.737973125535063,9240713.632345855236053],[733704.316342464648187,9240661.581603839993477],[734419.371172411018051,9240521.104164781048894],[734679.333136284025386,9240380.538266360759735],[735146.117633803281933,9240245.990149959921837],[736520.346279448247515,9239265.020927073433995],[736886.8071761286119,9238895.463433662429452],[737868.743572529754601,9237390.552522165700793],[738323.363908521831036,9236853.516362436115742],[738521.269759338814765,9236644.469332667067647],[738528.212132206303068,9236640.004240998998284],[739939.571846272214316,9235273.365875435993075],[740333.427147030830383,9234702.275725414976478],[740385.701514064799994,9234641.536558913066983],[740432.690176924341358,9234586.129921710118651],[741253.781810389715247,9233603.557933293282986],[741246.315479907905683,9233639.967093424871564],[741306.256621747161262,9234378.539206819608808],[741075.697613800177351,9235465.661846622824669],[741293.054665770032443,9237135.596292678266764],[741328.168072653468698,9237249.657725047320127],[742084.251547720399685,9238748.177336476743221],[742532.327444601804018,9239179.391715163365006],[742572.632410888676532,9239261.141902100294828],[743441.162554056150839,9240247.951677544042468],[744536.871701352181844,9240974.284663876518607],[744713.031205281848088,9241060.150302750989795],[746139.001602384960279,9241506.809789538383484],[747633.279958417639136,9241512.145072422921658],[749062.403530646115541,9241075.679626079276204],[749338.242564112762921,9240943.656393812969327],[749403.890106074744835,9240899.502148780971766],[750240.482112918514758,9240813.881188653409481],[750513.463916477980092,9240699.644061781466007],[750542.772840230027214,9240692.593582848086953],[751884.111537976190448,9240155.166365817189217],[753015.749342966708355,9239256.604518199339509],[753843.171072872471996,9238071.956555064767599],[754297.269885097746737,9236700.165104292333126],[754314.735539370332845,9236601.18904191814363],[754350.400165599887259,9235097.881697110831738],[753937.478954861639068,9233651.956037804484367],[753113.319886393263005,9232394.193433661013842],[752363.787844250560738,9231777.03479115664959],[752328.863370268722065,9231608.257007889449596],[751542.870384918292984,9230239.063537118956447],[750369.155628223670647,9229183.189774144440889],[748924.737322145490907,9228545.905308237299323],[747353.622569756349549,9228390.746782058849931],[745812.449986845836975,9228733.183350061997771],[744395.626711395918392,9229294.452019687741995],[743169.868754155933857,9229994.324709767475724],[742584.053723575896583,9230599.976054498925805],[742531.491701918654144,9229235.964838044717908],[742053.82969836902339,9227852.11721526645124],[741195.826521757408045,9226665.936039548367262],[740031.036904793931171,9225779.110024526715279],[738536.530904774554074,9224955.252024497836828],[737140.130652099614963,9224438.61275265365839],[735653.511648587649688,9224356.067363442853093],[734208.498336035059765,9224714.935486057773232],[732933.225813525612466,9225483.394851420074701],[731940.777586665237322,9226593.303099829703569],[731894.815232502878644,9226693.3388408459723],[731893.062059149728157,9226693.35972610861063],[730449.885412453208119,9226924.170447742566466],[729135.10452875320334,9227562.436576131731272],[728061.055991907604039,9228553.623825490474701],[727319.507901850622147,9229813.043871752917767],[726973.819089119089767,9231233.090232806280255],[727053.525654200697318,9232692.43230589106679],[727764.392406143248081,9236177.032535443082452],[727756.911758349277079,9236341.586016969755292],[728137.835715061752126,9237795.301864426583052],[728933.519592533935793,9239070.166560413315892],[730072.08472034195438,9240051.014293590560555],[731450.678005825495347,9240649.23948460444808],[732944.763241551234387,9240810.801034262403846]]]]}}
]
}
