{
"type": "FeatureCollection",
"name": "Buffer de 5km-SBS",
"crs": { "type": "name", "properties": { "name": "urn:ogc:def:crs:EPSG::31982" } },
"features": [
{"type":"Feature","properties":{"fid":1,"id":null,"Name":"Santa Cruz FFA (B53)","description":null,"timestamp":null,"begin":null,"end":null,"altitudeMode":null,"tessellate":-1,"extrude":0,"visibility":-1,"drawOrder":null,"icon":null},"geometry":{"type":"MultiPolygon","coordinates":[[[[1224956.881492712302133,7703480.14754219353199],[1224332.530496007064357,7704921.695115946233273],[1224325.85250593861565,7704947.742486535571516],[1224271.378180293366313,7705221.009323150850832],[1224266.214117042021826,7705219.948774831369519],[1224250.079233607044443,7705298.513378672301769],[1224255.698114210972562,7705299.667333241552114],[1224219.929575508227572,7705479.097832028754056],[1224214.714431022992358,7705515.432306928560138],[1224257.839726297417656,7705521.622148571535945],[1224134.698074738960713,7706578.002559354528785],[1224448.553188279503956,7708122.475191541947424],[1224567.944784310879186,7708332.450658526271582],[1223374.943970148684457,7709905.915700455196202],[1223373.896490073064342,7709908.16782193724066],[1223250.291583228856325,7710337.66039418708533],[1223115.021850656718016,7710403.203556700609624],[1222712.295438664732501,7710800.014295933768153],[1222678.028988405363634,7710760.951035131700337],[1222623.584036617539823,7710808.710366892628372],[1222060.491666164016351,7711442.243683178909123],[1221956.269427557010204,7711544.934994984418154],[1221933.330066526308656,7711576.436781132593751],[1221938.119382454780862,7711579.924324558116496],[1221801.132853936869651,7711734.047403207980096],[1221231.245828374754637,7712833.093970359303057],[1221212.850109880091622,7712882.833411275409162],[1221142.869943575235084,7713312.584032486192882],[1221102.845905946800485,7713426.851712674833834],[1220895.643488013651222,7713912.277864014729857],[1220735.370741457911208,7715366.539854292757809],[1220794.973263415740803,7715686.978142441250384],[1220785.47365090623498,7715899.41377601865679],[1220953.070431015919894,7716536.948648435994983],[1221002.916968937264755,7716804.936289847828448],[1221029.262960684020072,7716881.669217544607818],[1221065.746284751454368,7716972.597318991087377],[1221095.5872949634213,7717116.684322452172637],[1221115.503731836099178,7717154.84174666274339],[1221167.616007522214204,7717353.075823768042028],[1221172.263876652112231,7717363.830099790357053],[1221460.694004850229248,7717816.183520034886897],[1221734.034315872238949,7718339.869672738015652],[1221884.387952130287886,7718498.729492819868028],[1221961.42919483827427,7718631.288671107962728],[1221963.616800949210301,7718656.671388929709792],[1221958.70088052470237,7718739.024001718498766],[1221959.319111054064706,7718744.128351955674589],[1221973.127419524593279,7718785.313763597048819],[1221992.998827063245699,7719204.112598471343517],[1221996.04200562578626,7719228.993618858978152],[1222073.889820130774751,7719505.98052941635251],[1222066.859578672796488,7719507.549121205694973],[1222079.30517197214067,7719563.328787120990455],[1222089.376144872279838,7719561.081745465286076],[1222107.346019915537909,7719625.019573431462049],[1222115.205230694497004,7719705.792904228903353],[1222125.433490653987974,7719743.031006555072963],[1222139.432707325555384,7719739.185815248638391],[1222406.472906839568168,7720689.329892231151462],[1223111.58133973646909,7721768.982275549322367],[1223110.950163704110309,7721769.490768872201443],[1223116.037585821002722,7721775.805618572048843],[1223235.930175571702421,7721959.383511315099895],[1223611.49305561138317,7722267.895941451191902],[1224021.191957199480385,7722666.299587827175856],[1224282.277956553269178,7722818.923454782925546],[1224408.069385120645165,7722922.256934687495232],[1224572.233551781624556,7722988.423712546937168],[1224601.412153698503971,7723005.480739993974566],[1225316.879834607243538,7723661.561509507708251],[1226641.521213501924649,7724296.919811972416937],[1226803.273349769413471,7724321.753149954602122],[1227187.442969666561112,7724446.357565990649164],[1227246.198443796718493,7724461.388175663538277],[1227364.871606837026775,7724490.207296038046479],[1227380.858178126392886,7724493.883397128432989],[1227609.883668538881466,7724540.938299076631665],[1227639.009402722120285,7724546.214585101231933],[1227658.204930526670069,7724549.678786517120898],[1229230.703803861513734,7724582.089867681264877],[1230735.470168126281351,7724124.398515568114817],[1232023.604190347250551,7723221.894263157621026],[1232070.045128172263503,7723176.944135335274041],[1232737.958694042172283,7722379.995967358350754],[1232757.598221071530133,7722350.876388892531395],[1233493.409335006959736,7720638.903589619323611],[1233501.277478797361255,7720603.468002682551742],[1233599.743081579916179,7719970.990295370109379],[1233602.89928887761198,7719936.167439403943717],[1233614.445994112640619,7719780.092751368880272],[1233718.870732,7719430.792469447478652],[1233722.069165889406577,7719409.301619417965412],[1233728.16164232022129,7719372.988417943008244],[1233710.726520256139338,7718445.727877314202487],[1233913.563329941127449,7718339.206247649155557],[1235034.095697140786797,7717161.963918216526508],[1235717.851806996623054,7715687.525085851550102],[1235719.774685919284821,7715680.603349767625332],[1235742.516162232728675,7715502.242558276280761],[1235833.279830676037818,7715287.497246936894953],[1235842.529680137755349,7715194.477035963907838],[1235897.985119793796912,7715062.785723225213587],[1235920.866798992967233,7714991.73377943597734],[1236161.329075118293986,7713508.599459336139262],[1235996.520476140547544,7712346.748684820719063],[1236244.771167137427256,7712033.645585156977177],[1236258.454939227318391,7712046.805317001417279],[1236322.937095766654238,7711979.755384345538914],[1236528.58500061952509,7711752.357255253940821],[1236537.618932933313772,7711741.730300490744412],[1236901.848839208018035,7711256.427600485272706],[1236912.488965341821313,7711240.297293931245804],[1237176.626536861294881,7710790.4452970251441],[1237192.642691318877041,7710759.586167706176639],[1237204.412997688399628,7710736.764592443592846],[1237215.088619146030396,7710715.934391864575446],[1237220.069438790902495,7710706.141872774809599],[1237458.741613589925691,7710536.0594094209373],[1238362.125492092920467,7709355.767991609871387],[1238362.895729780662805,7709354.371692566201091],[1238366.65051581361331,7709347.564956123940647],[1238373.930354155600071,7709334.367943413555622],[1238374.200428657932207,7709333.878347722813487],[1238376.363309538224712,7709329.957439779303968],[1238377.133393252501264,7709328.56141853518784],[1238480.108015701174736,7709116.298077784478664],[1238484.483987320913002,7709118.483438201248646],[1238528.505396697437391,7709030.334848794154823],[1238543.423146416665986,7708985.785521912388504],[1238605.801177575485781,7708857.204625295475125],[1238606.421118149766698,7708855.735317357815802],[1238609.753274059388787,7708847.837843897752464],[1238618.010762816062197,7708828.266929871402681],[1238598.873513177037239,7708820.192415645346045],[1238971.735644855070859,7707706.702961900271475],[1238990.862101100152358,7707262.531844805926085],[1239082.172249510185793,7706842.058573822490871],[1239082.346896894276142,7706840.075597861781716],[1239082.472439422970638,7706838.650166200473905],[1239082.612316571408883,7706837.061976523138583],[1238983.880625897552818,7705527.834771491587162],[1239024.076813471503556,7705520.690313245169818],[1239018.922264732653275,7705491.689764733426273],[1239011.204598236363381,7705445.430991658009589],[1238969.352715068962425,7705335.188054319471121],[1238960.494196789804846,7705217.72006558906287],[1238960.117706045741215,7705216.1707644443959],[1238959.833633896894753,7705215.001776145771146],[1238926.775717030279338,7705223.035076445899904],[1238887.066180085064843,7705118.435338946059346],[1238831.342496514786035,7704731.093068643473089],[1238828.861903202952817,7704721.321683817543089],[1238738.093719288473949,7704537.073269310407341],[1238706.876486880239099,7704307.635189694352448],[1237926.045814005890861,7702796.8301483085379],[1236683.995932233519852,7701635.132896882481873],[1236265.226116094505414,7701453.027761984616518],[1235858.71922247717157,7700567.681795838288963],[1235685.535624748561531,7700382.779354223050177],[1235677.368717928649858,7700363.274817317724228],[1235655.534325641579926,7700328.942541546188295],[1234812.448682120069861,7699323.943828199058771],[1233836.805450505111367,7698642.530041548423469],[1233842.622448417590931,7698632.35638417955488],[1233794.556001613615081,7698604.873404304496944],[1233751.790705165360123,7698583.153603864833713],[1233736.986233227420598,7698572.813788084313273],[1233661.314898818731308,7698533.600150494836271],[1233659.837111881002784,7698536.45186526607722],[1233353.669823423959315,7698380.95446530263871],[1233232.481232837308198,7698326.767282232642174],[1231702.487638564547524,7697917.436169284395874],[1230121.22831794177182,7698007.165314419195056],[1228647.362552853068337,7698586.951537989079952],[1228456.860567266819999,7698745.105808516964316],[1228131.868754888651893,7698868.707406309433281],[1228130.621629765024409,7698869.451492981985211],[1228083.36179262585938,7698897.648661267012358],[1227687.716849048621953,7699274.639081507921219],[1227467.559929486596957,7699372.713630084879696],[1227129.033680186839774,7699696.543077417649329],[1226894.409368723165244,7699859.177782576531172],[1226845.684583826456219,7699906.175167722627521],[1226876.494999016402289,7699938.118026842363179],[1226230.319418176310137,7700556.240496387705207],[1225464.911797226173803,7702087.792356390506029],[1225351.455108559923247,7703034.078459294512868],[1224956.881492712302133,7703480.14754219353199]]]]}}
]
}
