{
"type": "FeatureCollection",
"name": "Ponto central -CFB",
"crs": { "type": "name", "properties": { "name": "urn:ogc:def:crs:OGC:1.3:CRS84" } },
"features": [
{"type":"Feature","properties":{"fid":1,"id":null,"Name":"Malhada Grande (FRRC-Papagaio)","description":null,"timestamp":null,"begin":null,"end":null,"altitudeMode":null,"tessellate":-1,"extrude":0,"visibility":-1,"drawOrder":null,"icon":null,"COD":"A549","FAZENDA":"Malhada Grande (FRRC-Papagaio)","Municipio":"Nazaré do Piauí","Legenda":"Propriedades com Intenção de Compra","UF":"PI","FOCO":"Sim","FONTE":"Sem Previsão","EIA_RIMA":"Sim","ID2":2,"AREA_ha":531.414,"RECEBIDO":"","CAR":"-","RL_AVERBAD":"-","BLOCO":"Aguard Lim","AREA_RL":159.424,"x":-42.926188099513574,"Y":-7.147625751952523,"Nome":"CANTO DO BURITI","UF_2":"PI","Código":"A365","n":1,"distance":0.97169927573802051,"feature_x":-42.926188099513574,"feature_y":-7.147625751952523,"nearest_x":-42.975833,"nearest_y":-8.118056},"geometry":{"type":"Point","coordinates":[-42.926188099513574,-7.147625751952523]}},
{"type":"Feature","properties":{"fid":2,"id":null,"Name":"São Francisco (FFC)","description":null,"timestamp":null,"begin":null,"end":null,"altitudeMode":null,"tessellate":-1,"extrude":0,"visibility":-1,"drawOrder":null,"icon":null,"COD":"A001","FAZENDA":"São Francisco (FFC)","Municipio":"Itaueira","Legenda":"Propriedades Compradas","UF":"PI","FOCO":"Sim","FONTE":"DWG/SHP-Cliente","EIA_RIMA":"Sim","ID2":9,"AREA_ha":2534.5,"RECEBIDO":"05/04/2017","CAR":"OK -","RL_AVERBAD":"-","BLOCO":"Bloco 02","AREA_RL":760.351,"x":-43.304346076257161,"Y":-7.4540615748100825,"Nome":"CANTO DO BURITI","UF_2":"PI","Código":"A365","n":1,"distance":0.74081673709172524,"feature_x":-43.304346076257161,"feature_y":-7.4540615748100825,"nearest_x":-42.975833,"nearest_y":-8.118056},"geometry":{"type":"Point","coordinates":[-43.304346076257161,-7.454061574810082]}},
{"type":"Feature","properties":{"fid":3,"id":null,"Name":"São Francisco (MACF)","description":null,"timestamp":null,"begin":null,"end":null,"altitudeMode":null,"tessellate":-1,"extrude":0,"visibility":-1,"drawOrder":null,"icon":null,"COD":"A212","FAZENDA":"São Francisco (MACF)","Municipio":"Itaueira","Legenda":"Propriedades Compradas","UF":"PI","FOCO":"Sim","FONTE":"DWG/SHP-Cliente","EIA_RIMA":"Sim","ID2":17,"AREA_ha":6041.7,"RECEBIDO":"05/04/2017","CAR":"OK -","RL_AVERBAD":"-","BLOCO":"Bloco 02","AREA_RL":1812.51,"x":-43.230612776675628,"Y":-7.5672630225178885,"Nome":"CANTO DO BURITI","UF_2":"PI","Código":"A365","n":1,"distance":0.60686542053942316,"feature_x":-43.230612776675628,"feature_y":-7.5672630225178885,"nearest_x":-42.975833,"nearest_y":-8.118056},"geometry":{"type":"Point","coordinates":[-43.230612776675628,-7.567263022517889]}},
{"type":"Feature","properties":{"fid":4,"id":null,"Name":"Roçado","description":null,"timestamp":null,"begin":null,"end":null,"altitudeMode":null,"tessellate":-1,"extrude":0,"visibility":-1,"drawOrder":null,"icon":null,"COD":"A315","FAZENDA":"Roçado","Municipio":"Itaueira","Legenda":"Propriedades com Intenção de Compra","UF":"PI","FOCO":"Sim","FONTE":"GEO 15 dias 02/05 Aprox","EIA_RIMA":"Sim","ID2":23,"AREA_ha":528.057,"RECEBIDO":"","CAR":"-","RL_AVERBAD":"-","BLOCO":"Aguard Lim","AREA_RL":158.417,"x":-43.231090290685486,"Y":-7.4506512712891739,"Nome":"CANTO DO BURITI","UF_2":"PI","Código":"A365","n":1,"distance":0.71455255674699281,"feature_x":-43.231090290685486,"feature_y":-7.4506512712891739,"nearest_x":-42.975833,"nearest_y":-8.118056},"geometry":{"type":"Point","coordinates":[-43.231090290685486,-7.450651271289174]}},
{"type":"Feature","properties":{"fid":5,"id":null,"Name":"Santo Amaro","description":null,"timestamp":null,"begin":null,"end":null,"altitudeMode":null,"tessellate":-1,"extrude":0,"visibility":-1,"drawOrder":null,"icon":null,"COD":"A524","FAZENDA":"Santo Amaro","Municipio":"Floriano","Legenda":"Propriedades Compradas","UF":"PI","FOCO":"Sim","FONTE":"DWG/SHP-Cliente","EIA_RIMA":"Sim","ID2":26,"AREA_ha":726.851,"RECEBIDO":"05/04/2017","CAR":"OK -","RL_AVERBAD":"-","BLOCO":"Bloco 02","AREA_RL":218.055,"x":-43.035900117055604,"Y":-7.2350495522445932,"Nome":"CANTO DO BURITI","UF_2":"PI","Código":"A365","n":1,"distance":0.88504714299803944,"feature_x":-43.035900117055604,"feature_y":-7.2350495522445932,"nearest_x":-42.975833,"nearest_y":-8.118056},"geometry":{"type":"Point","coordinates":[-43.035900117055604,-7.235049552244593]}},
{"type":"Feature","properties":{"fid":6,"id":null,"Name":"Volta Data Jacaré","description":null,"timestamp":null,"begin":null,"end":null,"altitudeMode":null,"tessellate":-1,"extrude":0,"visibility":-1,"drawOrder":null,"icon":null,"COD":"A050","FAZENDA":"Volta Data Jacaré","Municipio":"Floriano","Legenda":"Propriedades Compradas","UF":"PI","FOCO":"Sim","FONTE":"DWG-Cliente","EIA_RIMA":"Sim","ID2":33,"AREA_ha":1855.26,"RECEBIDO":"15/09/2016","CAR":"OK -","RL_AVERBAD":"-","BLOCO":"Bloco 01","AREA_RL":556.578,"x":-43.07823715808739,"Y":-7.1839625146928929,"Nome":"CANTO DO BURITI","UF_2":"PI","Código":"A365","n":1,"distance":0.93968997594247228,"feature_x":-43.07823715808739,"feature_y":-7.1839625146928929,"nearest_x":-42.975833,"nearest_y":-8.118056},"geometry":{"type":"Point","coordinates":[-43.07823715808739,-7.183962514692893]}},
{"type":"Feature","properties":{"fid":7,"id":null,"Name":"Volta Data Capuame","description":null,"timestamp":null,"begin":null,"end":null,"altitudeMode":null,"tessellate":-1,"extrude":0,"visibility":-1,"drawOrder":null,"icon":null,"COD":"A546","FAZENDA":"Volta Data Capuame","Municipio":"Floriano","Legenda":"Propriedades Compradas","UF":"PI","FOCO":"Sim","FONTE":"DWG-Cliente","EIA_RIMA":"Sim","ID2":34,"AREA_ha":11.2469,"RECEBIDO":"15/09/2016","CAR":"OK -","RL_AVERBAD":"-","BLOCO":"Bloco 01","AREA_RL":3.3741,"x":-43.077285952906152,"Y":-7.1532486328327707,"Nome":"CANTO DO BURITI","UF_2":"PI","Código":"A365","n":1,"distance":0.97012677387727886,"feature_x":-43.077285952906152,"feature_y":-7.1532486328327707,"nearest_x":-42.975833,"nearest_y":-8.118056},"geometry":{"type":"Point","coordinates":[-43.077285952906152,-7.153248632832771]}},
{"type":"Feature","properties":{"fid":8,"id":null,"Name":"Uiquinha","description":null,"timestamp":null,"begin":null,"end":null,"altitudeMode":null,"tessellate":-1,"extrude":0,"visibility":-1,"drawOrder":null,"icon":null,"COD":"A062","FAZENDA":"Uiquinha","Municipio":"Floriano","Legenda":"Propriedades Compradas","UF":"PI","FOCO":"Sim","FONTE":"DWG-Cliente","EIA_RIMA":"Sim","ID2":35,"AREA_ha":71.9648,"RECEBIDO":"15/09/2016","CAR":"OK -","RL_AVERBAD":"-","BLOCO":"Bloco 01","AREA_RL":21.5894,"x":-43.096596097761307,"Y":-7.1855204285040797,"Nome":"CANTO DO BURITI","UF_2":"PI","Código":"A365","n":1,"distance":0.94032245420713412,"feature_x":-43.096596097761307,"feature_y":-7.1855204285040797,"nearest_x":-42.975833,"nearest_y":-8.118056},"geometry":{"type":"Point","coordinates":[-43.096596097761307,-7.18552042850408]}},
{"type":"Feature","properties":{"fid":9,"id":null,"Name":"Torta","description":null,"timestamp":null,"begin":null,"end":null,"altitudeMode":null,"tessellate":-1,"extrude":0,"visibility":-1,"drawOrder":null,"icon":null,"COD":"A010","FAZENDA":"Torta","Municipio":"Floriano","Legenda":"Propriedades Compradas","UF":"PI","FOCO":"Sim","FONTE":"DWG-Cliente","EIA_RIMA":"Sim","ID2":37,"AREA_ha":718.339,"RECEBIDO":"15/09/2016","CAR":"OK -","RL_AVERBAD":"-","BLOCO":"Bloco 01","AREA_RL":215.502,"x":-43.106338556924428,"Y":-7.121774844056505,"Nome":"CANTO DO BURITI","UF_2":"PI","Código":"A365","n":1,"distance":1.0047924373104427,"feature_x":-43.106338556924428,"feature_y":-7.121774844056505,"nearest_x":-42.975833,"nearest_y":-8.118056},"geometry":{"type":"Point","coordinates":[-43.106338556924428,-7.121774844056505]}},
{"type":"Feature","properties":{"fid":10,"id":null,"Name":"Ihéu - Menor/Maior","description":null,"timestamp":null,"begin":null,"end":null,"altitudeMode":null,"tessellate":-1,"extrude":0,"visibility":-1,"drawOrder":null,"icon":null,"COD":"A219","FAZENDA":"Ihéu - Menor/Maior","Municipio":"Floriano","Legenda":"Propriedades Compradas","UF":"PI","FOCO":"Sim","FONTE":"DWG-Cliente","EIA_RIMA":"Sim","ID2":39,"AREA_ha":752.392,"RECEBIDO":"15/09/2016","CAR":"OK -","RL_AVERBAD":"-","BLOCO":"Bloco 02","AREA_RL":225.718,"x":-43.197219245235857,"Y":-7.2214478854716653,"Nome":"CANTO DO BURITI","UF_2":"PI","Código":"A365","n":1,"distance":0.92353558708784167,"feature_x":-43.197219245235857,"feature_y":-7.2214478854716653,"nearest_x":-42.975833,"nearest_y":-8.118056},"geometry":{"type":"Point","coordinates":[-43.197219245235857,-7.221447885471665]}},
{"type":"Feature","properties":{"fid":11,"id":null,"Name":"Faveira","description":null,"timestamp":null,"begin":null,"end":null,"altitudeMode":null,"tessellate":-1,"extrude":0,"visibility":-1,"drawOrder":null,"icon":null,"COD":"A559","FAZENDA":"Faveira","Municipio":"Floriano","Legenda":"Propriedades Compradas","UF":"PI","FOCO":"Sim","FONTE":"DWG-Cliente","EIA_RIMA":"Sim","ID2":41,"AREA_ha":64.2213,"RECEBIDO":"15/09/2016","CAR":"OK -","RL_AVERBAD":"-","BLOCO":"Bloco 01","AREA_RL":19.2664,"x":-43.315558562284821,"Y":-7.1427948022917178,"Nome":"CANTO DO BURITI","UF_2":"PI","Código":"A365","n":1,"distance":1.0327380410467739,"feature_x":-43.315558562284821,"feature_y":-7.1427948022917178,"nearest_x":-42.975833,"nearest_y":-8.118056},"geometry":{"type":"Point","coordinates":[-43.315558562284821,-7.142794802291718]}},
{"type":"Feature","properties":{"fid":12,"id":null,"Name":"Areia","description":null,"timestamp":null,"begin":null,"end":null,"altitudeMode":null,"tessellate":-1,"extrude":0,"visibility":-1,"drawOrder":null,"icon":null,"COD":"A569","FAZENDA":"Areia","Municipio":"Jerumenha/Floriano","Legenda":"Propriedades Compradas","UF":"PI","FOCO":"Sim","FONTE":"DWG/SHP-Cliente","EIA_RIMA":"Sim","ID2":43,"AREA_ha":239.093,"RECEBIDO":"15/09/2016 - 05/04/2017","CAR":"OK -","RL_AVERBAD":"-","BLOCO":"Bloco 02","AREA_RL":71.728,"x":-43.319527417136904,"Y":-7.0325710454909878,"Nome":"CANTO DO BURITI","UF_2":"PI","Código":"A365","n":1,"distance":1.1385971363201761,"feature_x":-43.319527417136904,"feature_y":-7.0325710454909878,"nearest_x":-42.975833,"nearest_y":-8.118056},"geometry":{"type":"Point","coordinates":[-43.319527417136904,-7.032571045490988]}},
{"type":"Feature","properties":{"fid":13,"id":null,"Name":"Umbaúba","description":null,"timestamp":null,"begin":null,"end":null,"altitudeMode":null,"tessellate":-1,"extrude":0,"visibility":-1,"drawOrder":null,"icon":null,"COD":"A003","FAZENDA":"Umbaúba","Municipio":"Jerumenha","Legenda":"Propriedades Compradas","UF":"PI","FOCO":"Sim","FONTE":"SHP-Cliente","EIA_RIMA":"Sim","ID2":52,"AREA_ha":3868.11,"RECEBIDO":"05/04/2017","CAR":"OK -","RL_AVERBAD":"Sim","BLOCO":"Bloco 02","AREA_RL":773.623,"x":-43.31794960751359,"Y":-7.2703000391447947,"Nome":"CANTO DO BURITI","UF_2":"PI","Código":"A365","n":1,"distance":0.91418485127578986,"feature_x":-43.31794960751359,"feature_y":-7.2703000391447947,"nearest_x":-42.975833,"nearest_y":-8.118056},"geometry":{"type":"Point","coordinates":[-43.31794960751359,-7.270300039144795]}},
{"type":"Feature","properties":{"fid":14,"id":null,"Name":"Morro da Uíca","description":null,"timestamp":null,"begin":null,"end":null,"altitudeMode":null,"tessellate":-1,"extrude":0,"visibility":-1,"drawOrder":null,"icon":null,"COD":"A003","FAZENDA":"Morro da Uíca","Municipio":"Jerumenha/Floriano","Legenda":"Propriedades Compradas","UF":"PI","FOCO":"Sim","FONTE":"SHP-Cliente","EIA_RIMA":"Sim","ID2":53,"AREA_ha":2228.39,"RECEBIDO":"05/04/2017","CAR":"OK -","RL_AVERBAD":"Sim","BLOCO":"Bloco 02","AREA_RL":445.678,"x":-43.270561370045883,"Y":-7.253133832137296,"Nome":"CANTO DO BURITI","UF_2":"PI","Código":"A365","n":1,"distance":0.91375881312861762,"feature_x":-43.270561370045883,"feature_y":-7.253133832137296,"nearest_x":-42.975833,"nearest_y":-8.118056},"geometry":{"type":"Point","coordinates":[-43.270561370045883,-7.253133832137296]}},
{"type":"Feature","properties":{"fid":15,"id":null,"Name":"Barra da Uica","description":null,"timestamp":null,"begin":null,"end":null,"altitudeMode":null,"tessellate":-1,"extrude":0,"visibility":-1,"drawOrder":null,"icon":null,"COD":"A563","FAZENDA":"Barra da Uica","Municipio":"Floriano","Legenda":"Propriedades Compradas","UF":"PI","FOCO":"Sim","FONTE":"DWG/SHP-Cliente","EIA_RIMA":"Sim","ID2":54,"AREA_ha":171.517,"RECEBIDO":"15/09/2016 - 05/04/2017","CAR":"OK -","RL_AVERBAD":"-","BLOCO":"Bloco 02","AREA_RL":51.4552,"x":-43.092279113987175,"Y":-6.9865928533263446,"Nome":"CANTO DO BURITI","UF_2":"PI","Código":"A365","n":1,"distance":1.1374394708042102,"feature_x":-43.092279113987175,"feature_y":-6.9865928533263446,"nearest_x":-42.975833,"nearest_y":-8.118056},"geometry":{"type":"Point","coordinates":[-43.092279113987175,-6.986592853326345]}},
{"type":"Feature","properties":{"fid":16,"id":null,"Name":"Onça","description":null,"timestamp":null,"begin":null,"end":null,"altitudeMode":null,"tessellate":-1,"extrude":0,"visibility":-1,"drawOrder":null,"icon":null,"COD":"A548","FAZENDA":"Onça","Municipio":"Floriano","Legenda":"Propriedades Compradas","UF":"PI","FOCO":"Sim","FONTE":"DWG/SHP-Cliente","EIA_RIMA":"Sim","ID2":36,"AREA_ha":627.564,"RECEBIDO":"15/09/2016 - 05/04/2017","CAR":"OK -","RL_AVERBAD":"-","BLOCO":"Bloco 01","AREA_RL":188.269,"x":-43.111299886117791,"Y":-7.1509273435866199,"Nome":"CANTO DO BURITI","UF_2":"PI","Código":"A365","n":1,"distance":0.97657007699928977,"feature_x":-43.111299886117791,"feature_y":-7.1509273435866199,"nearest_x":-42.975833,"nearest_y":-8.118056},"geometry":{"type":"Point","coordinates":[-43.111299886117791,-7.15092734358662]}},
{"type":"Feature","properties":{"fid":17,"id":null,"Name":"Araçás dos Penhas","description":null,"timestamp":null,"begin":null,"end":null,"altitudeMode":null,"tessellate":-1,"extrude":0,"visibility":-1,"drawOrder":null,"icon":null,"COD":"A558","FAZENDA":"Araçás dos Penhas","Municipio":"Floriano","Legenda":"Propriedades Compradas","UF":"PI","FOCO":"Sim","FONTE":"DWG/SHP-Cliente","EIA_RIMA":"Sim","ID2":40,"AREA_ha":334.511,"RECEBIDO":"15/09/2016 - 05/04/2017","CAR":"OK -","RL_AVERBAD":"-","BLOCO":"Bloco 02","AREA_RL":100.353,"x":-43.261015225504188,"Y":-7.22478876633601,"Nome":"CANTO DO BURITI","UF_2":"PI","Código":"A365","n":1,"distance":0.93768611618240194,"feature_x":-43.261015225504188,"feature_y":-7.22478876633601,"nearest_x":-42.975833,"nearest_y":-8.118056},"geometry":{"type":"Point","coordinates":[-43.261015225504188,-7.22478876633601]}},
{"type":"Feature","properties":{"fid":18,"id":null,"Name":"Araçás","description":null,"timestamp":null,"begin":null,"end":null,"altitudeMode":null,"tessellate":-1,"extrude":0,"visibility":-1,"drawOrder":null,"icon":null,"COD":"A009","FAZENDA":"Araçás","Municipio":"Floriano","Legenda":"Propriedades Compradas","UF":"PI","FOCO":"Sim","FONTE":"DWG/SHP-Cliente","EIA_RIMA":"Sim","ID2":32,"AREA_ha":1263.76,"RECEBIDO":"15/09/2016 - 05/04/2017","CAR":"OK -","RL_AVERBAD":"-","BLOCO":"Bloco 01","AREA_RL":379.128,"x":-43.036459947787208,"Y":-7.1949642980858783,"Nome":"CANTO DO BURITI","UF_2":"PI","Código":"A365","n":1,"distance":0.92508049214146815,"feature_x":-43.036459947787208,"feature_y":-7.1949642980858783,"nearest_x":-42.975833,"nearest_y":-8.118056},"geometry":{"type":"Point","coordinates":[-43.036459947787208,-7.194964298085878]}},
{"type":"Feature","properties":{"fid":19,"id":null,"Name":"Boqueirão","description":null,"timestamp":null,"begin":null,"end":null,"altitudeMode":null,"tessellate":-1,"extrude":0,"visibility":-1,"drawOrder":null,"icon":null,"COD":"A522","FAZENDA":"Boqueirão","Municipio":"Floriano","Legenda":"Propriedades Compradas","UF":"PI","FOCO":"Sim","FONTE":"DWG/SHP-Cliente","EIA_RIMA":"Sim","ID2":30,"AREA_ha":5910.58,"RECEBIDO":"15/09/2016 - 05/04/2017","CAR":"OK -","RL_AVERBAD":"-","BLOCO":"Bloco 01","AREA_RL":1773.17,"x":-42.995113410277895,"Y":-7.2427253528038129,"Nome":"CANTO DO BURITI","UF_2":"PI","Código":"A365","n":1,"distance":0.87554296076285043,"feature_x":-42.995113410277895,"feature_y":-7.2427253528038129,"nearest_x":-42.975833,"nearest_y":-8.118056},"geometry":{"type":"Point","coordinates":[-42.995113410277895,-7.242725352803813]}},
{"type":"Feature","properties":{"fid":20,"id":null,"Name":"Estreito","description":null,"timestamp":null,"begin":null,"end":null,"altitudeMode":null,"tessellate":-1,"extrude":0,"visibility":-1,"drawOrder":null,"icon":null,"COD":"A523","FAZENDA":"Estreito","Municipio":"Floriano","Legenda":"Propriedades Compradas","UF":"PI","FOCO":"Sim","FONTE":"DWG/SHP-Cliente","EIA_RIMA":"Sim","ID2":31,"AREA_ha":1334.79,"RECEBIDO":"15/09/2016 - 05/04/2017","CAR":"OK -","RL_AVERBAD":"-","BLOCO":"Bloco 01","AREA_RL":400.437,"x":-43.057649338789957,"Y":-7.284758305909822,"Nome":"CANTO DO BURITI","UF_2":"PI","Código":"A365","n":1,"distance":0.83730458034636324,"feature_x":-43.057649338789957,"feature_y":-7.284758305909822,"nearest_x":-42.975833,"nearest_y":-8.118056},"geometry":{"type":"Point","coordinates":[-43.057649338789957,-7.284758305909822]}},
{"type":"Feature","properties":{"fid":21,"id":null,"Name":"Barra da Uica","description":null,"timestamp":null,"begin":null,"end":null,"altitudeMode":null,"tessellate":-1,"extrude":0,"visibility":-1,"drawOrder":null,"icon":null,"COD":"A563","FAZENDA":"Barra da Uica","Municipio":"Floriano","Legenda":"Propriedades Compradas","UF":"PI","FOCO":"Sim","FONTE":"DWG/SHP-Cliente","EIA_RIMA":"Sim","ID2":54,"AREA_ha":42.8125,"RECEBIDO":"15/09/2016 - 11/04/2017","CAR":"OK -","RL_AVERBAD":"-","BLOCO":"Bloco 02","AREA_RL":12.8438,"x":-43.099443195212999,"Y":-6.9866443049999658,"Nome":"CANTO DO BURITI","UF_2":"PI","Código":"A365","n":1,"distance":1.1381440611554603,"feature_x":-43.099443195212999,"feature_y":-6.9866443049999658,"nearest_x":-42.975833,"nearest_y":-8.118056},"geometry":{"type":"Point","coordinates":[-43.099443195212999,-6.986644304999966]}},
{"type":"Feature","properties":{"fid":22,"id":null,"Name":"Vereda do Estocado","description":null,"timestamp":null,"begin":null,"end":null,"altitudeMode":null,"tessellate":-1,"extrude":0,"visibility":-1,"drawOrder":null,"icon":null,"COD":"A013","FAZENDA":"Vereda do Estocado","Municipio":"Floriano","Legenda":"Propriedades Compradas","UF":"PI","FOCO":"Sim","FONTE":"DWG/SHP-Cliente","EIA_RIMA":"Sim","ID2":44,"AREA_ha":2398.54,"RECEBIDO":"15/09/2016 - 11/04/2017","CAR":"OK -","RL_AVERBAD":"-","BLOCO":"Bloco 02","AREA_RL":719.562,"x":-43.186159739895558,"Y":-7.0569255549999639,"Nome":"CANTO DO BURITI","UF_2":"PI","Código":"A365","n":1,"distance":1.0817740793812107,"feature_x":-43.186159739895558,"feature_y":-7.0569255549999639,"nearest_x":-42.975833,"nearest_y":-8.118056},"geometry":{"type":"Point","coordinates":[-43.186159739895558,-7.056925554999964]}},
{"type":"Feature","properties":{"fid":23,"id":null,"Name":"Arrojado","description":null,"timestamp":null,"begin":null,"end":null,"altitudeMode":null,"tessellate":-1,"extrude":0,"visibility":-1,"drawOrder":null,"icon":null,"COD":"A013","FAZENDA":"Arrojado","Municipio":"Floriano","Legenda":"Propriedades Compradas","UF":"PI","FOCO":"Sim","FONTE":"DWG/SHP-Cliente","EIA_RIMA":"Sim","ID2":45,"AREA_ha":131.207,"RECEBIDO":"15/09/2016 - 11/04/2017","CAR":"OK -","RL_AVERBAD":"-","BLOCO":"Bloco 02","AREA_RL":39.3622,"x":-43.17718901536297,"Y":-7.0768127749999765,"Nome":"CANTO DO BURITI","UF_2":"PI","Código":"A365","n":1,"distance":1.0605336857126697,"feature_x":-43.17718901536297,"feature_y":-7.0768127749999765,"nearest_x":-42.975833,"nearest_y":-8.118056},"geometry":{"type":"Point","coordinates":[-43.17718901536297,-7.076812774999977]}},
{"type":"Feature","properties":{"fid":24,"id":null,"Name":"Vereda da Serra","description":null,"timestamp":null,"begin":null,"end":null,"altitudeMode":null,"tessellate":-1,"extrude":0,"visibility":-1,"drawOrder":null,"icon":null,"COD":"A013","FAZENDA":"Vereda da Serra","Municipio":"Floriano","Legenda":"Propriedades Compradas","UF":"PI","FOCO":"Sim","FONTE":"DWG/SHP-Cliente","EIA_RIMA":"Sim","ID2":46,"AREA_ha":173.161,"RECEBIDO":"15/09/2016 - 11/04/2017","CAR":"OK -","RL_AVERBAD":"-","BLOCO":"Bloco 02","AREA_RL":51.9483,"x":-43.216215646675359,"Y":-7.0711566699999739,"Nome":"CANTO DO BURITI","UF_2":"PI","Código":"A365","n":1,"distance":1.0741424598148757,"feature_x":-43.216215646675359,"feature_y":-7.0711566699999739,"nearest_x":-42.975833,"nearest_y":-8.118056},"geometry":{"type":"Point","coordinates":[-43.216215646675359,-7.071156669999974]}},
{"type":"Feature","properties":{"fid":25,"id":null,"Name":"Francisca","description":null,"timestamp":null,"begin":null,"end":null,"altitudeMode":null,"tessellate":-1,"extrude":0,"visibility":-1,"drawOrder":null,"icon":null,"COD":"A560","FAZENDA":"Francisca","Municipio":"Jerumenha","Legenda":"Propriedades Compradas","UF":"PI","FOCO":"Sim","FONTE":"DWG/SHP-Cliente","EIA_RIMA":"Sim","ID2":42,"AREA_ha":226.469,"RECEBIDO":"15/09/2016 - 11/04/2017","CAR":"OK -","RL_AVERBAD":"-","BLOCO":"Bloco 02","AREA_RL":67.9406,"x":-43.369533028835512,"Y":-7.1607605549999933,"Nome":"CANTO DO BURITI","UF_2":"PI","Código":"A365","n":1,"distance":1.035091436406872,"feature_x":-43.369533028835512,"feature_y":-7.1607605549999933,"nearest_x":-42.975833,"nearest_y":-8.118056},"geometry":{"type":"Point","coordinates":[-43.369533028835512,-7.160760555]}},
{"type":"Feature","properties":{"fid":26,"id":null,"Name":"Malhada Grande (Pico)","description":null,"timestamp":null,"begin":null,"end":null,"altitudeMode":null,"tessellate":-1,"extrude":0,"visibility":-1,"drawOrder":null,"icon":null,"COD":"A564","FAZENDA":"Malhada Grande (Pico)","Municipio":"Floriano","Legenda":"Propriedades Compradas","UF":"PI","FOCO":"Sim","FONTE":"DWG/SHP-Cliente","EIA_RIMA":"Sim","ID2":47,"AREA_ha":240.163,"RECEBIDO":"15/09/2016 - 11/04/2017","CAR":"OK -","RL_AVERBAD":"-","BLOCO":"Bloco 02","AREA_RL":72.049,"x":-43.068364061506301,"Y":-7.0616838899999657,"Nome":"CANTO DO BURITI","UF_2":"PI","Código":"A365","n":1,"distance":1.0604169142980537,"feature_x":-43.068364061506301,"feature_y":-7.0616838899999657,"nearest_x":-42.975833,"nearest_y":-8.118056},"geometry":{"type":"Point","coordinates":[-43.068364061506301,-7.061683889999966]}},
{"type":"Feature","properties":{"fid":27,"id":null,"Name":"Vereda do Buriti","description":null,"timestamp":null,"begin":null,"end":null,"altitudeMode":null,"tessellate":-1,"extrude":0,"visibility":-1,"drawOrder":null,"icon":null,"COD":"A584","FAZENDA":"Vereda do Buriti","Municipio":"Floriano","Legenda":"Propriedades Compradas","UF":"PI","FOCO":"Sim","FONTE":"DWG/SHP-Cliente","EIA_RIMA":"Sim","ID2":48,"AREA_ha":282.079,"RECEBIDO":"15/09/2016 - 11/05/2017","CAR":"OK -","RL_AVERBAD":"-","BLOCO":"Bloco 02","AREA_RL":84.6237,"x":-43.074865806109607,"Y":-7.0810501399999879,"Nome":"CANTO DO BURITI","UF_2":"PI","Código":"A365","n":1,"distance":1.0417238839348486,"feature_x":-43.074865806109607,"feature_y":-7.0810501399999879,"nearest_x":-42.975833,"nearest_y":-8.118056},"geometry":{"type":"Point","coordinates":[-43.074865806109607,-7.081050139999988]}},
{"type":"Feature","properties":{"fid":28,"id":null,"Name":"Iéu (GMFC)","description":null,"timestamp":null,"begin":null,"end":null,"altitudeMode":null,"tessellate":-1,"extrude":0,"visibility":-1,"drawOrder":null,"icon":null,"COD":"A218","FAZENDA":"Iéu (GMFC)","Municipio":"Floriano","Legenda":"Propriedades Compradas","UF":"PI","FOCO":"Sim","FONTE":"SHP-Cliente","EIA_RIMA":"Sim","ID2":20,"AREA_ha":501.366,"RECEBIDO":"11/04/2017","CAR":"OK -","RL_AVERBAD":"-","BLOCO":"Bloco 02","AREA_RL":150.41,"x":-43.203584716712349,"Y":-7.1967637120397594,"Nome":"CANTO DO BURITI","UF_2":"PI","Código":"A365","n":1,"distance":0.94902598716812547,"feature_x":-43.203584716712349,"feature_y":-7.1967637120397594,"nearest_x":-42.975833,"nearest_y":-8.118056},"geometry":{"type":"Point","coordinates":[-43.203584716712349,-7.196763712039759]}},
{"type":"Feature","properties":{"fid":29,"id":null,"Name":"Uica (JGB)","description":null,"timestamp":null,"begin":null,"end":null,"altitudeMode":null,"tessellate":-1,"extrude":0,"visibility":-1,"drawOrder":null,"icon":null,"COD":"A209","FAZENDA":"Uica (JGB)","Municipio":"Itaueira","Legenda":"Propriedades Compradas","UF":"PI","FOCO":"Sim","FONTE":"SHP-Cliente","EIA_RIMA":"Sim","ID2":14,"AREA_ha":412.737,"RECEBIDO":"11/04/2017","CAR":"OK -","RL_AVERBAD":"-","BLOCO":"Bloco 02","AREA_RL":123.821,"x":-43.182009792209584,"Y":-7.3179734749999739,"Nome":"CANTO DO BURITI","UF_2":"PI","Código":"A365","n":1,"distance":0.82622086421019991,"feature_x":-43.182009792209584,"feature_y":-7.3179734749999739,"nearest_x":-42.975833,"nearest_y":-8.118056},"geometry":{"type":"Point","coordinates":[-43.182009792209584,-7.317973474999974]}},
{"type":"Feature","properties":{"fid":30,"id":null,"Name":"Uica (Iraci)","description":null,"timestamp":null,"begin":null,"end":null,"altitudeMode":null,"tessellate":-1,"extrude":0,"visibility":-1,"drawOrder":null,"icon":null,"COD":"A044","FAZENDA":"Uica (Iraci)","Municipio":"Itaueira","Legenda":"Propriedades Compradas","UF":"PI","FOCO":"Sim","FONTE":"SHP-Cliente","EIA_RIMA":"Sim","ID2":12,"AREA_ha":900.713,"RECEBIDO":"11/04/2017","CAR":"OK -","RL_AVERBAD":"-","BLOCO":"Bloco 02","AREA_RL":270.214,"x":-43.191499425288342,"Y":-7.3020987499999821,"Nome":"CANTO DO BURITI","UF_2":"PI","Código":"A365","n":1,"distance":0.84397763052360675,"feature_x":-43.191499425288342,"feature_y":-7.3020987499999821,"nearest_x":-42.975833,"nearest_y":-8.118056},"geometry":{"type":"Point","coordinates":[-43.191499425288342,-7.302098749999982]}},
{"type":"Feature","properties":{"fid":31,"id":null,"Name":"São José","description":null,"timestamp":null,"begin":null,"end":null,"altitudeMode":null,"tessellate":-1,"extrude":0,"visibility":-1,"drawOrder":null,"icon":null,"COD":"A585","FAZENDA":"São José","Municipio":"Floriano","Legenda":"Propriedades Compradas","UF":"PI","FOCO":"Sim","FONTE":"DWG/SHP-Cliente","EIA_RIMA":"Sim","ID2":50,"AREA_ha":276.717,"RECEBIDO":"15/09/2016 - 11/04/2017","CAR":"OK -","RL_AVERBAD":"-","BLOCO":"Bloco 02","AREA_RL":83.0152,"x":-43.168697334182554,"Y":-6.8668658299999725,"Nome":"CANTO DO BURITI","UF_2":"PI","Código":"A365","n":1,"distance":1.2659674138398567,"feature_x":-43.168697334182554,"feature_y":-6.8668658299999725,"nearest_x":-42.975833,"nearest_y":-8.118056},"geometry":{"type":"Point","coordinates":[-43.168697334182554,-6.866865829999973]}},
{"type":"Feature","properties":{"fid":32,"id":null,"Name":"Ponta D'Água","description":null,"timestamp":null,"begin":null,"end":null,"altitudeMode":null,"tessellate":-1,"extrude":0,"visibility":-1,"drawOrder":null,"icon":null,"COD":"A324","FAZENDA":"Ponta D'Água","Municipio":"Nazaré do Piauí","Legenda":"Propriedades Compradas","UF":"PI","FOCO":"Sim","FONTE":"DWG/SHP-Cliente","EIA_RIMA":"Sim","ID2":51,"AREA_ha":489.511,"RECEBIDO":"15/09/2016 - 11/04/2017","CAR":"OK -","RL_AVERBAD":"-","BLOCO":"Bloco 02","AREA_RL":146.853,"x":-42.76199131662456,"Y":-6.9164151399999216,"Nome":"VALENCA DO PIAUI","UF_2":"PI","Código":"A363","n":1,"distance":1.1266020700988946,"feature_x":-42.76199131662456,"feature_y":-6.9164151399999216,"nearest_x":-41.748889,"nearest_y":-6.423611},"geometry":{"type":"Point","coordinates":[-42.76199131662456,-6.916415139999922]}},
{"type":"Feature","properties":{"fid":33,"id":null,"Name":"Roncadeira","description":null,"timestamp":null,"begin":null,"end":null,"altitudeMode":null,"tessellate":-1,"extrude":0,"visibility":-1,"drawOrder":null,"icon":null,"COD":"A561","FAZENDA":"Roncadeira","Municipio":"Floriano","Legenda":"Propriedades Compradas","UF":"PI","FOCO":"Sim","FONTE":"DWG/SHP-Cliente","EIA_RIMA":"Sim","ID2":28,"AREA_ha":522.599,"RECEBIDO":"15/09/2016 - 11/04/2017","CAR":"OK -","RL_AVERBAD":"-","BLOCO":"Bloco 02","AREA_RL":156.78,"x":-42.86952958729303,"Y":-7.3505655549999318,"Nome":"CANTO DO BURITI","UF_2":"PI","Código":"A365","n":1,"distance":0.77481739701658103,"feature_x":-42.86952958729303,"feature_y":-7.3505655549999318,"nearest_x":-42.975833,"nearest_y":-8.118056},"geometry":{"type":"Point","coordinates":[-42.86952958729303,-7.350565554999932]}},
{"type":"Feature","properties":{"fid":34,"id":null,"Name":"Francisca","description":null,"timestamp":null,"begin":null,"end":null,"altitudeMode":null,"tessellate":-1,"extrude":0,"visibility":-1,"drawOrder":null,"icon":null,"COD":"A560","FAZENDA":"Francisca","Municipio":"Jerumenha","Legenda":"Propriedades Compradas","UF":"PI","FOCO":"Sim","FONTE":"DWG/SHP-Cliente","EIA_RIMA":"Sim","ID2":42,"AREA_ha":76.9421,"RECEBIDO":"15/09/2016 - 11/04/2017","CAR":"OK -","RL_AVERBAD":"-","BLOCO":"Bloco 02","AREA_RL":23.0826,"x":-43.357745091157625,"Y":-7.1504094449999833,"Nome":"CANTO DO BURITI","UF_2":"PI","Código":"A365","n":1,"distance":1.0402868358177892,"feature_x":-43.357745091157625,"feature_y":-7.1504094449999833,"nearest_x":-42.975833,"nearest_y":-8.118056},"geometry":{"type":"Point","coordinates":[-43.357745091157625,-7.150409444999983]}},
{"type":"Feature","properties":{"fid":35,"id":null,"Name":"Rio Bonito","description":null,"timestamp":null,"begin":null,"end":null,"altitudeMode":null,"tessellate":-1,"extrude":0,"visibility":-1,"drawOrder":null,"icon":null,"COD":"A583","FAZENDA":"Rio Bonito","Municipio":"Floriano","Legenda":"Propriedades Compradas","UF":"PI","FOCO":"Não","FONTE":"ImóveisCertificados -Lei 10267","EIA_RIMA":"Não","ID2":27,"AREA_ha":399.136,"RECEBIDO":"","CAR":"OK -","RL_AVERBAD":"-","BLOCO":"Bloco 02","AREA_RL":119.741,"x":-43.192090558128356,"Y":-6.8203585834531859,"Nome":"CANTO DO BURITI","UF_2":"PI","Código":"A365","n":1,"distance":1.3155933704454095,"feature_x":-43.192090558128356,"feature_y":-6.8203585834531859,"nearest_x":-42.975833,"nearest_y":-8.118056},"geometry":{"type":"Point","coordinates":[-43.192090558128356,-6.820358583453186]}},
{"type":"Feature","properties":{"fid":36,"id":null,"Name":"Cajueiro","description":null,"timestamp":null,"begin":null,"end":null,"altitudeMode":null,"tessellate":-1,"extrude":0,"visibility":-1,"drawOrder":null,"icon":null,"COD":"A304","FAZENDA":"Cajueiro","Municipio":"Floriano","Legenda":"Propriedades Compradas","UF":"PI","FOCO":"Não","FONTE":"ImóveisCertificados -Lei 10267","EIA_RIMA":"Não","ID2":22,"AREA_ha":2247.95,"RECEBIDO":"","CAR":"OK -","RL_AVERBAD":"-","BLOCO":"Bloco 02","AREA_RL":674.385,"x":-43.208864205991652,"Y":-6.8112118007065492,"Nome":"CANTO DO BURITI","UF_2":"PI","Código":"A365","n":1,"distance":1.3274582118442984,"feature_x":-43.208864205991652,"feature_y":-6.8112118007065492,"nearest_x":-42.975833,"nearest_y":-8.118056},"geometry":{"type":"Point","coordinates":[-43.208864205991652,-6.811211800706549]}},
{"type":"Feature","properties":{"fid":37,"id":null,"Name":"Iéu (FFC)","description":null,"timestamp":null,"begin":null,"end":null,"altitudeMode":null,"tessellate":-1,"extrude":0,"visibility":-1,"drawOrder":null,"icon":null,"COD":"A006","FAZENDA":"Iéu (FFC)","Municipio":"Floriano","Legenda":"Propriedades Compradas","UF":"PI","FOCO":"Sim","FONTE":"ImóveisCertificados -Lei 10267","EIA_RIMA":"Sim","ID2":11,"AREA_ha":996.126,"RECEBIDO":"","CAR":"OK -","RL_AVERBAD":"-","BLOCO":"Bloco 02","AREA_RL":298.838,"x":-43.187046529491212,"Y":-7.1871910745981555,"Nome":"CANTO DO BURITI","UF_2":"PI","Código":"A365","n":1,"distance":0.95452640842645875,"feature_x":-43.187046529491212,"feature_y":-7.1871910745981555,"nearest_x":-42.975833,"nearest_y":-8.118056},"geometry":{"type":"Point","coordinates":[-43.187046529491212,-7.187191074598156]}},
{"type":"Feature","properties":{"fid":38,"id":null,"Name":"Milagroso","description":null,"timestamp":null,"begin":null,"end":null,"altitudeMode":null,"tessellate":-1,"extrude":0,"visibility":-1,"drawOrder":null,"icon":null,"COD":"A075","FAZENDA":"Milagroso","Municipio":"Floriano","Legenda":"Propriedades Compradas","UF":"PI","FOCO":"Sim","FONTE":"ImóveisCertificados -Sigef","EIA_RIMA":"Sim","ID2":29,"AREA_ha":491.113,"RECEBIDO":"","CAR":"OK -","RL_AVERBAD":"-","BLOCO":"Bloco 02","AREA_RL":147.334,"x":-42.934819113730512,"Y":-7.2701098674970659,"Nome":"CANTO DO BURITI","UF_2":"PI","Código":"A365","n":1,"distance":0.84893744321569942,"feature_x":-42.934819113730512,"feature_y":-7.2701098674970659,"nearest_x":-42.975833,"nearest_y":-8.118056},"geometry":{"type":"Point","coordinates":[-42.934819113730512,-7.270109867497066]}},
{"type":"Feature","properties":{"fid":39,"id":null,"Name":"Milagroso","description":null,"timestamp":null,"begin":null,"end":null,"altitudeMode":null,"tessellate":-1,"extrude":0,"visibility":-1,"drawOrder":null,"icon":null,"COD":"A075","FAZENDA":"Milagroso","Municipio":"Floriano","Legenda":"Propriedades Compradas","UF":"PI","FOCO":"Sim","FONTE":"ImóveisCertificados -Sigef","EIA_RIMA":"Sim","ID2":29,"AREA_ha":157.618,"RECEBIDO":"","CAR":"OK -","RL_AVERBAD":"-","BLOCO":"Bloco 02","AREA_RL":47.2853,"x":-42.927992037045172,"Y":-7.2596450030127642,"Nome":"CANTO DO BURITI","UF_2":"PI","Código":"A365","n":1,"distance":0.85974309970191931,"feature_x":-42.927992037045172,"feature_y":-7.2596450030127642,"nearest_x":-42.975833,"nearest_y":-8.118056},"geometry":{"type":"Point","coordinates":[-42.927992037045172,-7.259645003012764]}},
{"type":"Feature","properties":{"fid":40,"id":null,"Name":"Sítio (GMFC)","description":null,"timestamp":null,"begin":null,"end":null,"altitudeMode":null,"tessellate":-1,"extrude":0,"visibility":-1,"drawOrder":null,"icon":null,"COD":"A214","FAZENDA":"Sítio (GMFC)","Municipio":"Canavieira/Jerumenha/Itaueira","Legenda":"Propriedades Compradas","UF":"PI","FOCO":"Sim","FONTE":"ImóveisCertificados -Lei 10267","EIA_RIMA":"Sim","ID2":19,"AREA_ha":5314.59,"RECEBIDO":"","CAR":"OK -","RL_AVERBAD":"Sim","BLOCO":"Bloco 02","AREA_RL":1062.92,"x":-43.327199645658894,"Y":-7.4128382809576454,"Nome":"CANTO DO BURITI","UF_2":"PI","Código":"A365","n":1,"distance":0.78790262782458209,"feature_x":-43.327199645658894,"feature_y":-7.4128382809576454,"nearest_x":-42.975833,"nearest_y":-8.118056},"geometry":{"type":"Point","coordinates":[-43.327199645658894,-7.412838280957645]}},
{"type":"Feature","properties":{"fid":41,"id":null,"Name":"Sítio (FFC)","description":null,"timestamp":null,"begin":null,"end":null,"altitudeMode":null,"tessellate":-1,"extrude":0,"visibility":-1,"drawOrder":null,"icon":null,"COD":"A002","FAZENDA":"Sítio (FFC)","Municipio":"Canavieira/Jerumenha","Legenda":"Propriedades Compradas","UF":"PI","FOCO":"Sim","FONTE":"ImóveisCertificados -Lei 10267","EIA_RIMA":"Sim","ID2":10,"AREA_ha":15395.8,"RECEBIDO":"","CAR":"OK -","RL_AVERBAD":"Sim","BLOCO":"Bloco 01","AREA_RL":3079.15,"x":-43.384417406494229,"Y":-7.4031253725406767,"Nome":"CANTO DO BURITI","UF_2":"PI","Código":"A365","n":1,"distance":0.82344824932087934,"feature_x":-43.384417406494229,"feature_y":-7.4031253725406767,"nearest_x":-42.975833,"nearest_y":-8.118056},"geometry":{"type":"Point","coordinates":[-43.384417406494229,-7.403125372540677]}},
{"type":"Feature","properties":{"fid":42,"id":null,"Name":"São Francisco (MFC)","description":null,"timestamp":null,"begin":null,"end":null,"altitudeMode":null,"tessellate":-1,"extrude":0,"visibility":-1,"drawOrder":null,"icon":null,"COD":"A213","FAZENDA":"São Francisco (MFC)","Municipio":"Itaueira","Legenda":"Propriedades Compradas","UF":"PI","FOCO":"Sim","FONTE":"Memorial Opção de Compra","EIA_RIMA":"Sim","ID2":0,"AREA_ha":7159.51,"RECEBIDO":"Opção Cliente (Taina-Email)","CAR":"OK -","RL_AVERBAD":"-","BLOCO":"Bloco 02","AREA_RL":2147.85,"x":-43.336029533244215,"Y":-7.5391343067062451,"Nome":"CANTO DO BURITI","UF_2":"PI","Código":"A365","n":1,"distance":0.68182979513017572,"feature_x":-43.336029533244215,"feature_y":-7.5391343067062451,"nearest_x":-42.975833,"nearest_y":-8.118056},"geometry":{"type":"Point","coordinates":[-43.336029533244215,-7.539134306706245]}},
{"type":"Feature","properties":{"fid":43,"id":null,"Name":"Riacho da Areia","description":null,"timestamp":null,"begin":null,"end":null,"altitudeMode":null,"tessellate":-1,"extrude":0,"visibility":-1,"drawOrder":null,"icon":null,"COD":"A521","FAZENDA":"Riacho da Areia","Municipio":"Floriano","Legenda":"Propriedades com Intenção de Compra","UF":"PI","FOCO":"Sim","FONTE":"Sobreposição INCRA","EIA_RIMA":"Sim","ID2":25,"AREA_ha":2019.45,"RECEBIDO":"","CAR":"-","RL_AVERBAD":"-","BLOCO":"Aguard Lim","AREA_RL":605.835,"x":-42.988661696852844,"Y":-7.1385966891159267,"Nome":"CANTO DO BURITI","UF_2":"PI","Código":"A365","n":1,"distance":0.97954332070636074,"feature_x":-42.988661696852844,"feature_y":-7.1385966891159267,"nearest_x":-42.975833,"nearest_y":-8.118056},"geometry":{"type":"Point","coordinates":[-42.988661696852844,-7.138596689115927]}},
{"type":"Feature","properties":{"fid":44,"id":null,"Name":"Rio Branco","description":null,"timestamp":null,"begin":null,"end":null,"altitudeMode":null,"tessellate":-1,"extrude":0,"visibility":-1,"drawOrder":null,"icon":null,"COD":"A278","FAZENDA":"Rio Branco","Municipio":"Floriano","Legenda":"Propriedades Compradas","UF":"PI","FOCO":"Sim","FONTE":"DWG-Cliente","EIA_RIMA":"Sim","ID2":21,"AREA_ha":1080.09,"RECEBIDO":"17/04/2017","CAR":"OK -","RL_AVERBAD":"Sim","BLOCO":"Bloco 02","AREA_RL":216.018,"x":-42.883494152822507,"Y":-6.9377702152250409,"Nome":"CANTO DO BURITI","UF_2":"PI","Código":"A365","n":1,"distance":1.1838923077881316,"feature_x":-42.883494152822507,"feature_y":-6.9377702152250409,"nearest_x":-42.975833,"nearest_y":-8.118056},"geometry":{"type":"Point","coordinates":[-42.883494152822507,-6.937770215225041]}},
{"type":"Feature","properties":{"fid":45,"id":null,"Name":"Boa Vista","description":null,"timestamp":null,"begin":null,"end":null,"altitudeMode":null,"tessellate":-1,"extrude":0,"visibility":-1,"drawOrder":null,"icon":null,"COD":"A476","FAZENDA":"Boa Vista","Municipio":"Floriano","Legenda":"Propriedades Compradas","UF":"PI","FOCO":"Sim","FONTE":"DWG/SHP-Cliente","EIA_RIMA":"Sim","ID2":24,"AREA_ha":196.006,"RECEBIDO":"05/04/2017","CAR":"OK -","RL_AVERBAD":"-","BLOCO":"Bloco 02","AREA_RL":58.8019,"x":-43.134603580344702,"Y":-7.0431615793599187,"Nome":"CANTO DO BURITI","UF_2":"PI","Código":"A365","n":1,"distance":1.0865569992900361,"feature_x":-43.134603580344702,"feature_y":-7.0431615793599187,"nearest_x":-42.975833,"nearest_y":-8.118056},"geometry":{"type":"Point","coordinates":[-43.134603580344702,-7.043161579359919]}},
{"type":"Feature","properties":{"fid":46,"id":null,"Name":"Milagroso","description":null,"timestamp":null,"begin":null,"end":null,"altitudeMode":null,"tessellate":-1,"extrude":0,"visibility":-1,"drawOrder":null,"icon":null,"COD":"A075","FAZENDA":"Milagroso","Municipio":"Floriano","Legenda":"Propriedades Compradas","UF":"PI","FOCO":"Sim","FONTE":"ImóveisCertificados -Sigef","EIA_RIMA":"Sim","ID2":29,"AREA_ha":6.9442,"RECEBIDO":"","CAR":"OK -","RL_AVERBAD":"-","BLOCO":"Bloco 02","AREA_RL":2.0833,"x":-42.929605284808595,"Y":-7.2642793100169811,"Nome":"CANTO DO BURITI","UF_2":"PI","Código":"A365","n":1,"distance":0.85502727325517314,"feature_x":-42.929605284808595,"feature_y":-7.2642793100169811,"nearest_x":-42.975833,"nearest_y":-8.118056},"geometry":{"type":"Point","coordinates":[-42.929605284808595,-7.264279310016981]}},
{"type":"Feature","properties":{"fid":47,"id":null,"Name":"Malhada Vermelha","description":null,"timestamp":null,"begin":null,"end":null,"altitudeMode":null,"tessellate":-1,"extrude":0,"visibility":-1,"drawOrder":null,"icon":null,"COD":"A575","FAZENDA":"Malhada Vermelha","Municipio":"Floriano","Legenda":"Propriedades Compradas","UF":"PI","FOCO":"Sim","FONTE":"DWG-Cliente","EIA_RIMA":"Sim","ID2":49,"AREA_ha":174.853,"RECEBIDO":"15/09/2016","CAR":"OK -","RL_AVERBAD":"-","BLOCO":"Bloco 01","AREA_RL":52.4559,"x":-43.098705399142418,"Y":-6.9155273661146559,"Nome":"CANTO DO BURITI","UF_2":"PI","Código":"A365","n":1,"distance":1.2087897839513551,"feature_x":-43.098705399142418,"feature_y":-6.9155273661146559,"nearest_x":-42.975833,"nearest_y":-8.118056},"geometry":{"type":"Point","coordinates":[-43.098705399142418,-6.915527366114656]}},
{"type":"Feature","properties":{"fid":48,"id":null,"Name":"Porteiras","description":null,"timestamp":null,"begin":null,"end":null,"altitudeMode":null,"tessellate":-1,"extrude":0,"visibility":-1,"drawOrder":null,"icon":null,"COD":"A123","FAZENDA":"Porteiras","Municipio":"Pavussu","Legenda":"Propriedades Compradas","UF":"PI","FOCO":"Sim","FONTE":"DWG-Cliente","EIA_RIMA":"Sim","ID2":1,"AREA_ha":292.748,"RECEBIDO":"","CAR":"-","RL_AVERBAD":"-","BLOCO":"Bloco 04","AREA_RL":87.8245,"x":-43.394305507329875,"Y":-7.8719207598753407,"Nome":"CANTO DO BURITI","UF_2":"PI","Código":"A365","n":1,"distance":0.48549129325063545,"feature_x":-43.394305507329875,"feature_y":-7.8719207598753407,"nearest_x":-42.975833,"nearest_y":-8.118056},"geometry":{"type":"Point","coordinates":[-43.394305507329875,-7.871920759875341]}},
{"type":"Feature","properties":{"fid":49,"id":null,"Name":"São Francisco (FRRC)","description":null,"timestamp":null,"begin":null,"end":null,"altitudeMode":null,"tessellate":-1,"extrude":0,"visibility":-1,"drawOrder":null,"icon":null,"COD":"A210","FAZENDA":"São Francisco (FRRC)","Municipio":"Itaueira","Legenda":"Propriedades Compradas","UF":"PI","FOCO":"Sim","FONTE":"DWG-Cliente","EIA_RIMA":"Sim","ID2":15,"AREA_ha":6474.68,"RECEBIDO":"15/09/2016 - 24/04/2017","CAR":"OK -","RL_AVERBAD":"-","BLOCO":"Bloco 02","AREA_RL":1942.4,"x":-43.312127542907128,"Y":-7.6195079940130483,"Nome":"CANTO DO BURITI","UF_2":"PI","Código":"A365","n":1,"distance":0.60136855077620888,"feature_x":-43.312127542907128,"feature_y":-7.6195079940130483,"nearest_x":-42.975833,"nearest_y":-8.118056},"geometry":{"type":"Point","coordinates":[-43.312127542907128,-7.619507994013048]}},
{"type":"Feature","properties":{"fid":50,"id":null,"Name":"São Francisco (GMFC)","description":null,"timestamp":null,"begin":null,"end":null,"altitudeMode":null,"tessellate":-1,"extrude":0,"visibility":-1,"drawOrder":null,"icon":null,"COD":"A211","FAZENDA":"São Francisco (GMFC)","Municipio":"Itaueira","Legenda":"Propriedades Compradas","UF":"PI","FOCO":"Sim","FONTE":"Problema SHP Cliente","EIA_RIMA":"Sim","ID2":16,"AREA_ha":5339.23,"RECEBIDO":"05/04/2017 - 24 e 27/04/2017","CAR":"OK -","RL_AVERBAD":"-","BLOCO":"Bloco 02","AREA_RL":1601.77,"x":-43.288040459227602,"Y":-7.5643211995870612,"Nome":"CANTO DO BURITI","UF_2":"PI","Código":"A365","n":1,"distance":0.63568524191278053,"feature_x":-43.288040459227602,"feature_y":-7.5643211995870612,"nearest_x":-42.975833,"nearest_y":-8.118056},"geometry":{"type":"Point","coordinates":[-43.288040459227602,-7.564321199587061]}},
{"type":"Feature","properties":{"fid":51,"id":null,"Name":"Lagoinhas","description":null,"timestamp":null,"begin":null,"end":null,"altitudeMode":null,"tessellate":-1,"extrude":0,"visibility":-1,"drawOrder":null,"icon":null,"COD":"A547","FAZENDA":"Lagoinhas","Municipio":"Floriano","Legenda":"Propriedades Compradas","UF":"PI","FOCO":"Sim","FONTE":"Problema SHP Cliente","EIA_RIMA":"Sim","ID2":38,"AREA_ha":1066.58,"RECEBIDO":"15/09/2016","CAR":"OK -","RL_AVERBAD":"-","BLOCO":"Bloco 01","AREA_RL":319.975,"x":-43.18329680736359,"Y":-7.1191228459642169,"Nome":"CANTO DO BURITI","UF_2":"PI","Código":"A365","n":1,"distance":1.020249321292434,"feature_x":-43.18329680736359,"feature_y":-7.1191228459642169,"nearest_x":-42.975833,"nearest_y":-8.118056},"geometry":{"type":"Point","coordinates":[-43.18329680736359,-7.119122845964217]}},
{"type":"Feature","properties":{"fid":52,"id":null,"Name":"Traíra","description":null,"timestamp":null,"begin":null,"end":null,"altitudeMode":null,"tessellate":-1,"extrude":0,"visibility":-1,"drawOrder":null,"icon":null,"COD":"A059","FAZENDA":"Traíra","Municipio":"Canavieira","Legenda":"Propriedades com Intenção de Compra","UF":"PI","FOCO":"Sim","FONTE":"ImóveisCertificados -Lei 10267","EIA_RIMA":"Sim","ID2":13,"AREA_ha":307.29,"RECEBIDO":"","CAR":"OK -","RL_AVERBAD":"Sim","BLOCO":"Bloco 02","AREA_RL":61.4579,"x":-43.384043419983144,"Y":-7.3556969193159496,"Nome":"CANTO DO BURITI","UF_2":"PI","Código":"A365","n":1,"distance":0.86476997801972899,"feature_x":-43.384043419983144,"feature_y":-7.3556969193159496,"nearest_x":-42.975833,"nearest_y":-8.118056},"geometry":{"type":"Point","coordinates":[-43.384043419983144,-7.35569691931595]}},
{"type":"Feature","properties":{"fid":53,"id":null,"Name":"Traíra","description":null,"timestamp":null,"begin":null,"end":null,"altitudeMode":null,"tessellate":-1,"extrude":0,"visibility":-1,"drawOrder":null,"icon":null,"COD":"A059","FAZENDA":"Traíra","Municipio":"Canavieira","Legenda":"Propriedades com Intenção de Compra","UF":"PI","FOCO":"Sim","FONTE":"ImóveisCertificados -Lei 10267","EIA_RIMA":"Sim","ID2":13,"AREA_ha":453.077,"RECEBIDO":"","CAR":"OK -","RL_AVERBAD":"Sim","BLOCO":"Bloco 02","AREA_RL":90.6154,"x":-43.423497725453288,"Y":-7.37474810800631,"Nome":"CANTO DO BURITI","UF_2":"PI","Código":"A365","n":1,"distance":0.86770405595183675,"feature_x":-43.423497725453288,"feature_y":-7.37474810800631,"nearest_x":-42.975833,"nearest_y":-8.118056},"geometry":{"type":"Point","coordinates":[-43.423497725453288,-7.37474810800631]}},
{"type":"Feature","properties":{"fid":54,"id":null,"Name":"Estocado de Baixo","description":null,"timestamp":null,"begin":null,"end":null,"altitudeMode":null,"tessellate":-1,"extrude":0,"visibility":-1,"drawOrder":null,"icon":null,"COD":"A297","FAZENDA":"Estocado de Baixo","Municipio":"Floriano","Legenda":"Propriedades Compradas","UF":"PI","FOCO":"Sim","FONTE":"ImóveisCertificados -Lei 10267","EIA_RIMA":"Sim","ID2":55,"AREA_ha":108.147,"RECEBIDO":"13/09/2017","CAR":"OK","RL_AVERBAD":"-","BLOCO":"Bloco 02","AREA_RL":32.4442,"x":-43.139760008692022,"Y":-7.0119676399999742,"Nome":"CANTO DO BURITI","UF_2":"PI","Código":"A365","n":1,"distance":1.1181697207071291,"feature_x":-43.139760008692022,"feature_y":-7.0119676399999742,"nearest_x":-42.975833,"nearest_y":-8.118056},"geometry":{"type":"Point","coordinates":[-43.139760008692022,-7.011967639999974]}}
]
}
